place,category,x,y,address
롯데시네마 가산디지털,"문화,예술 > 영화,영상 > 영화관 > 롯데시네마",37.478019960086,126.889145868138,서울 금천구 가산동 60-8
롯데시네마 신대방,"문화,예술 > 영화,영상 > 영화관 > 롯데시네마",37.48653388706543,126.90500256135137,서울 동작구 신대방동 686-48
G밸리산업박물관,"문화,예술 > 문화시설 > 박물관",37.4799176625706,126.895266356332,서울 구로구 구로동 832
극장 칸테움,"문화,예술 > 문화시설 > 공연장,연극극장",37.4821427337399,126.898921958134,서울 구로구 구로동 1127-22
행복한아이,"문화,예술 > 문화시설 > 전시관",37.480306916587,126.908294835037,서울 금천구 독산동 901-1
뮤지트,"문화,예술 > 문화시설 > 공연장,연극극장",37.4812305241222,126.900587449005,서울 관악구 신림동 1666-16
에너지정보관,"문화,예술 > 문화시설 > 전시관",37.4803537690018,126.908294777779,서울 금천구 독산동 901-1
오씨어터,"문화,예술 > 문화시설 > 공연장,연극극장",37.4768653649104,126.891625732559,서울 금천구 가산동 113-1
롯데시네마 신림,"문화,예술 > 영화,영상 > 영화관 > 롯데시네마",37.4837168847,126.930193627803,서울 관악구 신림동 1641-2
호림박물관,"문화,예술 > 문화시설 > 박물관",37.4807502545322,126.918166742193,서울 관악구 신림동 1707
삼모아트센터,"문화,예술 > 문화시설 > 공연장,연극극장",37.4822384711187,126.928919654579,서울 관악구 신림동 1638-1
틈새소극장,"문화,예술 > 문화시설 > 공연장,연극극장",37.4839163301012,126.938908519826,서울 관악구 봉천동 948-15
실린더,"문화,예술 > 문화시설 > 미술관",37.4837944274097,126.943817908997,서울 관악구 봉천동 908-66
시립보라매청소년센터 다이나믹홀,"문화,예술 > 문화시설 > 공연장,연극극장",37.493874995836705,126.92180378902933,서울 동작구 신대방동 722
산수문화,"문화,예술 > 문화시설 > 전시관",37.4856885888714,126.919341786104,서울 관악구 신림동 481-5
라이브홀더클럽,"문화,예술 > 문화시설 > 공연장,연극극장",37.483193795046,126.923554981022,서울 관악구 신림동 1578-2
딥숲,"문화,예술 > 문화시설 > 공연장,연극극장",37.4801295888994,126.928057876536,서울 관악구 신림동 1635-63
해피로브레인문화원,"문화,예술 > 문화시설 > 문화원",37.4876970826257,126.932510142329,서울 관악구 봉천동 968-36
CGV 영등포,"문화,예술 > 영화,영상 > 영화관 > CGV",37.5175176380239,126.902756404631,서울 영등포구 영등포동4가 442
롯데시네마 영등포,"문화,예술 > 영화,영상 > 영화관 > 롯데시네마",37.51626572006917,126.90784590233508,서울 영등포구 영등포동 618-496
디큐브링크아트센터,"문화,예술 > 문화시설 > 공연장,연극극장",37.5091267288182,126.889588489589,서울 구로구 신도림동 692
씨네Q 신도림,"문화,예술 > 영화,영상 > 영화관",37.507516152916054,126.89003874131905,서울 구로구 구로동 3-25
영등포문화원,"문화,예술 > 문화시설 > 문화원",37.516115816593,126.912133103463,서울 영등포구 영등포동 582-3
아트필드갤러리,"문화,예술 > 문화시설 > 미술관",37.5137738662507,126.895259783495,서울 영등포구 문래동2가 14-61
문래예술공장,"문화,예술 > 문화시설 > 공연장,연극극장",37.513223072829,126.900137835853,서울 영등포구 문래동1가 30
구로구민회관 대강당,"문화,예술 > 문화시설 > 공연장,연극극장",37.4971290233331,126.889674007092,서울 구로구 구로동 102
아트리움,"문화,예술 > 문화시설 > 공연장,연극극장",37.5176632672583,126.904557026037,서울 영등포구 영등포동4가 442
문래재즈인,"문화,예술 > 문화시설 > 공연장,연극극장",37.5161339303745,126.890659535745,서울 영등포구 문래동4가 7-1
서울생활문화센터 신도림,"문화,예술 > 문화시설 > 전시관",37.508263597201896,126.89156678441512,서울 구로구 구로동 3-42
꼴라보하우스 문래,"문화,예술 > 문화시설 > 전시관",37.51377930754613,126.8932860001195,서울 영등포구 문래동2가 47-4
구루지,"문화,예술 > 문화시설 > 미술관",37.4969989740255,126.889348513494,서울 구로구 구로동 102
롯데문화홀 롯데백화점 영등포점,"문화,예술 > 문화시설 > 공연장,연극극장",37.51630973492114,126.9076739146415,서울 영등포구 영등포동 618-496
대안예술공간이포,"문화,예술 > 문화시설 > 전시관",37.51403689565165,126.8972388540351,서울 영등포구 문래동3가 54-37
스페이스엑스엑스,"문화,예술 > 문화시설 > 전시관",37.5144122442214,126.895788252309,서울 영등포구 문래동3가 54-5
영등포 문래예술의전당 (2024년예정),"문화,예술 > 문화시설 > 공연장,연극극장",37.5179305537603,126.898771901063,서울 영등포구 문래동3가 55-6
지적인고양이,"문화,예술 > 문화시설 > 전시관",37.514087455486,126.893291216907,서울 영등포구 문래동2가 45-4
스마트구로홍보관,"문화,예술 > 문화시설 > 전시관",37.50943401799712,126.89060710219648,서울 구로구 신도림동 349-19
주말극장,"문화,예술 > 문화시설 > 공연장,연극극장",37.5139875797694,126.896481080122,서울 영등포구 문래동3가 54-34
공간사일삼,"문화,예술 > 문화시설 > 전시관",37.5146631971052,126.890340444266,서울 영등포구 문래동4가 31-48
노이지갤러리,"문화,예술 > 문화시설 > 미술관",37.5137062237789,126.897234783006,서울 영등포구 문래동3가 54-43
유니온아트페어,"문화,예술 > 문화시설 > 전시관",37.51406018187241,126.8970782047912,서울 영등포구 문래동3가 54-36
프로젝트스페이스 영등포,"문화,예술 > 문화시설 > 전시관",37.5135870064199,126.908968985874,서울 영등포구 영등포동 616-4
U갤러리,"문화,예술 > 문화시설 > 미술관",37.51406197343171,126.90798434503846,서울 영등포구 영등포동 618-38
지비엔라이브하우스,"문화,예술 > 문화시설 > 공연장,연극극장",37.5137353505935,126.896540245855,서울 영등포구 문래동3가 54-41
빈칸 문래,"문화,예술 > 문화시설 > 전시관",37.5147303520967,126.896875945468,서울 영등포구 문래동3가 54-22
갤러리도감,"문화,예술 > 문화시설 > 미술관",37.5127215714187,126.895347216694,서울 영등포구 문래동2가 7-4
민화팩토리,"문화,예술 > 문화시설 > 문화원",37.51270265036252,126.89534724311312,서울 영등포구 문래동2가 7-4
스튜디오QDA,"문화,예술 > 문화시설 > 공연장,연극극장",37.5139407316038,126.896485669253,서울 영등포구 문래동3가 54-34
다이브 인,"문화,예술 > 문화시설 > 전시관",37.5176377424775,126.904190562083,서울 영등포구 영등포동4가 442
몬스덕,"문화,예술 > 문화시설 > 공연장,연극극장",37.5118902249853,126.892647370161,서울 영등포구 문래동2가 30-2
난석민속품전시관,"문화,예술 > 문화시설 > 전시관",37.5185533126368,126.906629337581,서울 영등포구 영등포동3가 7-14
커먼센터,"문화,예술 > 문화시설 > 전시관",37.5158395471282,126.904446235191,서울 영등포구 영등포동4가 426-2
위켄드,"문화,예술 > 문화시설 > 전시관",37.5158575525345,126.904428114073,서울 영등포구 영등포동4가 426-2
씨에이치문화원,"문화,예술 > 문화시설 > 문화원",37.5052569075741,126.892512104392,서울 구로구 구로동 27-6
엔티라이브,"문화,예술 > 문화시설 > 공연장,연극극장",37.4968128115055,126.890687711735,서울 구로구 구로동 104-1
화이트칼럼스,"문화,예술 > 문화시설 > 공연장,연극극장",37.5134987947887,126.893952617039,서울 영등포구 문래동2가 44-14
CTS아트홀,"문화,예술 > 문화시설 > 공연장,연극극장",37.512974613298,126.937061522698,서울 동작구 노량진동 27-2
동작문화원,"문화,예술 > 문화시설 > 문화원",37.5044135474575,126.94109946093,서울 동작구 상도동 176-3
아트홀봄,"문화,예술 > 문화시설 > 공연장,연극극장",37.511837252159,126.92714521582,서울 동작구 대방동 345-1
상도어울마당 아트홀,"문화,예술 > 문화시설 > 공연장,연극극장",37.4992630371498,126.940378609472,서울 동작구 상도동 202-237
끌레르 아트홀,"문화,예술 > 문화시설 > 공연장,연극극장",37.5086695188149,126.940349639324,서울 동작구 노량진동 231-170
아트마트,"문화,예술 > 문화시설 > 전시관",37.498493137413,126.923923884482,서울 동작구 대방동 412-20
국화소극장,"문화,예술 > 문화시설 > 공연장,연극극장",37.5047776367977,126.941266558176,서울 동작구 상도동 170-26
아이공유,"문화,예술 > 문화시설 > 미술관",37.5109112619492,126.921884422136,서울 영등포구 신길동 465-22
상도 푸르지오 클라베뉴,"문화,예술 > 문화시설 > 전시관",37.5046655322969,126.938744590875,서울 동작구 상도동 26-20
아리인,"문화,예술 > 문화시설 > 공연장,연극극장",37.50580611179,126.92456791077,서울 동작구 대방동 501
농심 식문화연구,"문화,예술 > 문화시설 > 문화원",37.496604840721,126.918827951967,서울 동작구 신대방동 370-1
AAC아트홀,"문화,예술 > 문화시설 > 공연장,연극극장",37.5107410650298,126.93224961509,서울 동작구 대방동 23-107
쏙아트홀,"문화,예술 > 문화시설 > 공연장,연극극장",37.5107879302025,126.932272193905,서울 동작구 대방동 23-109
한불문화원,"문화,예술 > 문화시설 > 문화원",37.5044814958202,126.921588023605,서울 영등포구 신길동 841
롯데시네마 서울대입구,"문화,예술 > 영화,영상 > 영화관 > 롯데시네마",37.480973433386254,126.95215035036244,서울 관악구 봉천동 862-1
우리누리아트,"문화,예술 > 문화시설 > 공연장,연극극장",37.4746296070962,126.95259981743,서울 관악구 봉천동 1592-9
콜링아트센터,"문화,예술 > 문화시설 > 공연장,연극극장",37.47770964299986,126.95840669011749,서울 관악구 봉천동 1626-22
숭실대학교 한국기독교박물관,"문화,예술 > 문화시설 > 박물관",37.4956878521096,126.95699222933,서울 동작구 상도동 511
동작문화원 사당분원,"문화,예술 > 문화시설 > 문화원",37.4847535518423,126.969657437861,서울 동작구 사당동 248-6
작당모의 극장,"문화,예술 > 문화시설 > 공연장,연극극장",37.478215927588,126.958172381984,서울 관악구 봉천동 1620-35
예강갤러리,"문화,예술 > 문화시설 > 미술관",37.4950070089407,126.957874660011,서울 동작구 상도동 506-4
배우는소극장,"문화,예술 > 문화시설 > 공연장,연극극장",37.4755225893405,126.96589877554,서울 관악구 봉천동 1656-6
이희자갤러리,"문화,예술 > 문화시설 > 미술관",37.47449127070142,126.9585045671942,서울 관악구 봉천동 산 53-1
메가박스 이수,"문화,예술 > 영화,영상 > 영화관 > 메가박스",37.484613666261986,126.98166627919224,서울 동작구 사당동 147-53
메가박스 아트나인,"문화,예술 > 영화,영상 > 영화관 > 메가박스",37.4846217805965,126.98170019714026,서울 동작구 사당동 147-53
서울시립 남서울미술관,"문화,예술 > 문화시설 > 미술관",37.47607534453375,126.9794807787916,서울 관악구 남현동 1059-13
투움아트홀,"문화,예술 > 문화시설 > 공연장,연극극장",37.4795838550166,126.999776143484,서울 서초구 방배동 1021-5
유중아트센터,"문화,예술 > 문화시설 > 공연장,연극극장",37.4896479021521,126.992826584622,서울 서초구 방배동 851-4
서초수학박물관,"문화,예술 > 문화시설 > 박물관",37.486908587093914,126.98947545520416,서울 서초구 방배동 869-8
르비채아트뮤지엄,"문화,예술 > 문화시설 > 미술관",37.488602829324,126.994640366455,서울 서초구 방배동 876-27
백석아트홀,"문화,예술 > 문화시설 > 공연장,연극극장",37.4807533184866,126.996680540535,서울 서초구 방배동 981-10
경암 이철호문학기념관,"문화,예술 > 문화시설 > 문화원",37.4877334018894,126.984803240544,서울 서초구 방배동 1345
뮤제드파팡,"문화,예술 > 문화시설 > 전시관",37.4952086791953,126.989600942855,서울 서초구 방배동 17-1
필라이브홀,"문화,예술 > 문화시설 > 공연장,연극극장",37.4861622910476,126.986865932947,서울 서초구 방배동 867-31
아카데미웰,"문화,예술 > 문화시설 > 미술관",37.4941746664008,126.994798281489,서울 서초구 방배동 1-3
아트바이브,"문화,예술 > 문화시설 > 미술관",37.4942100594404,126.986584083172,서울 서초구 방배동 769-20
액션가면소극장,"문화,예술 > 문화시설 > 공연장,연극극장",37.4779118287869,126.980830169197,서울 동작구 사당동 1042-2
지인아트랩,"문화,예술 > 문화시설 > 미술관",37.4780287121798,126.999543251725,서울 서초구 방배동 1031-7
아트엠스페이스,"문화,예술 > 문화시설 > 미술관",37.4937527339147,126.990578157656,서울 서초구 방배동 796-13
문화놀이터액션가면 1연습실,"문화,예술 > 문화시설 > 공연장,연극극장",37.4796378984107,126.979264992732,서울 동작구 사당동 1027-37
미나갤러리,"문화,예술 > 문화시설 > 전시관",37.4946933299323,126.989908596313,서울 서초구 방배동 773-8
연습실 사당점,"문화,예술 > 문화시설 > 공연장,연극극장",37.4769347843504,126.978781864817,서울 동작구 사당동 1044-13
미나아뜰리에,"문화,예술 > 문화시설 > 전시관",37.4946618002742,126.989974187867,서울 서초구 방배동 773-8
노들섬라이브하우스,"문화,예술 > 문화시설 > 공연장,연극극장",37.518119751416975,126.95832771258652,서울 용산구 이촌동 302-146
중앙대학교 중앙문화예술관,"문화,예술 > 문화시설 > 공연장,연극극장",37.5053528734016,126.954403534396,서울 동작구 흑석동 221
중앙대학교아트센터 대극장,"문화,예술 > 문화시설 > 공연장,연극극장",37.5053780980494,126.954394471237,서울 동작구 흑석동 221
사육신역사공원 사육신역사관,"문화,예술 > 문화시설 > 전시관",37.514124449351286,126.9485458395054,서울 동작구 노량진동 152-3
중력장,"문화,예술 > 문화시설 > 공연장,연극극장",37.5074576462225,126.96504730749577,서울 동작구 흑석동 9-27
노량진문화원,"문화,예술 > 문화시설 > 문화원",37.5125540965722,126.955435228276,서울 동작구 본동 47-6
보현미술관,"문화,예술 > 문화시설 > 미술관",37.5124351952905,126.95318670454,서울 동작구 본동 150
심산김창숙기념관,"문화,예술 > 문화시설 > 기념관",37.49912007964684,126.99121417041864,서울 서초구 반포동 114-3
국립서울현충원 유품전시관,"문화,예술 > 문화시설 > 전시관",37.5005516535036,126.976925024056,서울 동작구 동작동 179-1
스페이스이수,"문화,예술 > 문화시설 > 전시관",37.498021020781614,126.99389332160716,서울 서초구 반포동 112-4
써포먼트갤러리,"문화,예술 > 문화시설 > 미술관",37.4976994980926,126.997760894188,서울 서초구 반포동 96-1
예빛섬 야외무대,"문화,예술 > 문화시설 > 공연장,연극극장",37.5103963763153,126.99484239811,서울 서초구 반포동 115-5
한생연 휴먼탐구과학관,"문화,예술 > 문화시설 > 과학관",37.50213357291602,126.987152653484,서울 서초구 반포동 1313
애니버셔리 뮤지엄,"문화,예술 > 문화시설 > 전시관",37.5123696171591,126.995894169355,서울 서초구 반포동 650
이상아트스페이스,"문화,예술 > 문화시설 > 전시관",37.4975081712071,126.991106927696,서울 서초구 반포동 612-121
클래식라운지,"문화,예술 > 문화시설 > 공연장,연극극장",37.49640012956767,126.98432992345973,서울 서초구 방배동 763-32
국립서울현충원 호국전시관,"문화,예술 > 문화시설 > 전시관",37.5015916972943,126.97842204233643,서울 동작구 동작동 산 41-2
이성자기념관,"문화,예술 > 문화시설 > 기념관",37.497221785382344,126.9931176206285,서울 서초구 반포동 612-29
예빗섬 야외무대,"문화,예술 > 문화시설 > 공연장,연극극장",37.510295471045,126.99501093173,서울 서초구 반포동 115-5
서래아르떼홀,"문화,예술 > 문화시설 > 공연장,연극극장",37.4975261909964,126.991102402124,서울 서초구 반포동 612-121
티모시아트,"문화,예술 > 문화시설 > 미술관",37.4988618135037,126.999021789623,서울 서초구 반포동 92-9
반포아트홀,"문화,예술 > 문화시설 > 공연장,연극극장",37.5045327452831,127.000868580799,서울 서초구 반포동 18-3
쉐이커아트갤러리,"문화,예술 > 문화시설 > 미술관",37.5173549182916,126.985213501838,서울 용산구 용산동6가 69-167
플랫폼12,"문화,예술 > 문화시설 > 전시관",37.4990978746023,126.9987515056,서울 서초구 반포동 92-7
알프스멜로디,"문화,예술 > 문화시설 > 공연장,연극극장",37.49816530589438,126.99717622124236,서울 서초구 반포동 105-14
여의도KBS홀,"문화,예술 > 문화시설 > 공연장,연극극장",37.5258272783362,126.915221437055,서울 영등포구 여의도동 18
명화라이브홀,"문화,예술 > 문화시설 > 공연장,연극극장",37.5216013765703,126.912475087298,서울 영등포구 영등포동2가 94-139
영등포아트홀,"문화,예술 > 문화시설 > 공연장,연극극장",37.52620290196588,126.90011827359992,서울 영등포구 당산동3가 3
만천곤충박물관,"문화,예술 > 문화시설 > 박물관",37.5202988291958,126.901422501739,서울 영등포구 영등포동4가 151-2
tcc아트센터,"문화,예술 > 문화시설 > 공연장,연극극장",37.529317756205,126.895029886383,서울 영등포구 당산동4가 93-5
창작플랫폼 경험과상상,"문화,예술 > 문화시설 > 공연장,연극극장",37.5325920750248,126.897170408544,서울 영등포구 당산동5가 7-2
Hall1,"문화,예술 > 문화시설 > 전시관",37.54015468760792,126.89469108640166,서울 영등포구 양평동5가 107-12
쇼앤텔,"문화,예술 > 문화시설 > 미술관",37.53727277244806,126.89717077023856,서울 영등포구 양평동4가 161-6
국회의사당 아트갤러리,"문화,예술 > 문화시설 > 전시관",37.5294882534039,126.914257916618,서울 영등포구 여의도동 1
푸른극장,"문화,예술 > 문화시설 > 공연장,연극극장",37.5207274523864,126.90552143765,서울 영등포구 영등포동5가 24
로컬바이브 선유,"문화,예술 > 문화시설 > 전시관",37.538856956619,126.89436478164,서울 영등포구 양평동5가 88-3
여의대방 더 마크원,"문화,예술 > 문화시설 > 전시관",37.5217324421272,126.895278071044,서울 영등포구 당산동2가 45-9
가치창조제이,"문화,예술 > 문화시설 > 공연장,연극극장",37.5194832523934,126.898039054974,서울 영등포구 문래동3가 46
숲세권 라이브,"문화,예술 > 문화시설 > 공연장,연극극장",37.5360686698301,126.899890142997,서울 영등포구 당산동6가 345-4
꿈이룸소극장,"문화,예술 > 문화시설 > 공연장,연극극장",37.5284271766611,126.898710202493,서울 영등포구 당산동4가 32-6
선유예술상점,"문화,예술 > 문화시설 > 전시관",37.5365433655504,126.89456265422136,서울 영등포구 양평동4가 85-1
액터즈 스튜디오,"문화,예술 > 문화시설 > 공연장,연극극장",37.5271700446009,126.895340611089,서울 영등포구 당산동3가 395-2
CGV 여의도,"문화,예술 > 영화,영상 > 영화관 > CGV",37.5256928036018,126.92558188499092,서울 영등포구 여의도동 23
아쿠아플라넷63,"문화,예술 > 문화시설 > 아쿠아리움",37.52005819657816,126.94032926239164,서울 영등포구 여의도동 60
영산아트홀,"문화,예술 > 문화시설 > 공연장,연극극장",37.5294739059123,126.924946840511,서울 영등포구 여의도동 12
63아트,"문화,예술 > 문화시설 > 전시관",37.51966424797833,126.9399144283606,서울 영등포구 여의도동 60
국회의사당 국회박물관,"문화,예술 > 문화시설 > 박물관",37.531852297174,126.919106553541,서울 영등포구 여의도동 1
SeMA 벙커,"문화,예술 > 문화시설 > 미술관",37.52503572891962,126.92378607494264,서울 영등포구 여의도동 2-11
여의도 물빛무대,"문화,예술 > 문화시설 > 공연장,연극극장",37.532344593806926,126.9279987012228,서울 영등포구 여의도동 84-1
한국잡지정보관,"문화,예술 > 문화시설 > 전시관",37.5196850922663,126.930295877155,서울 영등포구 여의도동 44-31
신영체임버홀,"문화,예술 > 문화시설 > 공연장,연극극장",37.5212663780187,126.92882834906,서울 영등포구 여의도동 34-8
KP갤러리온,"문화,예술 > 문화시설 > 미술관",37.5405545601829,126.942930110774,서울 마포구 용강동 43-6
알트원 더현대서울,"문화,예술 > 문화시설 > 전시관",37.5259387862412,126.928513937636,서울 영등포구 여의도동 22
한국수출입은행 금고미술관,"문화,예술 > 문화시설 > 미술관",37.5287088744903,126.923416918577,서울 영등포구 여의도동 16-1
조용기 목사 기념홀,"문화,예술 > 문화시설 > 기념관",37.5310811183982,126.923274203876,서울 영등포구 여의도동 11
홈앤쇼핑 우수상품 전시관,"문화,예술 > 문화시설 > 전시관",37.528058888328,126.922857579979,서울 영등포구 여의도동 16-2
아트로,"문화,예술 > 문화시설 > 미술관",37.5302396720015,126.922033972275,서울 영등포구 여의도동 13-3
아리수아트홀,"문화,예술 > 문화시설 > 공연장,연극극장",37.5228375111123,126.941573676192,서울 영등포구 여의도동 86
돌하우스아라,"문화,예술 > 문화시설 > 전시관",37.5205229982732,126.933371977144,서울 영등포구 여의도동 42
선유도공원 이야기관,"문화,예술 > 문화시설 > 전시관",37.5431550471226,126.900976006096,서울 영등포구 당산동 1
롯데시네마 합정,"문화,예술 > 영화,영상 > 영화관 > 롯데시네마",37.5514575965918,126.913390790739,서울 마포구 서교동 490
신한카드 SOL페이 스퀘어,"문화,예술 > 문화시설 > 공연장,연극극장",37.55119703529659,126.9143892242954,서울 마포구 서교동 490
라디오가가,"문화,예술 > 문화시설 > 공연장,연극극장",37.5523553077196,126.913824319535,서울 마포구 서교동 384-12
드림홀,"문화,예술 > 문화시설 > 공연장,연극극장",37.5502303425103,126.915750578547,서울 마포구 서교동 394-44
G스페이스홀,"문화,예술 > 문화시설 > 공연장,연극극장",37.54942011396458,126.9093554492971,서울 마포구 합정동 393-18
한국천주교순교자박물관,"문화,예술 > 문화시설 > 박물관",37.54429086657112,126.91191899586276,서울 마포구 합정동 96-1
아트스페이스 합정,"문화,예술 > 문화시설 > 전시관",37.5500980304218,126.908660925456,서울 마포구 합정동 394-7
한국기독교선교기념관,"문화,예술 > 문화시설 > 기념관",37.5464970079284,126.911377759544,서울 마포구 합정동 144
토마토홀,"문화,예술 > 문화시설 > 공연장,연극극장",37.5476461148447,126.910625006597,서울 마포구 합정동 379-5
양화진홀 전시관,"문화,예술 > 문화시설 > 전시관",37.5465946511698,126.911825757308,서울 마포구 합정동 142-1
인사갤러리,"문화,예술 > 문화시설 > 미술관",37.55148185873748,126.91330249214762,서울 마포구 서교동 490
서교스퀘어,"문화,예술 > 문화시설 > 공연장,연극극장",37.550812907801,126.916483240563,서울 마포구 서교동 494
서울생활문화센터 서교스퀘어,"문화,예술 > 문화시설 > 공연장,연극극장",37.5509174106895,126.91646501732056,서울 마포구 서교동 494
누아갤러리,"문화,예술 > 문화시설 > 미술관",37.55072290403405,126.91661914041164,서울 마포구 서교동 494
양화진문화원,"문화,예술 > 문화시설 > 문화원",37.5465087276954,126.9113867984548,서울 마포구 합정동 144
꾸머갤러리,"문화,예술 > 문화시설 > 미술관",37.5469088508935,126.912703512037,서울 마포구 합정동 376-34
KB아트홀,"문화,예술 > 문화시설 > 공연장,연극극장",37.5490990622016,126.911338466528,서울 마포구 합정동 471
루시아트홀,"문화,예술 > 문화시설 > 공연장,연극극장",37.5490291779672,126.914312489245,서울 마포구 합정동 414-3
다이렉트소극장,"문화,예술 > 문화시설 > 공연장,연극극장",37.5494399254828,126.909341845597,서울 마포구 합정동 393-18
이용주 혼자수초상화미술관,"문화,예술 > 문화시설 > 미술관",37.54983922827575,126.91193510017573,서울 마포구 합정동 472
스페이스 자모,"문화,예술 > 문화시설 > 미술관",37.5489374074962,126.91701946483,서울 마포구 서교동 396-33
지하소문,"문화,예술 > 문화시설 > 전시관",37.5497781387148,126.908612654973,서울 마포구 합정동 395-16
인스턴트하우스,"문화,예술 > 문화시설 > 미술관",37.552136818917,126.915700901854,서울 마포구 서교동 380-6
불과얼음 뮤지컬워크숍극장,"문화,예술 > 문화시설 > 공연장,연극극장",37.5495047486251,126.909278395057,서울 마포구 합정동 393-18
슈퍼맨아트홀,"문화,예술 > 문화시설 > 공연장,연극극장",37.5502736355883,126.9158139025,서울 마포구 서교동 394-44
서울에너지드림센터,"문화,예술 > 문화시설 > 전시관",37.5631523966308,126.891419369729,서울 마포구 상암동 1535-3
망원동수장고 소통,"문화,예술 > 문화시설 > 전시관",37.5591922159016,126.901341858464,서울 마포구 망원동 432-3
망원나들목 래빗뮤지엄,"문화,예술 > 문화시설 > 전시관",37.55507298706961,126.89623753964209,서울 마포구 망원동 205-5
전쟁과여성인권박물관,"문화,예술 > 문화시설 > 박물관",37.560081221933736,126.9148770537037,서울 마포구 성산동 39-13
성미산마을극장,"문화,예술 > 문화시설 > 공연장,연극극장",37.5594882804217,126.909904623828,서울 마포구 성산동 249-10
사월갤러리 홍대점,"문화,예술 > 문화시설 > 미술관",37.5619428660262,126.916397249082,서울 마포구 성산동 210-1
합정지구,"문화,예술 > 문화시설 > 전시관",37.5528624711019,126.912465702581,서울 마포구 서교동 444-9
벨로주 망원,"문화,예술 > 문화시설 > 공연장,연극극장",37.557443990148,126.904270903481,서울 마포구 망원동 422-27
논스케일드갤러리&스튜디오,"문화,예술 > 문화시설 > 전시관",37.5538096180516,126.911523013338,서울 마포구 합정동 427-4
스페이스소,"문화,예술 > 문화시설 > 미술관",37.5565188344795,126.915091611529,서울 마포구 서교동 458-18
WWWSPACE,"문화,예술 > 문화시설 > 전시관",37.5552668005838,126.903802888715,서울 마포구 망원동 404-32
(주)복합문화공간사이,"문화,예술 > 문화시설 > 문화원",37.55315383289741,126.91667075373022,서울 마포구 서교동 377-20
더블유더블유더블유스페이스2,"문화,예술 > 문화시설 > 전시관",37.5619939028646,126.904122471322,서울 마포구 망원동 472-12
컬렉션 컴플릿,"문화,예술 > 문화시설 > 전시관",37.5560037553055,126.914247916662,서울 마포구 서교동 468-22
라움트,"문화,예술 > 문화시설 > 전시관",37.5554629218153,126.915169767462,서울 마포구 서교동 467-2
이행성극장,"문화,예술 > 문화시설 > 공연장,연극극장",37.557147923628,126.908128316613,서울 마포구 망원동 57-369
성산아트컬처,"문화,예술 > 문화시설 > 전시관",37.5620745258112,126.915293564289,서울 마포구 성산동 114-7
취미가,"문화,예술 > 문화시설 > 전시관",37.5589185096478,126.914287584268,서울 마포구 성산동 240-31
아트버디 홍대점,"문화,예술 > 문화시설 > 전시관",37.5549794822028,126.916994658095,서울 마포구 서교동 464-41
어거스트 엘리오,"문화,예술 > 문화시설 > 공연장,연극극장",37.5559151297282,126.903326724409,서울 마포구 망원동 409-41
공간파운드,"문화,예술 > 문화시설 > 공연장,연극극장",37.5530750369419,126.905367448227,서울 마포구 망원동 394-20
닻올림,"문화,예술 > 문화시설 > 공연장,연극극장",37.5471537511983,126.922806221671,서울 마포구 상수동 328-14
유니아트홀,"문화,예술 > 문화시설 > 전시관",37.5455719181006,126.917937515278,서울 마포구 합정동 358-6
근원지,"문화,예술 > 문화시설 > 전시관",37.54574343493862,126.92106050623232,서울 마포구 당인동 30-1
CJ아지트 광흥창,"문화,예술 > 문화시설 > 공연장,연극극장",37.544246399824,126.930327330763,서울 마포구 신정동 96-29
틸라 그라운드,"문화,예술 > 문화시설 > 공연장,연극극장",37.5453951671995,126.924455617491,서울 마포구 상수동 354-12
KT&G상상마당 홍대,"문화,예술 > 문화시설 > 공연장,연극극장",37.5510088755674,126.921068533254,서울 마포구 서교동 367-5
띠아트,"문화,예술 > 문화시설 > 전시관",37.5528047367104,126.922690619283,서울 마포구 서교동 358-121
롤링홀,"문화,예술 > 문화시설 > 공연장,연극극장",37.548521510366,126.920161326794,서울 마포구 서교동 402-22
윤형빈소극장 홍대점,"문화,예술 > 문화시설 > 공연장,연극극장",37.5521342054393,126.922402732682,서울 마포구 서교동 364-31
스페이스브릭,"문화,예술 > 문화시설 > 공연장,연극극장",37.5512043681761,126.919696744088,서울 마포구 서교동 395-15
벨로주 홍대,"문화,예술 > 문화시설 > 공연장,연극극장",37.5524309259852,126.918817238433,서울 마포구 서교동 372-6
플렉스라운지,"문화,예술 > 문화시설 > 공연장,연극극장",37.5525211376372,126.918980103803,서울 마포구 서교동 372-5
KT&G 상상마당시네마,"문화,예술 > 영화,영상 > 영화관",37.5510160623612,126.921036839018,서울 마포구 서교동 367-5
공공일클럽,"문화,예술 > 문화시설 > 공연장,연극극장",37.5509999967189,126.924015401066,서울 마포구 서교동 360-18
얼라이브홀,"문화,예술 > 문화시설 > 공연장,연극극장",37.5487046363934,126.919165295887,서울 마포구 서교동 401-6
메타코미디클럽 홍대,"문화,예술 > 문화시설 > 공연장,연극극장",37.5512718321649,126.92360319715,서울 마포구 서교동 361-18
프리즘홀,"문화,예술 > 문화시설 > 공연장,연극극장",37.5516587624754,126.917505331821,서울 마포구 서교동 395-152
베짱이홀,"문화,예술 > 문화시설 > 공연장,연극극장",37.5484791788445,126.921528378505,서울 마포구 상수동 313-3
프로타주,"문화,예술 > 문화시설 > 미술관",37.5483679669631,126.922302527462,서울 마포구 상수동 145-12
오아시스 방탈출,"문화,예술 > 문화시설 > 전시관",37.5490872979376,126.920103009829,서울 마포구 서교동 403-21
KT&G상상마당 라이브홀,"문화,예술 > 문화시설 > 공연장,연극극장",37.5509224009872,126.921100311063,서울 마포구 서교동 367-5
클럽프리버드,"문화,예술 > 문화시설 > 공연장,연극극장",37.5493620151058,126.921314704422,서울 마포구 서교동 408-16
홍대앞,"문화,예술 > 문화시설 > 공연장,연극극장",37.5514834026843,126.919293568995,서울 마포구 서교동 395-13
극동방송 아트홀,"문화,예술 > 문화시설 > 공연장,연극극장",37.5494462760859,126.923396838191,서울 마포구 상수동 89-1
KT&G 상상마당 갤러리,"문화,예술 > 문화시설 > 전시관",37.5510016433744,126.921032327566,서울 마포구 서교동 367-5
wrm space,"문화,예술 > 문화시설 > 미술관",37.5507065460973,126.919006964611,서울 마포구 서교동 395-123
폼텍웍스홀,"문화,예술 > 문화시설 > 공연장,연극극장",37.5506463096202,126.917891212348,서울 마포구 서교동 395-174
극동갤러리,"문화,예술 > 문화시설 > 미술관",37.5492841199746,126.923433216625,서울 마포구 상수동 89-1
DSM스퀘어아트홀,"문화,예술 > 문화시설 > 공연장,연극극장",37.5503001247806,126.917601888313,서울 마포구 서교동 395-181
홍대 뮤지움,"문화,예술 > 문화시설 > 공연장,연극극장",37.5515666614024,126.919832156335,서울 마포구 서교동 368-22
전시공간,"문화,예술 > 문화시설 > 전시관",37.5527306421902,126.919672472644,서울 마포구 서교동 370-15
앰비션,"문화,예술 > 문화시설 > 공연장,연극극장",37.5504825627492,126.92087444306,서울 마포구 서교동 405-15
제이디비 스퀘어,"문화,예술 > 문화시설 > 공연장,연극극장",37.5512025599468,126.919687579509,서울 마포구 서교동 395-15
앤솔로지아 서울,"문화,예술 > 문화시설 > 미술관",37.54957270660596,126.92110173377696,서울 마포구 서교동 408-13
올드보이하우스,"문화,예술 > 문화시설 > 전시관",37.5525890258563,126.923502263906,서울 마포구 서교동 358-32
손길 갤러리샵,"문화,예술 > 문화시설 > 미술관",37.5517724960244,126.920433988418,서울 마포구 서교동 368-14
3rd뮤지엄,"문화,예술 > 문화시설 > 전시관",37.5516346463374,126.919112337806,서울 마포구 서교동 395-12
스틸페이스 루프탑3639,"문화,예술 > 문화시설 > 공연장,연극극장",37.5508977894798,126.922028301913,서울 마포구 서교동 363-9
갤러리제일,"문화,예술 > 문화시설 > 미술관",37.5475212647963,126.919958703195,서울 마포구 당인동 12-1
적정거리유지 윈도우갤러리,"문화,예술 > 문화시설 > 미술관",37.5525004774184,126.920397000469,서울 마포구 서교동 369-17
제노 미니전시회,"문화,예술 > 문화시설 > 전시관",37.5512025584843,126.919685429339,서울 마포구 서교동 395-15
프리지본스튜디오,"문화,예술 > 문화시설 > 공연장,연극극장",37.5492738589512,126.918861401667,서울 마포구 서교동 400-21
디스크리트레이블,"문화,예술 > 문화시설 > 전시관",37.5502865615944,126.91883314416,서울 마포구 서교동 395-74
온 스테이지,"문화,예술 > 문화시설 > 공연장,연극극장",37.5527831609171,126.922764201618,서울 마포구 서교동 358-121
극단코스모스,"문화,예술 > 문화시설 > 공연장,연극극장",37.551768263071,126.91950601723,서울 마포구 서교동 368-29
왓리얼리매터스,"문화,예술 > 문화시설 > 전시관",37.5507245939843,126.91904768491,서울 마포구 서교동 395-123
홍익대학교 현대미술관,"문화,예술 > 문화시설 > 공연장,연극극장",37.55255752386486,126.9249576489718,서울 마포구 상수동 72-1
홍익대학교 박물관,"문화,예술 > 문화시설 > 박물관",37.550742663974425,126.9259892811786,서울 마포구 상수동 72-1
엘라의거실,"문화,예술 > 문화시설 > 공연장,연극극장",37.54887949609819,126.92471690349468,서울 마포구 상수동 71-9
디티에이블,"문화,예술 > 문화시설 > 미술관",37.54800585166,126.925227011506,서울 마포구 상수동 93-7
아트티갤러리,"문화,예술 > 문화시설 > 미술관",37.5482725957694,126.925303695545,서울 마포구 상수동 94-12
가내수공연,"문화,예술 > 문화시설 > 공연장,연극극장",37.5489281600828,126.924732697438,서울 마포구 상수동 71-9
서강대학교 메리홀 대극장,"문화,예술 > 문화시설 > 공연장,연극극장",37.5521117863308,126.939536435572,서울 마포구 신수동 1-1
서강대학교메리홀 소극장,"문화,예술 > 문화시설 > 공연장,연극극장",37.552126190701,126.939513790271,서울 마포구 신수동 1-1
서강대학교 곤자가홀,"문화,예술 > 문화시설 > 공연장,연극극장",37.5509332677375,126.94313721454384,서울 마포구 대흥동 22-60
마포아트센터 갤러리맥,"문화,예술 > 문화시설 > 미술관",37.55007849448376,126.9452421713044,서울 마포구 대흥동 30-3
이너프라운지,"문화,예술 > 문화시설 > 전시관",37.5452225040192,126.93565842163994,서울 마포구 신수동 288-9
노무현사료관,"문화,예술 > 문화시설 > 문화원",37.5466022368341,126.934570900102,서울 마포구 신수동 371-16
서강대학교 박물관,"문화,예술 > 문화시설 > 박물관",37.5500895389708,126.938745912487,서울 마포구 신수동 1-1
유니세프어린이지구촌체험관,"문화,예술 > 문화시설 > 전시관",37.5485506719202,126.932219935004,서울 마포구 창전동 141-4
한국미술역사관,"문화,예술 > 문화시설 > 전시관",37.5439228702906,126.93174887013,서울 마포구 신정동 30
행복한예술재단 행복한홀,"문화,예술 > 문화시설 > 공연장,연극극장",37.55008331643096,126.94437815121226,서울 마포구 대흥동 32-18
전례예술원,"문화,예술 > 문화시설 > 미술관",37.5443287810562,126.935783661921,서울 마포구 신수동 448-8
CGV 홍대,"문화,예술 > 영화,영상 > 영화관 > CGV",37.5565023873948,126.922624553201,서울 마포구 동교동 159-8
메가박스 홍대,"문화,예술 > 영화,영상 > 영화관 > 메가박스",37.55604249793133,126.92204557664462,서울 마포구 동교동 160-4
4233마음센터,"문화,예술 > 문화시설 > 전시관",37.5582081818418,126.921572502101,서울 마포구 동교동 204-45
홍대난타전용극장,"문화,예술 > 문화시설 > 공연장,연극극장",37.5531929565343,126.921161292611,서울 마포구 서교동 357-5
제이엘씨어터,"문화,예술 > 문화시설 > 공연장,연극극장",37.5531504134308,126.922224002393,서울 마포구 서교동 358-116
다리소극장,"문화,예술 > 문화시설 > 공연장,연극극장",37.557227066772,126.923049345733,서울 마포구 동교동 158-2
가온스테이지,"문화,예술 > 문화시설 > 공연장,연극극장",37.5531084819554,126.917525236149,서울 마포구 서교동 377-3
라이브앤라우드,"문화,예술 > 문화시설 > 공연장,연극극장",37.5575473621315,126.92234732201,서울 마포구 동교동 200-31
롤러코스터,"문화,예술 > 문화시설 > 공연장,연극극장",37.5555336192085,126.918320436404,서울 마포구 서교동 446-60
러브뮤지엄,"문화,예술 > 문화시설 > 전시관",37.55351945192529,126.92166342532188,서울 마포구 서교동 357-1
건담이지키는작업실,"문화,예술 > 문화시설 > 전시관",37.555163158221205,126.91941182749642,서울 마포구 서교동 352-19
4223마음센터,"문화,예술 > 문화시설 > 전시관",37.5581955648853,126.921567988226,서울 마포구 동교동 204-45
스타티스뮤지엄,"문화,예술 > 문화시설 > 전시관",37.5539279034877,126.920762156361,서울 마포구 서교동 354-9
상설무대우리소리,"문화,예술 > 문화시설 > 공연장,연극극장",37.5567625253333,126.918242135847,서울 마포구 서교동 448-23
다원예술매개공간,"문화,예술 > 문화시설 > 공연장,연극극장",37.5545430153519,126.919036764379,서울 마포구 서교동 375-46
스텀프,"문화,예술 > 문화시설 > 공연장,연극극장",37.55285253030033,126.9227528130892,서울 마포구 서교동 358-121
뮤직쇼웨딩,"문화,예술 > 문화시설 > 공연장,연극극장",37.5531929595568,126.921165819405,서울 마포구 서교동 357-4
이엔에이파트너스,"문화,예술 > 문화시설 > 전시관",37.5563805998539,126.919696848538,서울 마포구 서교동 447-7
두레문화원,"문화,예술 > 문화시설 > 문화원",37.5548382362104,126.923997923457,서울 마포구 서교동 346-29
스페이스2874,"문화,예술 > 문화시설 > 공연장,연극극장",37.5549744863617,126.922915854861,서울 마포구 동교동 163-5
롯데시네마 홍대입구,"문화,예술 > 영화,영상 > 영화관 > 롯데시네마",37.55707507803642,126.92488294990304,서울 마포구 동교동 166-9
CGV 연남,"문화,예술 > 영화,영상 > 영화관 > CGV",37.55767576550851,126.92586924777189,서울 마포구 동교동 167-2
구름아래소극장,"문화,예술 > 문화시설 > 공연장,연극극장",37.5541923618684,126.92855259799,서울 마포구 서교동 337-11
산울림소극장,"문화,예술 > 문화시설 > 공연장,연극극장",37.5550834709886,126.93009542405,서울 마포구 서교동 327-9
인디스페이스,"문화,예술 > 영화,영상 > 영화관",37.55724272960245,126.92498690357512,서울 마포구 동교동 166-14
포스트극장,"문화,예술 > 문화시설 > 공연장,연극극장",37.5541353369781,126.929616463143,서울 마포구 창전동 5-92
H스테이지,"문화,예술 > 문화시설 > 공연장,연극극장",37.5530887222772,126.924345999613,서울 마포구 서교동 344-12
AOR라이브클럽,"문화,예술 > 문화시설 > 공연장,연극극장",37.5548493989394,126.930412525507,서울 마포구 서교동 325-26
우주정거장,"문화,예술 > 문화시설 > 공연장,연극극장",37.5550071390076,126.929009037709,서울 마포구 서교동 328-13
스페이스한강,"문화,예술 > 문화시설 > 공연장,연극극장",37.5533115411549,126.927655999935,서울 마포구 창전동 6-133
대안공간 루프,"문화,예술 > 문화시설 > 미술관",37.5544658355542,126.927846144554,서울 마포구 서교동 335-11
네이처랩스 AK플라자 홍대,"문화,예술 > 문화시설 > 전시관",37.55773922444777,126.9264916573095,서울 마포구 동교동 190-1
팟빵홀,"문화,예술 > 문화시설 > 공연장,연극극장",37.5556407688132,126.927899335071,서울 마포구 서교동 328-25
아트한 갤러리,"문화,예술 > 문화시설 > 미술관",37.55295479676686,126.92628133454826,서울 마포구 창전동 6-142
와우갤러리,"문화,예술 > 문화시설 > 미술관",37.5531843800161,126.924583559731,서울 마포구 서교동 344-11
예술의전당포,"문화,예술 > 문화시설 > 전시관",37.5563058618961,126.926691120928,서울 마포구 서교동 330-16
플라워바이네이키드 홍대,"문화,예술 > 문화시설 > 전시관",37.5576149699915,126.926625327774,서울 마포구 동교동 192-45
아이뮤지엄젤리스,"문화,예술 > 문화시설 > 전시관",37.5577644051173,126.926415804091,서울 마포구 동교동 190-1
엷은남빛,"문화,예술 > 문화시설 > 미술관",37.5582533526934,126.927396572881,서울 마포구 동교동 173-2
어쿠스틱홀릭,"문화,예술 > 문화시설 > 공연장,연극극장",37.55521773758919,126.9286195228498,서울 마포구 서교동 328-18
하이퍼노멀 HYPERNORMAL,"문화,예술 > 문화시설 > 전시관",37.5543576923837,126.927807770444,서울 마포구 서교동 335-12
TheColorSpot꿈속의 자연,"문화,예술 > 문화시설 > 전시관",37.5572472338664,126.924985767299,서울 마포구 동교동 166-14
히피토끼,"문화,예술 > 문화시설 > 공연장,연극극장",37.5562815370912,126.926694539995,서울 마포구 서교동 330-16
에스원필립,"문화,예술 > 문화시설 > 공연장,연극극장",37.5562126916581,126.926101573096,서울 마포구 서교동 331-21
루프탑바머스,"문화,예술 > 문화시설 > 공연장,연극극장",37.5543481365886,126.929892401897,서울 마포구 창전동 5-85
서울디자인재단 마포디자인취업센터,"문화,예술 > 문화시설 > 전시관",37.5572319722586,126.925072928144,서울 마포구 동교동 166-6
대안극장 옐로우룸,"문화,예술 > 문화시설 > 공연장,연극극장",37.5549789124281,126.930023091235,서울 마포구 서교동 327-10
연남스페이스,"문화,예술 > 문화시설 > 공연장,연극극장",37.5621594869202,126.920873413728,서울 마포구 연남동 504-12
챕터투,"문화,예술 > 문화시설 > 전시관",37.5602928429239,126.921203611709,서울 마포구 연남동 566-55
뉴스뮤지엄 연남점,"문화,예술 > 문화시설 > 전시관",37.5620528775534,126.9231598296,서울 마포구 연남동 257-22
배드보스아트플레이스,"문화,예술 > 문화시설 > 전시관",37.563776133681,126.924011481602,서울 마포구 연남동 239-20
공간41,"문화,예술 > 문화시설 > 미술관",37.5639231866861,126.922915690273,서울 마포구 연남동 254-24
서울스윙아트홀,"문화,예술 > 문화시설 > 공연장,연극극장",37.559215024465,126.920865209655,서울 마포구 연남동 568-51
성수미술관 연남점,"문화,예술 > 문화시설 > 미술관",37.5596069959436,126.925066022734,서울 마포구 동교동 148-9
채널1969,"문화,예술 > 문화시설 > 공연장,연극극장",37.5618967594842,126.927033115238,서울 마포구 연남동 227-1
스몰타운스몰,"문화,예술 > 문화시설 > 전시관",37.562039040767175,126.92546878320326,서울 마포구 연남동 390-59
파도,"문화,예술 > 문화시설 > 미술관",37.5623705137241,126.926758748387,서울 마포구 연남동 227-15
내츄럴리뮤직 홍대연트럴파크점,"문화,예술 > 문화시설 > 공연장,연극극장",37.5629732374588,126.925252801598,서울 마포구 연남동 228-23
아트스페이스 담다,"문화,예술 > 문화시설 > 전시관",37.5611930926668,126.925607707966,서울 마포구 연남동 382-16
메타포갤러리,"문화,예술 > 문화시설 > 전시관",37.5616508955088,126.92576118127,서울 마포구 연남동 390-44
CGV 신촌아트레온,"문화,예술 > 영화,영상 > 영화관 > CGV",37.55651712691753,126.94024927380556,서울 서대문구 창천동 20-25
메가박스 신촌,"문화,예술 > 영화,영상 > 영화관 > 메가박스",37.559570517501,126.94187662155964,서울 서대문구 신촌동 74-12
필름포럼,"문화,예술 > 영화,영상 > 영화관",37.56376571506,126.944068037521,서울 서대문구 대신동 85-1
금호아트홀연세,"문화,예술 > 문화시설 > 공연장,연극극장",37.56280906443211,126.93730711198413,서울 서대문구 신촌동 134
이화여자대학교 대강당,"문화,예술 > 문화시설 > 공연장,연극극장",37.561380317548,126.945006970396,서울 서대문구 대현동 11-1
복합문화공간 몽향,"문화,예술 > 문화시설 > 공연장,연극극장",37.5565242630214,126.934996817742,서울 서대문구 창천동 62-11
스튜디오리움,"문화,예술 > 문화시설 > 공연장,연극극장",37.56413716079409,126.9445669122348,서울 서대문구 대신동 85
예스24 원더로크홀,"문화,예술 > 문화시설 > 공연장,연극극장",37.5565739189228,126.940306947733,서울 서대문구 창천동 20-25
긱라이브하우스,"문화,예술 > 문화시설 > 공연장,연극극장",37.5563784364405,126.932036293024,서울 마포구 동교동 185-10
이화여자대학교 100주년기념박물관,"문화,예술 > 문화시설 > 박물관",37.5603170022437,126.944708954847,서울 서대문구 대현동 11-1
극장PLOT,"문화,예술 > 문화시설 > 공연장,연극극장",37.557600872152,126.938198780242,서울 서대문구 창천동 13-21
이한열기념관,"문화,예술 > 문화시설 > 기념관",37.55505771622096,126.93387315446894,서울 마포구 노고산동 54-38
디앤디,"문화,예술 > 문화시설 > 공연장,연극극장",37.5585455952209,126.934085110501,서울 서대문구 창천동 53-83
AC'SCENT(악센트),"문화,예술 > 문화시설 > 전시관",37.5586321734384,126.935870985549,서울 서대문구 창천동 52-23
201P,"문화,예술 > 문화시설 > 공연장,연극극장",37.5580212964877,126.935869245537,서울 서대문구 창천동 52-56
연세대학교 박물관,"문화,예술 > 문화시설 > 박물관",37.5617984733829,126.937925937699,서울 서대문구 신촌동 134
신촌극장,"문화,예술 > 문화시설 > 공연장,연극극장",37.5591628517999,126.93585468568,서울 서대문구 창천동 52-101
원픽홀,"문화,예술 > 문화시설 > 공연장,연극극장",37.554316784104,126.938289766197,서울 마포구 노고산동 31-39
자미갤러리,"문화,예술 > 문화시설 > 미술관",37.5588634090248,126.942231419568,서울 서대문구 대현동 110-4
연세대학교 윤주용홀,"문화,예술 > 문화시설 > 공연장,연극극장",37.5638937463489,126.94056369952,서울 서대문구 신촌동 134
신촌아리수스트로 공연장,"문화,예술 > 문화시설 > 공연장,연극극장",37.5588004557742,126.938883650671,서울 서대문구 창천동 31-119
아트레온갤러리,"문화,예술 > 문화시설 > 미술관",37.5565631184003,126.940329591355,서울 서대문구 창천동 20-25
소이아트홀,"문화,예술 > 문화시설 > 공연장,연극극장",37.5572034998119,126.934787983881,서울 서대문구 창천동 57-41
롤링스톤즈,"문화,예술 > 문화시설 > 공연장,연극극장",37.5563607847768,126.932679141465,서울 마포구 동교동 185-1
지블레싱소극장,"문화,예술 > 문화시설 > 공연장,연극극장",37.5550673057243,126.933301623535,서울 마포구 노고산동 54-46
디에이스튜디오,"문화,예술 > 문화시설 > 전시관",37.5548417451118,126.932752938314,서울 마포구 노고산동 56-76
연세대학교 무악극장,"문화,예술 > 문화시설 > 공연장,연극극장",37.5635782007039,126.93842134602,서울 서대문구 신촌동 134
얘기아트씨어터,"문화,예술 > 문화시설 > 공연장,연극극장",37.5537476270607,126.938815347885,서울 마포구 노고산동 12-74
헤론기념관,"문화,예술 > 문화시설 > 기념관",37.560362115610026,126.93933396639228,서울 서대문구 신촌동 124-17
소통홀,"문화,예술 > 문화시설 > 공연장,연극극장",37.5544466505071,126.938525056515,서울 마포구 노고산동 33-22
한국미술관,"문화,예술 > 문화시설 > 미술관",37.5576429435285,126.944923702884,서울 서대문구 대현동 145
장기원기념관,"문화,예술 > 문화시설 > 기념관",37.56385355809684,126.93607250869692,서울 서대문구 신촌동 134
씨씨에이,"문화,예술 > 문화시설 > 미술관",37.5584748232443,126.943564955502,서울 서대문구 대현동 37-15
에프비소울하우스,"문화,예술 > 문화시설 > 공연장,연극극장",37.5552542674715,126.932517167689,서울 마포구 동교동 186-15
아트레온 무빙온,"문화,예술 > 문화시설 > 공연장,연극극장",37.5565488234601,126.940569533772,서울 서대문구 창천동 20-25
와이어프레임,"문화,예술 > 문화시설 > 공연장,연극극장",37.5570580940497,126.935802165551,서울 서대문구 창천동 57-23
극단예당,"문화,예술 > 문화시설 > 공연장,연극극장",37.55406404980246,126.93742534624654,서울 마포구 노고산동 31-81
나윤갤러리,"문화,예술 > 문화시설 > 전시관",37.5576411330863,126.94490559595,서울 서대문구 대현동 145
볼륨일레븐,"문화,예술 > 문화시설 > 공연장,연극극장",37.5543852788199,126.938325924673,서울 마포구 노고산동 31-39
허둥홀,"문화,예술 > 문화시설 > 공연장,연극극장",37.5572681485961,126.937712397823,서울 서대문구 창천동 18-3
CGV 용산아이파크몰,"문화,예술 > 영화,영상 > 영화관 > CGV",37.5297517407141,126.963950815777,서울 용산구 한강로3가 40-999
롯데시네마 용산,"문화,예술 > 영화,영상 > 영화관 > 롯데시네마",37.5329472681101,126.960138744633,서울 용산구 한강로3가 16-9
CGV 씨네드쉐프 용산아이파크 몰,"문화,예술 > 영화,영상 > 영화관 > CGV",37.529708488847525,126.9639383918022,서울 용산구 한강로3가 40-999
아모레퍼시픽미술관,"문화,예술 > 문화시설 > 미술관",37.5291241314767,126.968458359299,서울 용산구 한강로2가 424
용산역사박물관,"문화,예술 > 문화시설 > 박물관",37.525661743005074,126.9658024323378,서울 용산구 한강로3가 65-154
대원뮤지엄,"문화,예술 > 문화시설 > 전시관",37.5299214111974,126.964887490056,서울 용산구 한강로3가 40-999
민주화운동기념관,"문화,예술 > 문화시설 > 기념관",37.5410776313133,126.971712091439,서울 용산구 갈월동 98-8
용산문화원,"문화,예술 > 문화시설 > 문화원",37.5334092384559,126.952200593528,서울 용산구 원효로4가 87-4
용산도시기억전시관,"문화,예술 > 문화시설 > 전시관",37.5264295813297,126.966445788697,서울 용산구 한강로3가 64-1
용산랜드홀,"문화,예술 > 문화시설 > 공연장,연극극장",37.532702735861896,126.95908328814484,서울 용산구 한강로3가 16-9
대원콘텐츠라이브,"문화,예술 > 문화시설 > 공연장,연극극장",37.5288725468212,126.964557632794,서울 용산구 한강로3가 40-999
이봉창의사역사울림관,"문화,예술 > 문화시설 > 전시관",37.54008522815864,126.9608387388138,서울 용산구 효창동 286-7
펀타스틱씨어터,"문화,예술 > 문화시설 > 공연장,연극극장",37.5315594905601,126.971833349327,서울 용산구 한강로2가 87-1
시청각,"문화,예술 > 문화시설 > 전시관",37.53643087640938,126.95601842677324,서울 용산구 용문동 38-118
꽃술,"문화,예술 > 문화시설 > 전시관",37.5392991332167,126.96524516973,서울 용산구 원효로1가 26-18
캡션서울,"문화,예술 > 문화시설 > 전시관",37.5393393414907,126.967218469688,서울 용산구 원효로1가 28-3
갤러리 워터마크,"문화,예술 > 문화시설 > 전시관",37.5390428433263,126.958414510477,서울 용산구 도원동 3-2
숏서킷,"문화,예술 > 문화시설 > 전시관",37.5364333174258,126.963151061575,서울 용산구 원효로2가 30-4
상상공간뮤지엄,"문화,예술 > 문화시설 > 박물관",37.5297736038262,126.964742747116,서울 용산구 한강로3가 40-999
중국 황실도자전시관,"문화,예술 > 문화시설 > 전시관",37.5326947151514,126.971679053414,서울 용산구 한강로2가 42
갤러리일상,"문화,예술 > 문화시설 > 미술관",37.538398497638,126.946856843342,서울 마포구 도화동 251-6
비컨갤러리,"문화,예술 > 문화시설 > 미술관",37.5240126139706,126.97147870914,서울 용산구 용산동5가 24
머리가좋아지는 IQ박물관,"문화,예술 > 문화시설 > 박물관",37.5371531925803,126.973071322388,서울 용산구 한강로1가 64
씨티홀,"문화,예술 > 문화시설 > 전시관",37.5290887191686,126.953918454717,서울 용산구 이촌동 210-10
샤비워크샵,"문화,예술 > 문화시설 > 전시관",37.53045641441389,126.97080196759778,서울 용산구 한강로2가 78-1
국립중앙박물관,"문화,예술 > 문화시설 > 박물관",37.52384681210344,126.98020301886912,서울 용산구 용산동6가 168-6
국립한글박물관,"문화,예술 > 문화시설 > 박물관",37.5211853774917,126.980977473728,서울 용산구 용산동6가 168-6
국립중앙박물관 어린이박물관,"문화,예술 > 문화시설 > 전시관",37.5243529876125,126.979112346915,서울 용산구 용산동6가 168-6
국립중앙박물관 극장 용,"문화,예술 > 문화시설 > 공연장,연극극장",37.5243097105777,126.978949457103,서울 용산구 용산동6가 168-6
국립중앙박물관 기획전시실,"문화,예술 > 문화시설 > 전시관",37.5238736366995,126.979012929988,서울 용산구 용산동6가 168-6
국립중앙박물관 상설전시관,"문화,예술 > 문화시설 > 전시관",37.5240181594648,126.98116228092,서울 용산구 용산동6가 168-6
국립중앙박물관 사무동,"문화,예술 > 문화시설 > 박물관",37.52459419426165,126.97768009522076,서울 용산구 용산동6가 168-6
국립중앙박물관 사유의방,"문화,예술 > 문화시설 > 박물관",37.5240810715914,126.980196169411,서울 용산구 용산동6가 168-6
국립한글박물관 별관,"문화,예술 > 문화시설 > 박물관",37.5215746099753,126.980972850023,서울 용산구 용산동6가 168-6
국립중앙박물관 서관,"문화,예술 > 문화시설 > 전시관",37.5241186247887,126.978542257137,서울 용산구 용산동6가 11-426
국립중앙박물관 테마전시관,"문화,예술 > 문화시설 > 전시관",37.5237622697202,126.981130670126,서울 용산구 용산동6가 168-6
국립중앙박물관 동관,"문화,예술 > 문화시설 > 전시관",37.5238056243279,126.981809412466,서울 용산구 용산동6가 168-6
아트퐁당,"문화,예술 > 문화시설 > 미술관",37.5238267869852,126.979026518181,서울 용산구 용산동6가 168-6
가나아트 보광,"문화,예술 > 문화시설 > 미술관",37.5281057049336,126.999400400197,서울 용산구 보광동 260-28
창작예술집단 보광극장,"문화,예술 > 문화시설 > 공연장,연극극장",37.526096451180294,126.99778040894113,서울 용산구 보광동 217-21
APO프로젝트,"문화,예술 > 문화시설 > 전시관",37.5218031086222,126.995475099147,서울 용산구 동빙고동 195
미생물박물관 서울점,"문화,예술 > 문화시설 > 박물관",37.5287622736581,126.99211689048,서울 용산구 동빙고동 7-22
프로젝트박스시야,"문화,예술 > 문화시설 > 공연장,연극극장",37.5264450964794,126.996130970057,서울 용산구 동빙고동 1-102
스페이스비엠,"문화,예술 > 문화시설 > 미술관",37.5277316526099,126.994289123223,서울 용산구 동빙고동 309-3
전쟁기념관,"문화,예술 > 문화시설 > 기념관",37.53706844515933,126.9770880207577,서울 용산구 용산동1가 8
전쟁기념관 어린이박물관,"문화,예술 > 문화시설 > 박물관",37.53740658828956,126.97851355798178,서울 용산구 용산동1가 8
전쟁기념관 평화의광장,"문화,예술 > 문화시설 > 기념관",37.5360764589918,126.977167525112,서울 용산구 용산동1가 8
전쟁기념관 기획전시실,"문화,예술 > 문화시설 > 전시관",37.53693420180437,126.97711747962752,서울 용산구 용산동1가 8
전쟁기념관 이병형홀,"문화,예술 > 문화시설 > 공연장,연극극장",37.5372512510434,126.976592385998,서울 용산구 용산동1가 8
천안함전시관,"문화,예술 > 문화시설 > 전시관",37.53704592453794,126.97711065675632,서울 용산구 용산동1가 8
바로크미술관,"문화,예술 > 문화시설 > 미술관",37.537479640063,126.974353151391,서울 용산구 한강로1가 11-2
녹사평역 지하예술정원,"문화,예술 > 문화시설 > 전시관",37.5346795430392,126.986513477438,서울 용산구 용산동4가 1-1
전쟁기념관 야외전시장,"문화,예술 > 문화시설 > 전시관",37.5368660489251,126.978850885979,서울 용산구 용산동1가 8
전쟁기념관 6.25전쟁 아카이브센터,"문화,예술 > 문화시설 > 기념관",37.5370388542451,126.977832527401,서울 용산구 용산동1가 8
아이큐박물관,"문화,예술 > 문화시설 > 박물관",37.5369486134239,126.977094846145,서울 용산구 용산동1가 8
전쟁기념관 전사자명비,"문화,예술 > 문화시설 > 기념관",37.5360402713271,126.976416259843,서울 용산구 용산동1가 8
전쟁기념관 회랑,"문화,예술 > 문화시설 > 기념관",37.536696502026,126.97798198016,서울 용산구 용산동1가 8
전쟁기념관 국군발전실,"문화,예술 > 문화시설 > 전시관",37.5370063572599,126.977510072399,서울 용산구 용산동1가 8
파우와우,"문화,예술 > 문화시설 > 공연장,연극극장",37.5372420480372,126.987042538479,서울 용산구 이태원동 559
리움미술관,"문화,예술 > 문화시설 > 미술관",37.53833657002706,126.99911744955163,서울 용산구 한남동 742-1
용산아트홀,"문화,예술 > 문화시설 > 공연장,연극극장",37.532749063297786,126.9902225231591,서울 용산구 이태원동 34-87
페이스갤러리,"문화,예술 > 문화시설 > 미술관",37.538489737947,127.001131477248,서울 용산구 한남동 740-2
현대카드 스토리지,"문화,예술 > 문화시설 > 전시관",37.5368030675472,127.00085990334,서울 용산구 한남동 683-131
용산아트홀 대극장미르,"문화,예술 > 문화시설 > 공연장,연극극장",37.5328454776885,126.990310759146,서울 용산구 이태원동 34-87
언더스테이지,"문화,예술 > 문화시설 > 공연장,연극극장",37.5366300766286,127.00067886949,서울 용산구 한남동 683-132
그랜드하얏트서울 그랜드볼룸,"문화,예술 > 문화시설 > 공연장,연극극장",37.5394916264724,126.997379463631,서울 용산구 한남동 747-7
현대카드 언더스테이지,"문화,예술 > 문화시설 > 공연장,연극극장",37.5366336804985,127.000701498507,서울 용산구 한남동 683-132
갤러리조은,"문화,예술 > 문화시설 > 미술관",37.53803023093744,127.00073545569826,서울 용산구 한남동 739-24
파운드리서울,"문화,예술 > 문화시설 > 미술관",37.5354623726254,126.99852913904,서울 용산구 한남동 737-24
이음갤러리,"문화,예술 > 문화시설 > 미술관",37.5351740428026,126.997895545499,서울 용산구 한남동 737-28
뉴스프링프로젝트,"문화,예술 > 문화시설 > 미술관",37.53646698690474,126.99841936898042,서울 용산구 한남동 745-6
리움미술관 M2,"문화,예술 > 문화시설 > 미술관",37.5385293858439,126.999398053785,서울 용산구 한남동 747-18
파이프갤러리,"문화,예술 > 문화시설 > 미술관",37.5341559278121,127.000814616475,서울 용산구 한남동 657-30
리움미술관 M1,"문화,예술 > 문화시설 > 미술관",37.5385510053389,126.998805159048,서울 용산구 한남동 747-18
팝 한남,"문화,예술 > 문화시설 > 전시관",37.5361093001401,127.000164058986,서울 용산구 한남동 683-142
용산아트홀 소극장가람,"문화,예술 > 문화시설 > 공연장,연극극장",37.5328598944481,126.990319808419,서울 용산구 이태원동 34-87
갤러리비케이 한남,"문화,예술 > 문화시설 > 미술관",37.533894634310585,127.0011947666611,서울 용산구 한남동 657-155
아트스토리자리,"문화,예술 > 문화시설 > 전시관",37.5354693168771,126.991971361286,서울 용산구 이태원동 119-2
고유갤러리,"문화,예술 > 문화시설 > 미술관",37.54119234028027,126.99024178802225,서울 용산구 이태원동 255-27
스파찌오루체,"문화,예술 > 문화시설 > 공연장,연극극장",37.5350154608765,126.99759232812,서울 용산구 한남동 737-61
마이플레저,"문화,예술 > 문화시설 > 미술관",37.5370931874107,127.001131456147,서울 용산구 한남동 683-139
에디트 한남,"문화,예술 > 문화시설 > 미술관",37.5390662855815,126.995191184671,서울 용산구 이태원동 234-4
브리가서울,"문화,예술 > 문화시설 > 전시관",37.5407852222449,126.992025103885,서울 용산구 이태원동 247-16
스펙트럼갤러리,"문화,예술 > 문화시설 > 미술관",37.5397184574971,126.99231488043,서울 용산구 이태원동 211-22
해마아트스페이스,"문화,예술 > 문화시설 > 미술관",37.5330654314137,126.991752128295,서울 용산구 이태원동 76-13
비샵,"문화,예술 > 문화시설 > 전시관",37.5378950782256,127.001081683659,서울 용산구 한남동 739-4
토닌,"문화,예술 > 문화시설 > 전시관",37.5388680602225,126.995062208343,서울 용산구 이태원동 231-36
갤러리실,"문화,예술 > 문화시설 > 전시관",37.5398192999205,126.991311231944,서울 용산구 이태원동 226-7
코로그램,"문화,예술 > 문화시설 > 전시관",37.5335702748435,127.001104249253,서울 용산구 한남동 653-28
인터아트채널,"문화,예술 > 문화시설 > 전시관",37.54012219913706,126.99392157170982,서울 용산구 이태원동 239-4
빌라해밀톤,"문화,예술 > 문화시설 > 전시관",37.5375346824098,127.000384697358,서울 용산구 한남동 739-19
갤러리아쉬,"문화,예술 > 문화시설 > 전시관",37.5312492912049,126.998479441592,서울 용산구 보광동 265-684
메이c진,"문화,예술 > 문화시설 > 미술관",37.540370973282,126.996289792891,서울 용산구 이태원동 258-6
샤나아베뉴,"문화,예술 > 문화시설 > 전시관",37.5352533483278,127.000552137035,서울 용산구 한남동 684-12
아트247,"문화,예술 > 문화시설 > 미술관",37.540547434476,126.993247158219,서울 용산구 이태원동 228-36
아트라운지취화담 한남점,"문화,예술 > 문화시설 > 전시관",37.5375418904166,127.000383565932,서울 용산구 한남동 739-19
리버스마운틴2022,"문화,예술 > 문화시설 > 미술관",37.5380554494273,126.998329949267,서울 용산구 한남동 742-19
예림가구전시장,"문화,예술 > 문화시설 > 전시관",37.5313753520292,126.995411164226,서울 용산구 이태원동 21-3
갤러리이상,"문화,예술 > 문화시설 > 미술관",37.5351524187846,126.997895546106,서울 용산구 한남동 737-28
심보브리가,"문화,예술 > 문화시설 > 전시관",37.5407852222449,126.992025103885,서울 용산구 이태원동 247-16
아트인선,"문화,예술 > 문화시설 > 전시관",37.5347879660697,126.989495884492,서울 용산구 이태원동 184-14
마치 MARCH,"문화,예술 > 문화시설 > 전시관",37.5365273576959,126.998730515795,서울 용산구 한남동 745-2
드로잉블라인드,"문화,예술 > 문화시설 > 전시관",37.5410159147779,126.992586310962,서울 용산구 이태원동 258-340
다세대아트싸롱,"문화,예술 > 문화시설 > 전시관",37.5375265734246,127.000379040003,서울 용산구 한남동 739-19
마포아트센터 아트홀맥,"문화,예술 > 문화시설 > 공연장,연극극장",37.54993450086795,126.94560157555075,서울 마포구 대흥동 30-3
마포문화원,"문화,예술 > 문화시설 > 문화원",37.5422295146787,126.955489989088,서울 마포구 신공덕동 158
DGT아트센터,"문화,예술 > 문화시설 > 공연장,연극극장",37.5436531427968,126.946889323428,서울 마포구 염리동 172-15
마포아트센터 플레이맥,"문화,예술 > 문화시설 > 공연장,연극극장",37.549936765090735,126.9456270360332,서울 마포구 대흥동 30-3
갤러리 더씨,"문화,예술 > 문화시설 > 미술관",37.543149664329,126.958596671731,서울 용산구 효창동 3-117
DMZ문화원,"문화,예술 > 문화시설 > 문화원",37.5462286533306,126.952169777482,서울 마포구 공덕동 404
스페이스간,"문화,예술 > 문화시설 > 전시관",37.5476044484033,126.945840907969,서울 마포구 염리동 147-2
마포아트센터 스튜디오3,"문화,예술 > 문화시설 > 공연장,연극극장",37.5498766515768,126.945590301101,서울 마포구 대흥동 30-3
우리두리교육문화원,"문화,예술 > 문화시설 > 문화원",37.5415485789901,126.947271008163,서울 마포구 도화동 559
백범김구기념관,"문화,예술 > 문화시설 > 기념관",37.5444798383171,126.959458190692,서울 용산구 효창동 255
식민지역사박물관,"문화,예술 > 문화시설 > 박물관",37.5457795795213,126.966835436396,서울 용산구 청파동2가 42-8
동자아트홀,"문화,예술 > 문화시설 > 공연장,연극극장",37.5516087600095,126.972785466779,서울 용산구 동자동 45
김세중미술관,"문화,예술 > 문화시설 > 미술관",37.5419764956208,126.963881564986,서울 용산구 효창동 5-390
서울일삼,"문화,예술 > 문화시설 > 전시관",37.55236004756802,126.97216389750838,서울 용산구 동자동 43-138
숙명여자대학교 박물관,"문화,예술 > 문화시설 > 박물관",37.5447876866082,126.964120102109,서울 용산구 청파동2가 144
숙명여자대학교 한상은라운지,"문화,예술 > 문화시설 > 공연장,연극극장",37.5438889061149,126.965519139513,서울 용산구 청파동3가 115
코리아블루스씨어터,"문화,예술 > 문화시설 > 공연장,연극극장",37.5441415601926,126.970204823935,서울 용산구 청파동3가 24-45
김영기가곡전수관,"문화,예술 > 문화시설 > 전시관",37.550902753840504,126.9612336889978,서울 마포구 공덕동 31-1
숙명여자대학교 정영양자수박물관,"문화,예술 > 문화시설 > 박물관",37.544722810546,126.964106554345,서울 용산구 청파동2가 144
정가악회,"문화,예술 > 문화시설 > 공연장,연극극장",37.54588173712224,126.97161522274082,서울 용산구 갈월동 69-75
숙명역사관,"문화,예술 > 문화시설 > 전시관",37.5437194990713,126.965453587274,서울 용산구 청파동3가 115
한국즉흥극장,"문화,예술 > 문화시설 > 공연장,연극극장",37.54413795505347,126.9702002991191,서울 용산구 청파동3가 24-45
아트하우스모모,"문화,예술 > 영화,영상 > 영화관",37.561510765904394,126.9465416294436,서울 서대문구 대현동 11-1
이화여자대학교 삼성홀,"문화,예술 > 문화시설 > 공연장,연극극장",37.56155768935297,126.94670005154022,서울 서대문구 대현동 11-1
북아현문화체육센터 아트홀,"문화,예술 > 문화시설 > 공연장,연극극장",37.5618568374173,126.955437569333,서울 서대문구 북아현동 1012-2
추계예술대학교 콘서트홀,"문화,예술 > 문화시설 > 공연장,연극극장",37.5636685326391,126.952588735873,서울 서대문구 북아현동 190-1
아트스페이스 라프,"문화,예술 > 문화시설 > 미술관",37.56280815743444,126.95508839449384,서울 서대문구 북아현동 177-1
서울마포음악창작소,"문화,예술 > 문화시설 > 공연장,연극극장",37.5550676954389,126.95753304524,서울 마포구 아현동 610-1
한예진아트홀,"문화,예술 > 문화시설 > 공연장,연극극장",37.5572226508612,126.947952602815,서울 서대문구 대현동 67-11
히든플레이스,"문화,예술 > 문화시설 > 전시관",37.55844363590013,126.94624050403536,서울 서대문구 대현동 53-10
이화아트센터,"문화,예술 > 문화시설 > 미술관",37.56073742314097,126.947913939922,서울 서대문구 대현동 11-1
상상헌,"문화,예술 > 문화시설 > 전시관",37.5626393206844,126.956559890817,서울 서대문구 북아현동 3-134
이화여자대학교 김영의홀,"문화,예술 > 문화시설 > 공연장,연극극장",37.5610740764488,126.949249251481,서울 서대문구 대현동 11-1
갤러리GRAA,"문화,예술 > 문화시설 > 전시관",37.557975037547,126.946065416083,서울 서대문구 대현동 54-9
서소문성지역사박물관,"문화,예술 > 문화시설 > 박물관",37.560641395397894,126.969644798536,서울 중구 의주로2가 16-4
문화역서울284,"문화,예술 > 문화시설 > 전시관",37.55587561333548,126.97162727684288,서울 중구 봉래동2가 122-28
배재학당역사박물관,"문화,예술 > 문화시설 > 박물관",37.5640064393478,126.972599859421,서울 중구 정동 34-5
모두예술극장,"문화,예술 > 문화시설 > 공연장,연극극장",37.5601121880739,126.962276968597,서울 서대문구 충정로3가 476
손기정기념관,"문화,예술 > 문화시설 > 기념관",37.55569082707682,126.96464679169269,서울 중구 만리동2가 6-1
영국문화원 분사무소,"문화,예술 > 문화시설 > 문화원",37.5638333260871,126.972079267039,서울 중구 정동 34-5
도킹서울,"문화,예술 > 문화시설 > 전시관",37.55594717144697,126.96953352865953,서울 중구 봉래동2가 122-11
가톨릭 성음악아카데미 최양업홀,"문화,예술 > 문화시설 > 공연장,연극극장",37.55882087140542,126.96772150332816,서울 중구 중림동 149-83
구세군아트홀,"문화,예술 > 문화시설 > 공연장,연극극장",37.5600248152328,126.962351711629,서울 서대문구 충정로3가 476
문화역서울284 RTO공연장,"문화,예술 > 문화시설 > 공연장,연극극장",37.5558828142407,126.971597848869,서울 중구 봉래동2가 122-28
갤러리 선,"문화,예술 > 문화시설 > 전시관",37.5636190798066,126.969222539533,서울 중구 순화동 1-170
서울역문화관,"문화,예술 > 문화시설 > 전시관",37.5554681543291,126.97077410399,서울 중구 봉래동2가 122-23
KT&G상상유니브 아틀리에서울,"문화,예술 > 문화시설 > 공연장,연극극장",37.56388133027521,126.96615169243752,서울 서대문구 미근동 21-1
고촌홀,"문화,예술 > 문화시설 > 기념관",37.559716882894094,126.9630117048616,서울 서대문구 충정로3가 368-2
서소문순교자기념관,"문화,예술 > 문화시설 > 기념관",37.559413467472,126.966784122651,서울 중구 중림동 149-2
서소문역사공원 하늘광장,"문화,예술 > 문화시설 > 기념관",37.560668441287646,126.96970703725184,서울 중구 의주로2가 16-72
HSBC코리아 역사전시관,"문화,예술 > 문화시설 > 전시관",37.5600583743983,126.973043840354,서울 중구 봉래동1가 25
갤러리 터치,"문화,예술 > 문화시설 > 미술관",37.5604311202839,126.971899447233,서울 중구 순화동 151
헬스케어 이노지움,"문화,예술 > 문화시설 > 전시관",37.5614585007978,126.97294486719,서울 중구 서소문동 135
최종태 기증전시실,"문화,예술 > 문화시설 > 전시관",37.560648596967255,126.96961989574557,서울 중구 의주로2가 16-4
다이아몬드지,"문화,예술 > 문화시설 > 미술관",37.5472778892164,126.983846266332,서울 용산구 후암동 406-59
갤러리 샤워,"문화,예술 > 문화시설 > 미술관",37.5461923390809,126.97908475453,서울 용산구 후암동 254-51
스페이스 해방공원,"문화,예술 > 문화시설 > 미술관",37.54355051529814,126.98428837654716,서울 용산구 용산동2가 34
후암노트,"문화,예술 > 문화시설 > 전시관",37.5491551942553,126.976280858298,서울 용산구 후암동 109-31
아트플레이스,"문화,예술 > 문화시설 > 전시관",37.5456535928812,126.985420652266,서울 용산구 용산동2가 17
카마라타뮤직컴퍼니,"문화,예술 > 문화시설 > 공연장,연극극장",37.54187320583197,126.98720241407828,서울 용산구 용산동2가 39-16
세계평화운동커뮤니티센터 월드피스존,"문화,예술 > 문화시설 > 공연장,연극극장",37.5457500007634,126.985428554599,서울 용산구 용산동2가 17
일상탈출 작은극장,"문화,예술 > 문화시설 > 공연장,연극극장",37.5470026481554,126.980921124492,서울 용산구 후암동 264-6
국립극장,"문화,예술 > 문화시설 > 공연장,연극극장",37.5528192329617,126.999569956338,서울 중구 장충동2가 산 14-67
국립극장 해오름극장,"문화,예술 > 문화시설 > 공연장,연극극장",37.5523399024517,126.999728395216,서울 중구 장충동2가 산 14-67
YTN 남산갤러리,"문화,예술 > 문화시설 > 전시관",37.5513184785716,126.98816385141,서울 용산구 용산동2가 산 1-3
한국나전칠기박물관,"문화,예술 > 문화시설 > 박물관",37.5427961998301,126.991264493246,서울 용산구 이태원동 260-19
반얀트리클럽앤스파서울 크리스탈볼룸,"문화,예술 > 문화시설 > 공연장,연극극장",37.55069827809386,127.00117692824908,서울 중구 장충동2가 201
데시에고,"문화,예술 > 문화시설 > 미술관",37.5415891111522,126.995869937094,서울 용산구 이태원동 258-25
테디베어갤러리,"문화,예술 > 문화시설 > 전시관",37.5512833449591,126.988217045485,서울 용산구 용산동2가 산 1-3
국립극장 무용단,"문화,예술 > 문화시설 > 공연장,연극극장",37.5528192329617,126.999569956338,서울 중구 장충동2가 산 14-67
국립극장 국악관현악단,"문화,예술 > 문화시설 > 공연장,연극극장",37.5528192329943,126.999579009889,서울 중구 장충동2가 산 14-67
아트모라 서울브랜치,"문화,예술 > 문화시설 > 전시관",37.54164304031416,126.99307506762209,서울 용산구 이태원동 258-245
만물전시관,"문화,예술 > 문화시설 > 전시관",37.5428106053603,126.99112418029,서울 용산구 이태원동 260-17
국립극장 운영지원부장,"문화,예술 > 문화시설 > 공연장,연극극장",37.5527976090085,126.999569956462,서울 중구 장충동2가 산 14-67
제이에스앤에프,"문화,예술 > 문화시설 > 전시관",37.5513229897856,126.988226092614,서울 용산구 용산동2가 산 1-3
CGV 명동역 씨네라이브러리,"문화,예술 > 영화,영상 > 영화관 > CGV",37.56132014660064,126.98543344554172,서울 중구 충무로2가 65-9
CGV 명동,"문화,예술 > 영화,영상 > 영화관 > CGV",37.5634929642429,126.982583010911,서울 중구 명동2가 83-5
서울시립미술관 서소문본관,"문화,예술 > 문화시설 > 미술관",37.5641076212639,126.973790543874,서울 중구 서소문동 37
그라운드시소 센트럴,"문화,예술 > 문화시설 > 전시관",37.5578314113011,126.974399370837,서울 중구 남대문로5가 831
한국은행 화폐박물관,"문화,예술 > 문화시설 > 박물관",37.5620978998462,126.980523397494,서울 중구 남대문로3가 110
피크닉,"문화,예술 > 문화시설 > 전시관",37.556958192580645,126.9781231481776,서울 중구 남창동 194
안중근의사기념관,"문화,예술 > 문화시설 > 기념관",37.55352399072,126.980407931726,서울 중구 남대문로5가 471
명동난타극장,"문화,예술 > 문화시설 > 공연장,연극극장",37.5634679028825,126.983751090997,서울 중구 명동2가 50-14
서울특별시교육청융합과학교육원 남산분원,"문화,예술 > 문화시설 > 전시관",37.55459806753188,126.98094182272716,서울 중구 회현동1가 산 1-2
우표박물관,"문화,예술 > 문화시설 > 박물관",37.56190353259943,126.98208990250843,서울 중구 충무로1가 21-1
일우스페이스,"문화,예술 > 문화시설 > 미술관",37.5634697997132,126.974171070572,서울 중구 서소문동 41-3
우리은행 은행사박물관,"문화,예술 > 문화시설 > 박물관",37.5592401206899,126.981664986647,서울 중구 회현동1가 203
한양도성유적전시관,"문화,예술 > 문화시설 > 전시관",37.5539044309214,126.981776069813,서울 중구 회현동1가 100-267
우정아트센터,"문화,예술 > 문화시설 > 미술관",37.5612463929388,126.975353459553,서울 중구 태평로2가 150
티머니타운,"문화,예술 > 문화시설 > 전시관",37.5543949358987,126.974074611747,서울 중구 남대문로5가 581
비디갤러리,"문화,예술 > 문화시설 > 미술관",37.5604227779338,126.985630554983,서울 중구 남산동2가 6-2
나우인명동,"문화,예술 > 문화시설 > 전시관",37.5637795645056,126.98315792887,서울 중구 명동1가 64-2
천주교 서울대교구 역사관,"문화,예술 > 문화시설 > 박물관",37.5634826614344,126.986467540083,서울 중구 명동2가 1-1
초전섬유퀼트박물관,"문화,예술 > 문화시설 > 박물관",37.5581448789131,126.984232119295,서울 중구 남산동1가 20
전시공간 리플랫,"문화,예술 > 문화시설 > 미술관",37.563373346443,126.978426872852,서울 중구 북창동 11-3
문구아트박물관,"문화,예술 > 문화시설 > 박물관",37.5603744589307,126.976485554858,서울 중구 남대문로4가 20-6
주한리스트헝가리문화원,"문화,예술 > 문화시설 > 문화원",37.56345528986756,126.98375788486504,서울 중구 명동2가 50-14
3D블랙아트,"문화,예술 > 문화시설 > 전시관",37.562001434040376,126.98656288194871,서울 중구 충무로2가 11-1
서울특별시교육청융합과학교육원 남산분관 천체투영실,"문화,예술 > 문화시설 > 전시관",37.5546160865729,126.980936159533,서울 중구 회현동1가 100-177
김청기의 동심,"문화,예술 > 문화시설 > 기념관",37.5592469719539,126.98559003631,서울 중구 남산동2가 30-4
신세계 메사홀,"문화,예술 > 문화시설 > 공연장,연극극장",37.5603750381813,126.979600290562,서울 중구 회현동1가 204
알파갤러리 남대문본점,"문화,예술 > 문화시설 > 전시관",37.5603636532762,126.976517248875,서울 중구 남대문로4가 20-6
눈내리는명동,"문화,예술 > 문화시설 > 전시관",37.5588190718841,126.986205809524,서울 중구 남산동2가 18-9
BGA인덱스,"문화,예술 > 문화시설 > 전시관",37.5633733194651,126.97827973191,서울 중구 북창동 11-6
한국은행 아카이브,"문화,예술 > 문화시설 > 전시관",37.5616481891386,126.979847813627,서울 중구 남대문로3가 110
벤로갤러리,"문화,예술 > 문화시설 > 전시관",37.5607852972062,126.976403935112,서울 중구 남대문로4가 17-11
테크누아르,"문화,예술 > 문화시설 > 전시관",37.5588678174977,126.987015027036,서울 중구 남산동2가 22
명동갤러리,"문화,예술 > 문화시설 > 미술관",37.5611868505512,126.985856772319,서울 중구 충무로2가 65-6
신세계백화점 본점 트리니티가든,"문화,예술 > 문화시설 > 전시관",37.56087081893026,126.98099342039498,서울 중구 충무로1가 52-5
에스토니아 비즈니스 허브,"문화,예술 > 문화시설 > 전시관",37.5555229380185,126.973861454852,서울 중구 남대문로5가 541
자연문화원,"문화,예술 > 문화시설 > 문화원",37.5611272943056,126.974565752434,서울 중구 태평로2가 120
갤러리둥지향,"문화,예술 > 문화시설 > 미술관",37.5612648842607,126.977725751443,서울 중구 북창동 136
어벤지스,"문화,예술 > 문화시설 > 전시관",37.5637528372359,126.985432971895,서울 중구 명동2가 2-23
작가의서재,"문화,예술 > 문화시설 > 전시관",37.5596785846604,126.985880825165,서울 중구 남산동2가 13-1
애니살롱,"문화,예술 > 문화시설 > 전시관",37.5581271118755,126.986255735145,서울 중구 남산동2가 26-5
펑키하우스,"문화,예술 > 문화시설 > 공연장,연극극장",37.5634282590415,126.983751099608,서울 중구 명동2가 50-14
소년24 전용관,"문화,예술 > 문화시설 > 공연장,연극극장",37.5603750381813,126.979600290562,서울 중구 회현동1가 204
그래피직스 메이커스,"문화,예술 > 문화시설 > 전시관",37.5581163718609,126.986888398754,서울 중구 남산동2가 25-4
에이피숍,"문화,예술 > 문화시설 > 전시관",37.5617444233961,126.978861964809,서울 중구 북창동 93-3
대한극장,"문화,예술 > 영화,영상 > 영화관",37.56116418086468,126.9953674605078,서울 중구 필동2가 19-1
서울남산국악당,"문화,예술 > 문화시설 > 공연장,연극극장",37.5586539187088,126.993562423498,서울 중구 필동2가 84-1
국립극장 달오름극장,"문화,예술 > 문화시설 > 공연장,연극극장",37.5531399890378,127.000027160769,서울 중구 장충동2가 산 14-67
국립극장 KB국민은행청소년하늘극장,"문화,예술 > 문화시설 > 공연장,연극극장",37.552859777890085,127.00042551711708,서울 중구 장충동2가 산 14-67
이회영기념관,"문화,예술 > 문화시설 > 기념관",37.5598789313451,126.988930989999,서울 중구 예장동 4-1
삼일로창고극장,"문화,예술 > 문화시설 > 공연장,연극극장",37.5634539936501,126.987984230554,서울 중구 저동1가 20-2
공간하제,"문화,예술 > 문화시설 > 공연장,연극극장",37.5583612175936,126.996477907926,서울 중구 필동3가 39-20
공연예술박물관,"문화,예술 > 문화시설 > 박물관",37.5539364702609,127.000475318511,서울 중구 장충동2가 산 14-67
갤러리어스,"문화,예술 > 문화시설 > 전시관",37.5627265936127,126.998777608812,서울 중구 충무로5가 19-8
미루갤러리,"문화,예술 > 문화시설 > 미술관",37.5621748188141,126.990637458032,서울 중구 충무로3가 59-12
충무로갤러리,"문화,예술 > 문화시설 > 미술관",37.5623613988475,126.991618738372,서울 중구 충무로3가 57-8
와이피씨스페이스,"문화,예술 > 문화시설 > 전시관",37.5624202605212,127.000373506889,서울 중구 묵정동 30-21
기억6전시관,"문화,예술 > 문화시설 > 전시관",37.5597527768093,126.988772556844,서울 중구 예장동 4-1
국립극장 별오름극장,"문화,예술 > 문화시설 > 공연장,연극극장",37.55415811553343,127.000522851911,서울 중구 장충동2가 산 14-67
서진아트스페이스,"문화,예술 > 문화시설 > 전시관",37.55514009442538,126.99490721975872,서울 중구 필동2가 128-22
ACSkr,"문화,예술 > 문화시설 > 공연장,연극극장",37.5627262535897,126.990956568944,서울 중구 충무로3가 58-13
을지극장,"문화,예술 > 문화시설 > 미술관",37.5632905247291,126.995164727299,서울 중구 인현동2가 220
세종갤러리,"문화,예술 > 문화시설 > 미술관",37.5613276555049,126.988120390747,서울 중구 충무로2가 61-3
숭의여자대학교 숭의음악당,"문화,예술 > 문화시설 > 공연장,연극극장",37.5575362108057,126.98764112425,서울 중구 예장동 8-3
공간서울,"문화,예술 > 문화시설 > 미술관",37.5627986758347,126.999049250382,서울 중구 충무로5가 19-3
엘비스프레슬리 서울기념관,"문화,예술 > 문화시설 > 기념관",37.5594409804057,126.988244055838,서울 중구 예장동 8-35
더페이지,"문화,예술 > 문화시설 > 미술관",37.56047310882828,126.99518075471096,서울 중구 필동2가 18-16
세컨드에비뉴갤러리,"문화,예술 > 문화시설 > 미술관",37.555125679242,126.994925328399,서울 중구 필동2가 128-22
스테이션24,"문화,예술 > 문화시설 > 미술관",37.5601963599378,126.992453121485,서울 중구 필동1가 26
에스페란토문화원,"문화,예술 > 문화시설 > 문화원",37.5619944394818,126.988591127242,서울 중구 충무로2가 12-3
서울중부경찰서 역사박물관,"문화,예술 > 문화시설 > 박물관",37.5636848005606,126.989582377239,서울 중구 저동2가 62-1
적십자 디지털아카이브,"문화,예술 > 문화시설 > 전시관",37.5600410290748,126.988091168148,서울 중구 남산동3가 32-2
예술의전당,"문화,예술 > 문화시설 > 공연장,연극극장",37.479446101344905,127.01375358339828,서울 서초구 서초동 700
예술의전당 한가람미술관,"문화,예술 > 문화시설 > 미술관",37.4804281441544,127.014236530093,서울 서초구 서초동 1202
예술의전당 오페라하우스,"문화,예술 > 문화시설 > 공연장,연극극장",37.4793614002782,127.013806705374,서울 서초구 서초동 산 134-1
국립국악원,"문화,예술 > 문화시설 > 공연장,연극극장",37.47792476713986,127.00882857012994,서울 서초구 서초동 산 150-124
예술의전당 한가람디자인미술관,"문화,예술 > 문화시설 > 미술관",37.4798913174868,127.012703344017,서울 서초구 서초동 129-6
예술의전당 CJ토월극장,"문화,예술 > 문화시설 > 공연장,연극극장",37.479031607194734,127.01400788796188,서울 서초구 서초동 700
예술의전당 콘서트홀,"문화,예술 > 문화시설 > 공연장,연극극장",37.47931116650964,127.01174677144716,서울 서초구 서초동 700
예술의전당 자유소극장,"문화,예술 > 문화시설 > 공연장,연극극장",37.47963620014841,127.01387459128874,서울 서초구 서초동 700
에스씨씨홀,"문화,예술 > 문화시설 > 공연장,연극극장",37.4817471860847,127.01452621934,서울 서초구 서초동 1450-2
예술의전당 서울서예박물관,"문화,예술 > 문화시설 > 박물관",37.47833986691578,127.01186193751934,서울 서초구 서초동 산 130-27
국립국악원 예악당,"문화,예술 > 문화시설 > 공연장,연극극장",37.4776139259987,127.008732436066,서울 서초구 서초동 700
서리풀아트홀,"문화,예술 > 문화시설 > 공연장,연극극장",37.4831162879106,127.010003917661,서울 서초구 서초동 1485-13
예술의전당 IBK챔버홀,"문화,예술 > 문화시설 > 공연장,연극극장",37.47949132603198,127.01216511686258,서울 서초구 서초동 700
브라움홀,"문화,예술 > 문화시설 > 공연장,연극극장",37.4802738840237,127.005838412518,서울 서초구 서초동 1487-133
페리지홀앤갤러리,"문화,예술 > 문화시설 > 공연장,연극극장",37.4822375415116,127.01273539882,서울 서초구 서초동 1451-51
예술의전당 리사이틀홀,"문화,예술 > 문화시설 > 공연장,연극극장",37.4792319150666,127.011364621935,서울 서초구 서초동 산 130-6
국립국악원 우면당,"문화,예술 > 문화시설 > 공연장,연극극장",37.4783058394142,127.009532959577,서울 서초구 서초동 산 150-127
코스모스아트홀,"문화,예술 > 문화시설 > 공연장,연극극장",37.4829080044916,127.01164557706,서울 서초구 서초동 1461-9
예술의전당 음악당,"문화,예술 > 문화시설 > 공연장,연극극장",37.47941748200017,127.0117829668398,서울 서초구 서초동 산 130-18
라율아트홀,"문화,예술 > 문화시설 > 공연장,연극극장",37.48244658937674,127.01260654229964,서울 서초구 서초동 1451-38
국립국악원 풍류사랑방,"문화,예술 > 문화시설 > 공연장,연극극장",37.47723007676379,127.00898789637978,서울 서초구 서초동 740-4
도잉아트,"문화,예술 > 문화시설 > 전시관",37.4816210431703,127.01453976235,서울 서초구 서초동 1450-2
국악박물관,"문화,예술 > 문화시설 > 박물관",37.4774156380061,127.009582590952,서울 서초구 서초동 산 146-13
예술의전당 한가람미술관 제7전시실,"문화,예술 > 문화시설 > 공연장,연극극장",37.47996250279157,127.01265134873664,서울 서초구 서초동 산 129-6
엘림아트홀,"문화,예술 > 문화시설 > 공연장,연극극장",37.4820825188847,127.013183100446,서울 서초구 서초동 1451-74
한원미술관,"문화,예술 > 문화시설 > 미술관",37.4817434662027,127.015439760383,서울 서초구 서초동 1449-12
갤러리반포대로5,"문화,예술 > 문화시설 > 전시관",37.4810392203404,127.012541861062,서울 서초구 서초동 1464-33
예술의전당 인춘아트홀,"문화,예술 > 문화시설 > 공연장,연극극장",37.47935616646952,127.01224423590376,서울 서초구 서초동 700
국립예술단체 공연연습장 N스튜디오,"문화,예술 > 문화시설 > 공연장,연극극장",37.47797758288809,127.01261709718074,서울 서초구 서초동 산 130-23
한국예술종합학교 이강숙홀,"문화,예술 > 문화시설 > 공연장,연극극장",37.477863351420595,127.01061598228176,서울 서초구 서초동 1753
아트스페이스호서,"문화,예술 > 문화시설 > 미술관",37.4813942427355,127.012305508651,서울 서초구 서초동 1463-10
국립국악원 예인마루,"문화,예술 > 문화시설 > 공연장,연극극장",37.47732027276659,127.00763689472096,서울 서초구 서초동 740-4
음악플러스 아트홀,"문화,예술 > 문화시설 > 공연장,연극극장",37.483185602916,127.010718493108,서울 서초구 서초동 1460-17
풍류사랑방,"문화,예술 > 문화시설 > 공연장,연극극장",37.4775860020964,127.008631813122,서울 서초구 서초동 산 150-124
국립발레단,"문화,예술 > 문화시설 > 공연장,연극극장",37.479361399221,127.013815750055,서울 서초구 서초동 산 134-1
국립국악원 연희마당,"문화,예술 > 문화시설 > 공연장,연극극장",37.4777076154328,127.008940470043,서울 서초구 서초3동 700
클라라아카데미홀,"문화,예술 > 문화시설 > 공연장,연극극장",37.48317630077682,127.013560927245,서울 서초구 서초동 1451-55
예술의전당 야외공연장,"문화,예술 > 문화시설 > 공연장,연극극장",37.47804055996462,127.013465031674,서울 서초구 서초동 산 132-2
올댓클래식,"문화,예술 > 문화시설 > 공연장,연극극장",37.4820153482143,127.008836965778,서울 서초구 서초동 1481-13
제이앤알아트홀,"문화,예술 > 문화시설 > 공연장,연극극장",37.4832144211442,127.010872264695,서울 서초구 서초동 1460-18
예술의전당 신세계스퀘어,"문화,예술 > 문화시설 > 공연장,연극극장",37.4801687488093,127.013422450847,서울 서초구 서초동 700
수소모빌리티쇼,"문화,예술 > 문화시설 > 전시관",37.4826557476074,127.011383230648,서울 서초구 서초동 1461-14
예술의전당 컨퍼런스홀,"문화,예술 > 문화시설 > 공연장,연극극장",37.479398331054,127.013897159022,서울 서초구 서초동 산 134-1
예술의전당 야외무대,"문화,예술 > 문화시설 > 공연장,연극극장",37.4801615402224,127.013426971946,서울 서초구 서초동 700
국립국악원 강습안내,"문화,예술 > 문화시설 > 공연장,연극극장",37.47771124068471,127.00865556929212,서울 서초구 서초동 산 150-124
인도박물관,"문화,예술 > 문화시설 > 박물관",37.4840855335023,127.019225679561,서울 서초구 서초동 1444-21
서울 그라시아스아트센터,"문화,예술 > 문화시설 > 공연장,연극극장",37.4767829828296,127.027662205848,서울 서초구 양재동 183
산지갤러리,"문화,예술 > 문화시설 > 미술관",37.4834906605006,127.020460193998,서울 서초구 서초동 1429-2
스트리트웍스,"문화,예술 > 문화시설 > 전시관",37.48406678088,127.023296036329,서울 서초구 서초동 1434-10
산지뮤직홀,"문화,예술 > 문화시설 > 공연장,연극극장",37.4835059809736,127.020440977167,서울 서초구 서초동 1429-2
세계한상대회,"문화,예술 > 문화시설 > 전시관",37.4832797791453,127.029242980061,서울 서초구 서초동 1376-1
그라시아스 아트홀,"문화,예술 > 문화시설 > 공연장,연극극장",37.4767766778796,127.027653159155,서울 서초구 양재동 183
흰물결아트센터,"문화,예술 > 문화시설 > 공연장,연극극장",37.4934501439877,127.007327567463,서울 서초구 서초동 1720-4
모차르트홀,"문화,예술 > 문화시설 > 공연장,연극극장",37.4864945065723,127.004495633777,서울 서초구 서초동 1515-3
흰물결갤러리,"문화,예술 > 문화시설 > 미술관",37.493443838687874,127.00729929691366,서울 서초구 서초동 1720-4
안톤홀,"문화,예술 > 문화시설 > 공연장,연극극장",37.4894386671054,127.009950485374,서울 서초구 서초동 1548-8
터키이스탄불문화원,"문화,예술 > 문화시설 > 문화원",37.4890963250142,127.009452917966,서울 서초구 서초동 1544-2
법원전시관,"문화,예술 > 문화시설 > 전시관",37.4924663266081,127.005848407691,서울 서초구 서초동 967
씨어터송,"문화,예술 > 문화시설 > 공연장,연극극장",37.4932230280893,127.008268365902,서울 서초구 서초3동 1708-7
샤론홀,"문화,예술 > 문화시설 > 공연장,연극극장",37.4894387996748,127.008227242243,서울 서초구 서초동 1540-3
아트홀 샤인,"문화,예술 > 문화시설 > 공연장,연극극장",37.4914368596194,127.012500630232,서울 서초구 서초동 1570-4
에스비엠아트홀,"문화,예술 > 문화시설 > 공연장,연극극장",37.4850704061477,127.011835865448,서울 서초구 서초동 1584-6
디엠아트센터,"문화,예술 > 문화시설 > 전시관",37.4899179947741,127.010050054445,서울 서초구 서초동 1549-8
콘서트하우스,"문화,예술 > 문화시설 > 공연장,연극극장",37.4853408391938,127.010451961657,서울 서초구 서초동 1535-9
E&L갤러리,"문화,예술 > 문화시설 > 전시관",37.4856394725786,127.003848833745,서울 서초구 서초동 1496-12
무이아트홀,"문화,예술 > 문화시설 > 공연장,연극극장",37.4944228378383,127.012113259342,서울 서초구 서초동 1713-1
한국기독교기념관,"문화,예술 > 문화시설 > 기념관",37.49010836805161,127.00627790773312,서울 서초구 서초동 1498-5
맑은샘,"문화,예술 > 문화시설 > 공연장,연극극장",37.4911430912462,127.01287260219,서울 서초구 서초동 1569-10
문화깡패,"문화,예술 > 문화시설 > 전시관",37.4898132825799,127.012130606831,서울 서초구 서초동 1561-3
한전아트센터,"문화,예술 > 문화시설 > 공연장,연극극장",37.4859288834084,127.028674147842,서울 서초구 서초동 1355
전기박물관,"문화,예술 > 문화시설 > 박물관",37.4860046996426,127.028126925191,서울 서초구 서초동 1355
정효아트센터,"문화,예술 > 문화시설 > 공연장,연극극장",37.4875489437498,127.019624576492,서울 서초구 서초동 1618-55
한전아트센터 갤러리,"문화,예술 > 문화시설 > 미술관",37.4859074066234,127.02806017837646,서울 서초구 서초동 1355
디월트 고객체험센터,"문화,예술 > 문화시설 > 전시관",37.4860242040963,127.020985522982,서울 서초구 서초동 1443-15
정효국악문화재단 정효아트홀,"문화,예술 > 문화시설 > 공연장,연극극장",37.4875489437498,127.019624576492,서울 서초구 서초동 1618-55
서울교육대학교 샘미술관,"문화,예술 > 문화시설 > 미술관",37.4894747774507,127.0171860795,서울 서초구 서초동 1650
서울교육대학교 교육박물관,"문화,예술 > 문화시설 > 박물관",37.489205563609914,127.01584496795137,서울 서초구 서초동 1650
아뜨레미술관,"문화,예술 > 문화시설 > 미술관",37.4957253348039,127.025638217275,서울 서초구 서초동 1321-9
서울 가야금산조기념관,"문화,예술 > 문화시설 > 기념관",37.4875417364372,127.019620051773,서울 서초구 서초동 1618-55
롯데시네마 도곡,"문화,예술 > 영화,영상 > 영화관 > 롯데시네마",37.4874745085255,127.047105267661,서울 강남구 도곡동 174-3
강남씨어터,"문화,예술 > 문화시설 > 공연장,연극극장",37.49536123749658,127.03323385255212,서울 강남구 역삼동 829-20
영산양재홀,"문화,예술 > 문화시설 > 공연장,연극극장",37.4804768210113,127.03840428523615,서울 서초구 양재동 20-4
양재천 수변무대,"문화,예술 > 문화시설 > 공연장,연극극장",37.4761403300323,127.040889246441,서울 서초구 양재동 261-23
나음아트홀,"문화,예술 > 문화시설 > 공연장,연극극장",37.4748678528548,127.050823539455,서울 강남구 개포동 1184-2
서초문화원,"문화,예술 > 문화시설 > 문화원",37.4818579254261,127.035994504571,서울 서초구 양재동 25
M극장,"문화,예술 > 문화시설 > 공연장,연극극장",37.4736883989151,127.052948079929,서울 강남구 개포동 1166
도곡2문화센터 오유아트홀,"문화,예술 > 문화시설 > 공연장,연극극장",37.4837356132787,127.046374781024,서울 강남구 도곡동 459
2448아트스페이스,"문화,예술 > 문화시설 > 미술관",37.4829885772136,127.046628713229,서울 강남구 도곡동 454-8
쿤스트하우스,"문화,예술 > 문화시설 > 공연장,연극극장",37.4885700729679,127.030918513471,서울 서초구 서초동 1357-6
문암 미술관,"문화,예술 > 문화시설 > 미술관",37.4904419902085,127.038350587465,서울 강남구 도곡동 548-5
프롬프트 프로젝트,"문화,예술 > 문화시설 > 미술관",37.4804530566745,127.046835168302,서울 강남구 개포동 1250-3
두남재아트홀,"문화,예술 > 문화시설 > 공연장,연극극장",37.4955077952789,127.031048026148,서울 강남구 역삼동 827-20
쿰아트홀,"문화,예술 > 문화시설 > 공연장,연극극장",37.4743338943385,127.043171891087,서울 서초구 양재동 265-21
살롱인양재천,"문화,예술 > 문화시설 > 전시관",37.47860172547435,127.04135638386056,서울 서초구 양재동 90-2
2448아트스페이스 2관,"문화,예술 > 문화시설 > 미술관",37.482265392873,127.045796121039,서울 강남구 도곡동 454
더재즈컴퍼니 서울,"문화,예술 > 문화시설 > 공연장,연극극장",37.4735237773376,127.045852964211,서울 서초구 양재동 299-13
윤스스페이스,"문화,예술 > 문화시설 > 공연장,연극극장",37.4822259285648,127.045329147514,서울 강남구 도곡동 453-7
라트어린이극장,"문화,예술 > 문화시설 > 공연장,연극극장",37.4842849554797,127.042300224765,서울 강남구 도곡동 514-1
유디갤러리,"문화,예술 > 문화시설 > 미술관",37.4906244690835,127.030539426624,서울 서초구 서초동 1338-21
안인자기념관,"문화,예술 > 문화시설 > 기념관",37.4914744604061,127.05261235593,서울 강남구 도곡동 91
청년여성문화원,"문화,예술 > 문화시설 > 문화원",37.4855762872789,127.039144097931,서울 강남구 도곡동 909-3
역삼1문화센터 전시실,"문화,예술 > 문화시설 > 전시관",37.4952584835236,127.033372898453,서울 강남구 역삼동 829-20
갤러리 뜨거울때꽃이핀다,"문화,예술 > 문화시설 > 미술관",37.4863794175041,127.038129156632,서울 강남구 도곡동 902-2
sAn 리허설 스튜디오,"문화,예술 > 문화시설 > 공연장,연극극장",37.4826216862055,127.0369491262,서울 서초구 양재동 14-21
문화공간땅속,"문화,예술 > 문화시설 > 전시관",37.4910415352796,127.034194216269,서울 강남구 역삼동 836-37
솔뫼국악원,"문화,예술 > 문화시설 > 문화원",37.4840178025846,127.038351826184,서울 서초구 양재동 8-7
성서전시실 반포센타,"문화,예술 > 문화시설 > 전시관",37.48465227538899,127.03172645488812,서울 서초구 서초동 1365-16
에이트리갤러리,"문화,예술 > 문화시설 > 전시관",37.4781295443265,127.041505358423,서울 서초구 양재동 91-5
한국인성문화원,"문화,예술 > 문화시설 > 문화원",37.4775482863755,127.044281686701,서울 서초구 양재동 275-6
뮤직플러스아동음악연구회,"문화,예술 > 문화시설 > 공연장,연극극장",37.4769848622904,127.047360970321,서울 강남구 개포동 1234-8
모터앤뮤지엄,"문화,예술 > 문화시설 > 공연장,연극극장",37.4881379793756,127.050665182205,서울 강남구 도곡동 467-6
드림홀,"문화,예술 > 문화시설 > 공연장,연극극장",37.4804198733194,127.046445090258,서울 강남구 개포동 1243-9
엠텐 프로덕션,"문화,예술 > 문화시설 > 공연장,연극극장",37.475140690316,127.053252084196,서울 강남구 개포동 1183-15
메가박스 센트럴,"문화,예술 > 영화,영상 > 영화관 > 메가박스",37.50520032883598,127.00390751742334,서울 서초구 반포동 19-3
가톨릭대학교 마리아홀,"문화,예술 > 문화시설 > 공연장,연극극장",37.4998365470387,127.006133967691,서울 서초구 반포동 505
국립중앙도서관 기록매체박물관,"문화,예술 > 문화시설 > 박물관",37.4983517910045,127.003668546684,서울 서초구 반포동 산 57-1
한가람아트갤러리,"문화,예술 > 문화시설 > 전시관",37.5060065882661,127.006957830883,서울 서초구 반포동 19-4
신세계 아트스페이스 강남,"문화,예술 > 문화시설 > 미술관",37.5050354325368,127.004263765061,서울 서초구 반포동 19-3
씽크타운,"문화,예술 > 문화시설 > 공연장,연극극장",37.5044137294811,127.004514803443,서울 서초구 반포동 19-3
CGV 강남,"문화,예술 > 영화,영상 > 영화관 > CGV",37.5016573944824,127.026391177132,서울 강남구 역삼동 814-6
메가박스 강남,"문화,예술 > 영화,영상 > 영화관 > 메가박스",37.4979560555237,127.026417015264,서울 서초구 서초동 1317-20
메가박스 강남대로씨티,"문화,예술 > 영화,영상 > 영화관 > 메가박스",37.5003814558941,127.026897372123,서울 강남구 역삼동 816
시티극장,"문화,예술 > 영화,영상 > 영화관",37.5003940501186,127.026984456104,서울 강남구 역삼동 816
강남스퀘어,"문화,예술 > 문화시설 > 공연장,연극극장",37.498323337006575,127.02784995807065,서울 강남구 역삼동 804
부띠크모나코미술관,"문화,예술 > 문화시설 > 미술관",37.4974626550471,127.024797452916,서울 서초구 서초동 1316-5
리조이스 스튜디오,"문화,예술 > 문화시설 > 공연장,연극극장",37.5052996496167,127.024580635462,서울 강남구 논현동 199-5
펄스 라이브홀,"문화,예술 > 문화시설 > 공연장,연극극장",37.5044840831131,127.020696638298,서울 서초구 반포동 741
스페이스22,"문화,예술 > 문화시설 > 전시관",37.4978474172273,127.028637993336,서울 강남구 역삼동 825
L&S아트홀,"문화,예술 > 문화시설 > 공연장,연극극장",37.4962202747522,127.019405200844,서울 서초구 서초동 1687-2
유나갤러리 강남,"문화,예술 > 문화시설 > 미술관",37.4966332657545,127.026914121286,서울 서초구 서초동 1320-10
강남아트홀 1관,"문화,예술 > 문화시설 > 공연장,연극극장",37.5000683431779,127.024902357123,서울 서초구 서초동 1307
더 클렌체 갤러리,"문화,예술 > 문화시설 > 전시관",37.5029298351269,127.020773113208,서울 서초구 서초동 1301-4
아트핀갤러리,"문화,예술 > 문화시설 > 전시관",37.5063881705739,127.028140225886,서울 강남구 논현동 196-6
작업의정석,"문화,예술 > 문화시설 > 공연장,연극극장",37.5015711432327,127.025269274254,서울 서초구 서초동 1305-2
유니버설공연,"문화,예술 > 문화시설 > 공연장,연극극장",37.4961806304594,127.019405190586,서울 서초구 서초동 1687-2
아이노스아트홀,"문화,예술 > 문화시설 > 공연장,연극극장",37.5148970279059,127.014401432091,서울 서초구 잠원동 58-7
메가박스 브로드웨이신사,"문화,예술 > 영화,영상 > 영화관 > 메가박스",37.5163708109245,127.021941915834,서울 강남구 논현동 3-5
삼익아트홀,"문화,예술 > 문화시설 > 공연장,연극극장",37.514173419061,127.029499349617,서울 강남구 논현동 58-3
강남문화원,"문화,예술 > 문화시설 > 문화원",37.51384692815208,127.02710580276036,서울 강남구 논현동 40-5
리엠아트센터,"문화,예술 > 문화시설 > 공연장,연극극장",37.5079659216777,127.023609966656,서울 강남구 논현동 164-14
THE H GALLERY,"문화,예술 > 문화시설 > 전시관",37.518266055894,127.019461811011,서울 강남구 신사동 503-2
엠팟,"문화,예술 > 문화시설 > 공연장,연극극장",37.51400667834185,127.0297187188414,서울 강남구 논현동 58-3
리코디아 아트홀,"문화,예술 > 문화시설 > 공연장,연극극장",37.5095624935848,127.018616925954,서울 서초구 반포동 703-12
갤러리라보,"문화,예술 > 문화시설 > 전시관",37.5093174341954,127.018528644226,서울 서초구 반포동 701-59
더라라갤러리 논현점,"문화,예술 > 문화시설 > 미술관",37.512222653086,127.0260600969,서울 강남구 논현동 125-2
GALLERY X2,"문화,예술 > 문화시설 > 미술관",37.5125369091997,127.026926617515,서울 강남구 논현동 125-7
갤러리스탠,"문화,예술 > 문화시설 > 전시관",37.5100508355412,127.027801155441,서울 강남구 논현동 149-35
제인 클레어,"문화,예술 > 문화시설 > 전시관",37.5132147847183,127.029363240843,서울 강남구 논현동 128-6
더그레잇컬렉션,"문화,예술 > 문화시설 > 전시관",37.5155490269464,127.016876471559,서울 서초구 잠원동 15-8
비빅,"문화,예술 > 문화시설 > 전시관",37.50942001391682,127.0193690310367,서울 서초구 반포동 710-8
스페이스비이갤러리,"문화,예술 > 문화시설 > 미술관",37.5125047642335,127.029480595505,서울 강남구 논현동 132-22
갤러리카르티즘,"문화,예술 > 문화시설 > 미술관",37.508812323631794,127.02174290415414,서울 서초구 반포동 722-27
해월동NFT아트갤러리,"문화,예술 > 문화시설 > 전시관",37.5174404265885,127.021261271093,서울 강남구 신사동 514-22
구하갤러리,"문화,예술 > 문화시설 > 미술관",37.516693966842,127.023523355443,서울 강남구 논현동 12
하이든홀,"문화,예술 > 문화시설 > 공연장,연극극장",37.5122924355633,127.028218224903,서울 강남구 논현동 135-6
무인 신사동지점,"문화,예술 > 문화시설 > 공연장,연극극장",37.516359146752,127.021677224954,서울 강남구 논현동 3-6
아이피티,"문화,예술 > 문화시설 > 공연장,연극극장",37.518154121692,127.020695888529,서울 강남구 신사동 511-6
갤러리 도큐먼트,"문화,예술 > 문화시설 > 미술관",37.5154372927689,127.016944314144,서울 서초구 잠원동 15-8
갤러리아트인사이드,"문화,예술 > 문화시설 > 전시관",37.5125369091997,127.026926617515,서울 강남구 논현동 125-7
에이루트,"문화,예술 > 문화시설 > 미술관",37.5142832967886,127.021332766584,서울 강남구 논현동 21-10
린,"문화,예술 > 문화시설 > 미술관",37.5128611142653,127.018338365975,서울 서초구 잠원동 36-1
랩201,"문화,예술 > 문화시설 > 미술관",37.5144045451508,127.01826748347,서울 서초구 잠원동 26-4
에이치앤이기획,"문화,예술 > 문화시설 > 전시관",37.517829690868,127.021089444423,서울 강남구 신사동 512-8
세일아트홀,"문화,예술 > 문화시설 > 공연장,연극극장",37.4972245536404,127.039014474603,서울 강남구 역삼동 727-13
국기원 기념관,"문화,예술 > 문화시설 > 기념관",37.5017284001702,127.030828941013,서울 강남구 역삼동 635
갤러리브릭스,"문화,예술 > 문화시설 > 미술관",37.5037637490405,127.034186446208,서울 강남구 역삼동 627-10
마롱197,"문화,예술 > 문화시설 > 전시관",37.4961835964822,127.030871895099,서울 강남구 역삼동 827-13
갤러리샘,"문화,예술 > 문화시설 > 전시관",37.5015803438509,127.031925872544,서울 강남구 역삼동 637
KB아트홀,"문화,예술 > 문화시설 > 공연장,연극극장",37.4991444578934,127.030276007646,서울 강남구 역삼동 649-11
히든엠갤러리,"문화,예술 > 문화시설 > 전시관",37.499776232890405,127.0389253307441,서울 강남구 역삼동 725-7
주한네팔문화원,"문화,예술 > 문화시설 > 문화원",37.50309684533797,127.0347335184759,서울 강남구 역삼동 640-13
B4 개러지,"문화,예술 > 문화시설 > 미술관",37.4962080832562,127.039421047836,서울 강남구 역삼동 734-17
최종현기념홀,"문화,예술 > 문화시설 > 전시관",37.5018124417313,127.039120906626,서울 강남구 역삼동 678-39
Mfor아트스페이스,"문화,예술 > 문화시설 > 공연장,연극극장",37.503532415411,127.036448239601,서울 강남구 역삼동 668-8
갤러리오월,"문화,예술 > 문화시설 > 미술관",37.5005927125523,127.041089176005,서울 강남구 역삼동 723-3
엡손 솔루션센터,"문화,예술 > 문화시설 > 전시관",37.4994822999068,127.033732138877,서울 강남구 역삼동 735-3
애드티브 컨텐츠베이,"문화,예술 > 문화시설 > 공연장,연극극장",37.5014444884309,127.040143064458,서울 강남구 역삼동 719
진훈인터내셔날,"문화,예술 > 문화시설 > 공연장,연극극장",37.501932329641,127.036121755297,서울 강남구 역삼동 642-10
피와이 프로덕션,"문화,예술 > 문화시설 > 공연장,연극극장",37.4963586855662,127.041655669267,서울 강남구 역삼동 770-15
예림당아트홀,"문화,예술 > 문화시설 > 공연장,연극극장",37.4977740555199,127.044433853898,서울 강남구 역삼동 772
신한아트홀,"문화,예술 > 문화시설 > 공연장,연극극장",37.4986139456617,127.044027236475,서울 강남구 역삼동 731
포스코미술관,"문화,예술 > 문화시설 > 미술관",37.506037809272286,127.05570225254664,서울 강남구 대치동 892
선릉아트홀,"문화,예술 > 문화시설 > 공연장,연극극장",37.5047949131635,127.048457476412,서울 강남구 역삼동 705-27
제이드409,"문화,예술 > 문화시설 > 공연장,연극극장",37.5053725492078,127.050391820673,서울 강남구 삼성동 141-28
한생연 실험누리과학관,"문화,예술 > 문화시설 > 과학관",37.4964468977411,127.055072034001,서울 강남구 대치동 1024
진선여자고등학교 회당기념관,"문화,예술 > 문화시설 > 기념관",37.5011502709616,127.046399120303,서울 강남구 역삼동 713
서울전람,"문화,예술 > 문화시설 > 전시관",37.496555629234194,127.0451342553786,서울 강남구 역삼동 779-3
이에이엔홀,"문화,예술 > 문화시설 > 공연장,연극극장",37.5066976656227,127.053048292614,서울 강남구 삼성동 143-20
플랫폼엘 컨템포러리 아트센터,"문화,예술 > 문화시설 > 미술관",37.5161687572057,127.034264497181,서울 강남구 논현동 85-11
GB성암아트홀,"문화,예술 > 문화시설 > 공연장,연극극장",37.5111482004149,127.043023426255,서울 강남구 논현동 268-16
루디갤러리,"문화,예술 > 문화시설 > 전시관",37.5177296819824,127.035993628963,서울 강남구 논현동 106-12
아트컨티뉴,"문화,예술 > 문화시설 > 전시관",37.516740380310054,127.03290398660756,서울 강남구 논현동 77-23
캐논갤러리,"문화,예술 > 문화시설 > 전시관",37.508100721227834,127.03576280148236,서울 강남구 논현동 235-14
국립관세박물관,"문화,예술 > 문화시설 > 박물관",37.51845542521429,127.03453476229416,서울 강남구 논현동 71
갤러리북과바디,"문화,예술 > 문화시설 > 전시관",37.5183616542508,127.040423606741,서울 강남구 논현동 111-24
갤러리엘르,"문화,예술 > 문화시설 > 미술관",37.507860696239725,127.03692537011574,서울 강남구 역삼동 652-3
아트버디,"문화,예술 > 문화시설 > 미술관",37.51462715451126,127.03094735777928,서울 강남구 논현동 87-2
국제예술대학교 국제콘서트홀,"문화,예술 > 문화시설 > 공연장,연극극장",37.5167644164249,127.030636043206,서울 강남구 논현동 80-8
언주라운드,"문화,예술 > 문화시설 > 전시관",37.50887585014292,127.03167902175724,서울 강남구 논현동 176-21
갤러리 스탠바이비,"문화,예술 > 문화시설 > 전시관",37.5158151253625,127.035743859772,서울 강남구 논현동 115-13
임피리얼팰리스 컨벤션센터,"문화,예술 > 문화시설 > 공연장,연극극장",37.5140742817286,127.036086886499,서울 강남구 논현동 248-5
비티갤러리,"문화,예술 > 문화시설 > 미술관",37.51079724058004,127.04182090907858,서울 강남구 논현동 270-44
엑스스페이스,"문화,예술 > 문화시설 > 공연장,연극극장",37.5093940149936,127.031352370791,서울 강남구 논현동 176-8
갤러리오차드 논현전시관,"문화,예술 > 문화시설 > 전시관",37.5175160930764,127.036160938119,서울 강남구 논현동 106-17
갤러리 아르쥬엘,"문화,예술 > 문화시설 > 미술관",37.51650820094041,127.03188472280816,서울 강남구 논현동 78-10
라펠리체 아트스퀘어,"문화,예술 > 문화시설 > 공연장,연극극장",37.5122905385835,127.035276173271,서울 강남구 논현동 218-16
국제콘서트홀,"문화,예술 > 문화시설 > 공연장,연극극장",37.5168437082464,127.030622501817,서울 강남구 논현동 80-8
아트플러스갤러리,"문화,예술 > 문화시설 > 미술관",37.5184744458229,127.037174933288,서울 강남구 논현동 107-5
돌체아트홀,"문화,예술 > 문화시설 > 공연장,연극극장",37.5098011255333,127.043223978909,서울 강남구 역삼동 682-8
SAC아트홀,"문화,예술 > 문화시설 > 공연장,연극극장",37.5096734385837,127.055543215048,서울 강남구 삼성동 151-7
슈피겐홀,"문화,예술 > 문화시설 > 공연장,연극극장",37.511341591004054,127.04851373752,서울 강남구 삼성동 114-9
민속극장풍류,"문화,예술 > 문화시설 > 공연장,연극극장",37.510090729955984,127.04461985956654,서울 강남구 삼성동 112-2
레스파스에트나 청담,"문화,예술 > 문화시설 > 전시관",37.5183491544596,127.055650319302,서울 강남구 삼성동 59-10
언커먼갤러리(UNCOMMON GALLERY),"문화,예술 > 문화시설 > 전시관",37.5132366966488,127.055996031679,서울 강남구 삼성동 147-2
서울종합예술실용학교 아트센터,"문화,예술 > 문화시설 > 공연장,연극극장",37.5097094851338,127.055529669247,서울 강남구 삼성동 151-7
씽크씽크미술관,"문화,예술 > 문화시설 > 미술관",37.5108613255244,127.050730304183,서울 강남구 삼성동 115-14
파인트리시어터,"문화,예술 > 문화시설 > 공연장,연극극장",37.5075836931726,127.045774260069,서울 강남구 역삼동 694-34
갤러리티움,"문화,예술 > 문화시설 > 미술관",37.5125908671837,127.055592882556,서울 강남구 삼성동 146-23
닉플레이스 갤러리,"문화,예술 > 문화시설 > 미술관",37.507395811420025,127.05719506063748,서울 강남구 삼성동 157-33
뷰갤러리,"문화,예술 > 문화시설 > 미술관",37.5112836502246,127.057186716477,서울 강남구 삼성동 153-29
제이넷컴,"문화,예술 > 문화시설 > 전시관",37.5122574840633,127.055617519065,서울 강남구 삼성동 146-27
SETEC,"문화,예술 > 문화시설 > 전시관",37.4959006734666,127.072196986216,서울 강남구 대치동 514
세라믹팔레스홀,"문화,예술 > 문화시설 > 공연장,연극극장",37.485563344029785,127.08197418875136,서울 강남구 일원동 713
SETEC 제3전시실,"문화,예술 > 문화시설 > 전시관",37.4952487331016,127.071558573704,서울 강남구 대치동 514
경운박물관,"문화,예술 > 문화시설 > 박물관",37.4878384500901,127.066056241204,서울 강남구 개포동 152
강남구민회관 대공연장,"문화,예술 > 문화시설 > 공연장,연극극장",37.493940139349,127.064300951879,서울 강남구 대치동 509-2
SETEC 제2전시실,"문화,예술 > 문화시설 > 전시관",37.4956627968098,127.072214850512,서울 강남구 대치동 514
세텍,"문화,예술 > 문화시설 > 전시관",37.49566837669793,127.07192988655852,서울 강남구 대치동 514
밀알미술관,"문화,예술 > 문화시설 > 미술관",37.4856979908472,127.082697971255,서울 강남구 일원동 713
소품박물관,"문화,예술 > 문화시설 > 박물관",37.4953576108274,127.063955003556,서울 강남구 대치동 316
다니엘패드레이트 침향박물관,"문화,예술 > 문화시설 > 박물관",37.4838008708453,127.079484829353,서울 강남구 일원동 720-2
탄허기념불교박물관,"문화,예술 > 문화시설 > 박물관",37.47902359723798,127.10298451989004,서울 강남구 자곡동 285
더스마티움(휴관중),"문화,예술 > 문화시설 > 전시관",37.47570289254591,127.10557678941124,서울 강남구 자곡동 591
바다와사람들,"문화,예술 > 문화시설 > 전시관",37.492827173465,127.108863210659,서울 송파구 가락동 600
KT&G 상상마당 대치아트홀,"문화,예술 > 문화시설 > 공연장,연극극장",37.5067600874053,127.065150015652,서울 강남구 대치동 1002
한국문화의집코우스,"문화,예술 > 문화시설 > 공연장,연극극장",37.50688506385562,127.06056505070715,서울 강남구 대치동 944-22
SETEC 제1전시실,"문화,예술 > 문화시설 > 전시관",37.4962647792989,127.072034495821,서울 강남구 대치동 514
에스투에이,"문화,예술 > 문화시설 > 미술관",37.5032892244032,127.065495330842,서울 강남구 대치동 983-1
마리아칼라스홀,"문화,예술 > 문화시설 > 공연장,연극극장",37.5024671903626,127.066064603127,서울 강남구 대치동 983-10
C스퀘어,"문화,예술 > 문화시설 > 공연장,연극극장",37.5038111735584,127.066629002198,서울 강남구 대치동 1008
스페이스 아트마인,"문화,예술 > 문화시설 > 전시관",37.5052164447287,127.05869646342,서울 강남구 대치동 957-24
아트99갤러리,"문화,예술 > 문화시설 > 미술관",37.5053506844089,127.07883473975,서울 송파구 잠실동 296-5
하늘아트홀,"문화,예술 > 문화시설 > 공연장,연극극장",37.5040115799449,127.080483397126,서울 송파구 잠실동 307-6
반도가구전시장,"문화,예술 > 문화시설 > 전시관",37.5057820838544,127.08431706861,서울 송파구 잠실동 230-2
메가박스 코엑스,"문화,예술 > 영화,영상 > 영화관 > 메가박스",37.512743362431245,127.05884713674824,서울 강남구 삼성동 159
코엑스,"문화,예술 > 문화시설 > 전시관",37.51266138067201,127.05882784390124,서울 강남구 삼성동 159
마이아트뮤지엄,"문화,예술 > 문화시설 > 미술관",37.507587841577454,127.06057692858644,서울 강남구 대치동 944-31
코엑스 C홀,"문화,예술 > 문화시설 > 전시관",37.5126379466878,127.058843660722,서울 강남구 삼성동 159
코엑스 A홀,"문화,예술 > 문화시설 > 전시관",37.5126523897817,127.058789379889,서울 강남구 삼성동 159
코엑스 D홀,"문화,예술 > 문화시설 > 공연장,연극극장",37.5125226317312,127.058816424151,서울 강남구 삼성동 159
코엑스신한카드아티움,"문화,예술 > 문화시설 > 공연장,연극극장",37.50994346786382,127.06154587656545,서울 강남구 삼성동 159-9
코엑스 B홀,"문화,예술 > 문화시설 > 전시관",37.5126487542242,127.058852717902,서울 강남구 삼성동 159
코엑스 컨퍼런스룸,"문화,예술 > 문화시설 > 공연장,연극극장",37.5126631747918,127.058843680529,서울 강남구 삼성동 159
코엑스 오디토리움,"문화,예술 > 문화시설 > 공연장,연극극장",37.5118916574986,127.059358845237,서울 강남구 삼성동 159
CMG섬유센터 이벤트홀,"문화,예술 > 문화시설 > 공연장,연극극장",37.5075517689015,127.060640235995,서울 강남구 대치동 944-31
코엑스 그랜드볼룸,"문화,예술 > 문화시설 > 전시관",37.51298583760985,127.0586358129279,서울 강남구 삼성동 159
코엑스 컨퍼런스룸E,"문화,예술 > 문화시설 > 전시관",37.51230947210921,127.05985685209698,서울 강남구 삼성동 159
코엑스 그랜드컨퍼런스룸,"문화,예술 > 문화시설 > 공연장,연극극장",37.5107343748705,127.060136096659,서울 강남구 삼성동 159-9
코엑스 아트홀,"문화,예술 > 문화시설 > 공연장,연극극장",37.5113828339957,127.060652383813,서울 강남구 삼성동 159-9
슈페리어갤러리,"문화,예술 > 문화시설 > 미술관",37.5081349603021,127.061911972833,서울 강남구 대치동 945-5
코엑스 더플라츠,"문화,예술 > 문화시설 > 전시관",37.512520828034,127.05881981599,서울 강남구 삼성동 159
초등교육박람회,"문화,예술 > 문화시설 > 전시관",37.51182328107812,127.05915972198927,서울 강남구 삼성동 159
설맞이 명절선물상품전,"문화,예술 > 문화시설 > 전시관",37.5126307611884,127.058798411617,서울 강남구 삼성동 159
세계골프역사박물관,"문화,예술 > 문화시설 > 박물관",37.50817279655632,127.06192331427476,서울 강남구 대치동 945-5
서울 국제스포츠레저산업전,"문화,예술 > 문화시설 > 전시관",37.5127172372682,127.058839198621,서울 강남구 삼성동 159
서울디자인페스티벌,"문화,예술 > 문화시설 > 전시관",37.5125226294782,127.058820948489,서울 강남구 삼성동 159
KOBA,"문화,예술 > 문화시설 > 전시관",37.5127749037587,127.058834719536,서울 강남구 삼성동 159
스포엑스,"문화,예술 > 문화시설 > 전시관",37.5125226294782,127.058820948489,서울 강남구 삼성동 159
한국전자전,"문화,예술 > 문화시설 > 전시관",37.512702825716,127.058830138606,서울 강남구 삼성동 159
씨네아트갤러리,"문화,예술 > 문화시설 > 미술관",37.5128937504842,127.059006738595,서울 강남구 삼성동 159
화랑미술제,"문화,예술 > 문화시설 > 전시관",37.5126884096567,127.058830127291,서울 강남구 삼성동 159
서울국제관광전,"문화,예술 > 문화시설 > 전시관",37.5118241826484,127.059158591626,서울 강남구 삼성동 159
아트토이컬쳐,"문화,예술 > 문화시설 > 전시관",37.5126488195247,127.058721511876,서울 강남구 삼성동 159
js컴퍼니,"문화,예술 > 문화시설 > 전시관",37.5073827718353,127.061624075738,서울 강남구 대치동 945-23
G+스타존,"문화,예술 > 문화시설 > 전시관",37.51170380436399,127.06023640881816,서울 강남구 삼성동 159
앱쇼코리아,"문화,예술 > 문화시설 > 전시관",37.5126775953587,127.058834643152,서울 강남구 삼성동 159
2015상표디자인권전,"문화,예술 > 문화시설 > 전시관",37.5126451569714,127.058839142036,서울 강남구 삼성동 159
백암아트홀,"문화,예술 > 문화시설 > 공연장,연극극장",37.5104140934045,127.065994694946,서울 강남구 삼성동 170-5
코엑스 아쿠아리움,"문화,예술 > 문화시설 > 아쿠아리움",37.51347247430881,127.05844503785671,서울 강남구 삼성동 159
포니정홀,"문화,예술 > 문화시설 > 공연장,연극극장",37.5136494792744,127.061197146993,서울 강남구 삼성동 160
스페이스투알투,"문화,예술 > 문화시설 > 미술관",37.5147244974536,127.064360631231,서울 강남구 삼성동 162-5
페트라홀,"문화,예술 > 문화시설 > 공연장,연극극장",37.5175708043236,127.060892673302,서울 강남구 삼성동 85-10
웰바이오텍 전기차충전기 홍보전시관,"문화,예술 > 문화시설 > 전시관",37.5137244908531,127.06248214136,서울 강남구 삼성동 161-17
스텔라,"문화,예술 > 문화시설 > 전시관",37.5155782232518,127.060035919171,서울 강남구 삼성동 91-30
문프래그먼트,"문화,예술 > 문화시설 > 미술관",37.515063348846,127.059044642695,서울 강남구 삼성동 77
유진전시공간,"문화,예술 > 문화시설 > 전시관",37.5146274136373,127.060527193292,서울 강남구 삼성동 107-11
에스이와이아트,"문화,예술 > 문화시설 > 전시관",37.51467874821645,127.06057134833335,서울 강남구 삼성동 107-11
코쿤디아트,"문화,예술 > 문화시설 > 전시관",37.51783015997,127.064537497872,서울 강남구 삼성동 99-2
제이엘아트,"문화,예술 > 문화시설 > 공연장,연극극장",37.5137324231265,127.061097677635,서울 강남구 삼성동 160
베어홀,"문화,예술 > 문화시설 > 공연장,연극극장",37.514958889241,127.06575889895,서울 강남구 삼성동 163-1
본다빈치,"문화,예술 > 문화시설 > 전시관",37.5166023290025,127.065742242659,서울 강남구 삼성동 100-6
송파문화원,"문화,예술 > 문화시설 > 문화원",37.50958450322949,127.07609076372572,서울 송파구 잠실동 84
오온,"문화,예술 > 문화시설 > 미술관",37.5097850510953,127.08072937688,서울 송파구 잠실동 193-4
서울올림픽전시관,"문화,예술 > 문화시설 > 전시관",37.5161969662046,127.07468694505,서울 송파구 잠실동 10
살아있는미술관,"문화,예술 > 문화시설 > 미술관",37.514669925744045,127.0729887473251,서울 송파구 잠실동 10
프로젝트스페이스공공,"문화,예술 > 문화시설 > 전시관",37.5114170101962,127.081690280322,서울 송파구 잠실동 181-3
롯데시네마 월드타워,"문화,예술 > 영화,영상 > 영화관 > 롯데시네마",37.51401684559573,127.10506857715367,서울 송파구 신천동 29
롯데월드아쿠아리움,"문화,예술 > 문화시설 > 아쿠아리움",37.51345035417074,127.1047985815314,서울 송파구 신천동 29
롯데월드 샤롯데씨어터,"문화,예술 > 문화시설 > 공연장,연극극장",37.51064272274346,127.09971395114384,서울 송파구 잠실동 40-1
롯데콘서트홀,"문화,예술 > 문화시설 > 공연장,연극극장",37.513989875871125,127.10500067293846,서울 송파구 신천동 29
롯데뮤지엄,"문화,예술 > 문화시설 > 미술관",37.5126405126229,127.102562422407,서울 송파구 신천동 29
송파책박물관,"문화,예술 > 문화시설 > 박물관",37.49888597821397,127.10438467827208,서울 송파구 가락동 479
뮤지엄209,"문화,예술 > 문화시설 > 전시관",37.51378608857594,127.10618804632004,서울 송파구 신천동 29-1
석촌호수 아뜰리에,"문화,예술 > 문화시설 > 공연장,연극극장",37.50678754705216,127.09837424534314,서울 송파구 잠실동 47
롯데월드 민속박물관,"문화,예술 > 문화시설 > 박물관",37.51100486250505,127.09763327920184,서울 송파구 잠실동 40-1
서울놀이마당,"문화,예술 > 문화시설 > 공연장,연극극장",37.5093789801021,127.098201204291,서울 송파구 잠실동 47
커넥트투,"문화,예술 > 문화시설 > 전시관",37.5142783353113,127.104844983731,서울 송파구 신천동 29
석촌호수수변무대,"문화,예술 > 문화시설 > 공연장,연극극장",37.5122283443667,127.105078511868,서울 송파구 신천동 32
한국광고박물관,"문화,예술 > 문화시설 > 박물관",37.5158830195319,127.09964400591,서울 송파구 신천동 7-11
송파구민회관 대강당,"문화,예술 > 문화시설 > 공연장,연극극장",37.5021894426285,127.09315689227,서울 송파구 삼전동 62-2
한생연 인간과로봇과학관,"문화,예술 > 문화시설 > 과학관",37.5119970742239,127.086993400935,서울 송파구 잠실동 22-6
송파구립 예송미술관,"문화,예술 > 문화시설 > 미술관",37.50214251186532,127.09325635563846,서울 송파구 삼전동 62-2
넥스트뮤지엄,"문화,예술 > 문화시설 > 전시관",37.5135727013004,127.103993409057,서울 송파구 신천동 29
송파청춘극장,"문화,예술 > 문화시설 > 공연장,연극극장",37.5019205653895,127.110333042753,서울 송파구 송파동 2-13
아트잠실,"문화,예술 > 문화시설 > 전시관",37.5077328487891,127.087902310368,서울 송파구 잠실동 242-11
에비뉴엘아트홀,"문화,예술 > 문화시설 > 전시관",37.512744895358736,127.10160854749697,서울 송파구 신천동 29
롯데갤러리 잠실 에비뉴엘점,"문화,예술 > 문화시설 > 미술관",37.5137111864197,127.104298998905,서울 송파구 신천동 29
프린트베이커리 롯데월드타워점,"문화,예술 > 문화시설 > 미술관",37.512762181921886,127.10148013741502,서울 송파구 신천동 29
롯데월드민속박물관 놀이마당,"문화,예술 > 문화시설 > 공연장,연극극장",37.5116677948309,127.097882978508,서울 송파구 잠실동 40-1
뮤지엄한미,"문화,예술 > 문화시설 > 미술관",37.5165926829624,127.113956209252,서울 송파구 방이동 45
롯데월드 가든스테이지,"문화,예술 > 문화시설 > 공연장,연극극장",37.5110945992661,127.098072248591,서울 송파구 잠실동 40-1
롯데에비뉴엘 잠실점 왕관스퀘어,"문화,예술 > 문화시설 > 전시관",37.5137525026039,127.104446099818,서울 송파구 신천동 29
언오피셜프리뷰,"문화,예술 > 문화시설 > 미술관",37.4991649193419,127.102752071311,서울 송파구 석촌동 253
파티하우스 루이,"문화,예술 > 문화시설 > 공연장,연극극장",37.5097112750279,127.105711760096,서울 송파구 송파동 32-1
아르스아트홀,"문화,예술 > 문화시설 > 공연장,연극극장",37.5061863892055,127.097513904788,서울 송파구 석촌동 1
임성기기념관,"문화,예술 > 문화시설 > 기념관",37.5165620707253,127.113933539793,서울 송파구 방이동 45
국가유산체험센터,"문화,예술 > 문화시설 > 전시관",37.5113098816994,127.098141525318,서울 송파구 잠실동 40-1
아트홀 갤러리,"문화,예술 > 문화시설 > 전시관",37.5132986659103,127.1020769515867,서울 송파구 신천동 29
WS뮤직홀,"문화,예술 > 문화시설 > 공연장,연극극장",37.5078195359356,127.087645671878,서울 송파구 잠실동 209-11
선경문화원,"문화,예술 > 문화시설 > 문화원",37.4999410757132,127.096960691299,서울 송파구 석촌동 217-3
나무와백년 송파점 전시장,"문화,예술 > 문화시설 > 전시관",37.5030981150434,127.113257130657,서울 송파구 송파동 103-30
블루퍼포먼스스튜디오,"문화,예술 > 문화시설 > 공연장,연극극장",37.5027534014562,127.111922104094,서울 송파구 송파동 94-9
세계기문화원,"문화,예술 > 문화시설 > 문화원",37.5047247621986,127.108093330962,서울 송파구 송파동 84-7
CGV씨네드쉐프 압구정,"문화,예술 > 영화,영상 > 영화관 > CGV",37.5243205724172,127.02927482937886,서울 강남구 신사동 602
CGV 압구정 본관,"문화,예술 > 영화,영상 > 영화관 > CGV",37.52453425704939,127.02867534167731,서울 강남구 신사동 603-2
CGV 압구정,"문화,예술 > 영화,영상 > 영화관 > CGV",37.5243493730171,127.029401542158,서울 강남구 신사동 602
광림아트센터 BBCH홀,"문화,예술 > 문화시설 > 공연장,연극극장",37.5240421373158,127.025498578086,서울 강남구 신사동 568-15
광림아트센터,"문화,예술 > 문화시설 > 공연장,연극극장",37.5239340598486,127.025299440008,서울 강남구 신사동 568-2
광림아트센터 장천홀,"문화,예술 > 문화시설 > 공연장,연극극장",37.5242509314199,127.026580135756,서울 강남구 신사동 570-8
신사하우스,"문화,예술 > 문화시설 > 전시관",37.5204048385658,127.020633162734,서울 강남구 신사동 522-23
거암아트홀,"문화,예술 > 문화시설 > 공연장,연극극장",37.5195094981008,127.019108071308,서울 강남구 신사동 504-11
국제아트홀,"문화,예술 > 문화시설 > 공연장,연극극장",37.5262184887339,127.027589946169,서울 강남구 신사동 579-3
아이러브아트홀,"문화,예술 > 문화시설 > 공연장,연극극장",37.52578187864645,127.02975280277788,서울 강남구 신사동 609-4
더쇼룸,"문화,예술 > 문화시설 > 전시관",37.5203508621629,127.024875160117,서울 강남구 신사동 560-20
오치균미술관,"문화,예술 > 문화시설 > 미술관",37.5227195143308,127.025271880154,서울 강남구 신사동 552-19
핫플레이스뮤지엄,"문화,예술 > 문화시설 > 전시관",37.5194833691454,127.024040053794,서울 강남구 신사동 540
루다갤러리,"문화,예술 > 문화시설 > 미술관",37.5206585861762,127.022470314259,서울 강남구 신사동 534-23
마크앤스페이스 신사점,"문화,예술 > 문화시설 > 전시관",37.5191424831615,127.020917873765,서울 강남구 신사동 517-37
브로드웨이 뮤지컬씨어터,"문화,예술 > 문화시설 > 공연장,연극극장",37.5188243093765,127.021582918919,서울 강남구 신사동 517-10
다도화랑,"문화,예술 > 문화시설 > 미술관",37.5229932380155,127.026104567442,서울 강남구 신사동 567-36
갤러리1707,"문화,예술 > 문화시설 > 미술관",37.524056047204226,127.0277441323283,서울 강남구 신사동 583-3
비키갤러리,"문화,예술 > 문화시설 > 미술관",37.5247388308783,127.019638839108,서울 강남구 압구정동 415
유림아트홀,"문화,예술 > 문화시설 > 공연장,연극극장",37.5232415412972,127.027742699465,서울 강남구 신사동 584-1
아카이브피,"문화,예술 > 문화시설 > 전시관",37.5193242469648,127.022225577567,서울 강남구 신사동 517-27
갤러리9.5서울,"문화,예술 > 문화시설 > 미술관",37.5188668357811,127.025225333541,서울 강남구 신사동 561-19
파프리카 쇼룸,"문화,예술 > 문화시설 > 전시관",37.5230174443056,127.022296810182,서울 강남구 신사동 532-11
8860 프로젝트,"문화,예술 > 문화시설 > 미술관",37.5193431680299,127.022225583179,서울 강남구 신사동 517-27
마이라이브홀,"문화,예술 > 문화시설 > 공연장,연극극장",37.52129158627,127.028520255074,서울 강남구 신사동 590
엘라홀,"문화,예술 > 문화시설 > 공연장,연극극장",37.526457804770274,127.02905166804152,서울 강남구 신사동 610-3
씨케이아트스페이스,"문화,예술 > 문화시설 > 미술관",37.5236808185759,127.029444267429,서울 강남구 신사동 600-13
아트강,"문화,예술 > 문화시설 > 전시관",37.5226965507019,127.023009395055,서울 강남구 신사동 547-10
꼴레아 아트홀,"문화,예술 > 문화시설 > 공연장,연극극장",37.5220969720944,127.02034403392,서울 강남구 신사동 525-2
예술만세,"문화,예술 > 문화시설 > 미술관",37.5207021201888,127.020913784321,서울 강남구 신사동 523-16
퍼니처 아트 갤러리,"문화,예술 > 문화시설 > 전시관",37.5221295239058,127.019660779764,서울 강남구 신사동 527-2
킵스 갤러리서울포토그래피,"문화,예술 > 문화시설 > 전시관",37.5255872576367,127.029770826002,서울 강남구 신사동 609-3
칼리파갤러리&아트매니지먼트,"문화,예술 > 문화시설 > 전시관",37.52429483689302,127.02347822871484,서울 강남구 신사동 549-1
개오망크리에이티브스튜디오,"문화,예술 > 문화시설 > 전시관",37.5209464961284,127.019727210867,서울 강남구 신사동 526-10
코너아트스페이스,"문화,예술 > 문화시설 > 전시관",37.5266220428504,127.027992836861,서울 강남구 신사동 580-6
아트스페이스남케이,"문화,예술 > 문화시설 > 전시관",37.5189541413105,127.021098810339,서울 강남구 신사동 517-5
리브라이브,"문화,예술 > 문화시설 > 공연장,연극극장",37.5221329445315,127.020733186868,서울 강남구 신사동 525-16
블루스퀘어 신한카드홀,"문화,예술 > 문화시설 > 공연장,연극극장",37.54070618075781,127.00231959701894,서울 용산구 한남동 727-56
블루스퀘어,"문화,예술 > 문화시설 > 공연장,연극극장",37.5408611480276,127.002548167462,서울 용산구 한남동 727-56
블루스퀘어 마스터카드홀,"문화,예술 > 문화시설 > 공연장,연극극장",37.54086835751958,127.0024780138899,서울 용산구 한남동 727-56
일신홀,"문화,예술 > 문화시설 > 공연장,연극극장",37.5372246144272,127.005421947369,서울 용산구 한남동 714
타데우스 로팍 서울,"문화,예술 > 문화시설 > 미술관",37.5368465199743,127.012855562366,서울 용산구 한남동 1-90
더줌아트센터,"문화,예술 > 문화시설 > 공연장,연극극장",37.53582887875918,127.00704772134657,서울 용산구 한남동 810
갤러리비선재,"문화,예술 > 문화시설 > 미술관",37.5357246107659,127.014278715585,서울 용산구 한남동 11-432
한익환 서울아트박물관,"문화,예술 > 문화시설 > 박물관",37.53805715686027,127.00501241525198,서울 용산구 한남동 722-9
갤러리그라프,"문화,예술 > 문화시설 > 미술관",37.5372322226777,127.012151861554,서울 용산구 한남동 4-18
가나아트 나인원,"문화,예술 > 문화시설 > 미술관",37.5362785940696,127.004719252252,서울 용산구 한남동 699-17
주한인도문화원 서울,"문화,예술 > 문화시설 > 문화원",37.53549785791737,127.01154060682396,서울 용산구 한남동 1-398
아마도예술공간,"문화,예술 > 문화시설 > 미술관",37.53783199857728,127.00185560638796,서울 용산구 한남동 683-31
이태리대사관문화원,"문화,예술 > 문화시설 > 문화원",37.5355194819336,127.011540610156,서울 용산구 한남동 1-398
브라운즈,"문화,예술 > 문화시설 > 전시관",37.53751200014394,127.00610650297308,서울 용산구 한남동 723-30
갤러리아미디 한남,"문화,예술 > 문화시설 > 전시관",37.5376968227057,127.003088900179,서울 용산구 한남동 729-19
필갤러리,"문화,예술 > 문화시설 > 미술관",37.5335626666766,127.009784371472,서울 용산구 한남동 271-5
프린트베이커리,"문화,예술 > 문화시설 > 미술관",37.53620385322925,127.00350747240016,서울 용산구 한남동 829
백룸,"문화,예술 > 문화시설 > 미술관",37.5368239957014,127.012848769787,서울 용산구 한남동 1-90
아트스페이스 이플,"문화,예술 > 문화시설 > 미술관",37.5305454584723,127.006155714696,서울 용산구 한남동 587-1
워킹하우스뉴욕 한남점,"문화,예술 > 문화시설 > 전시관",37.5352205625411,127.009105731361,서울 용산구 한남동 68-4
지익스비션,"문화,예술 > 문화시설 > 미술관",37.5351917439951,127.00892922518,서울 용산구 한남동 68-18
블루스퀘어 카오스홀,"문화,예술 > 문화시설 > 공연장,연극극장",37.5408683573769,127.002484802969,서울 용산구 한남동 727-56
갤러리반크,"문화,예술 > 문화시설 > 미술관",37.531212939304,127.008716053778,서울 용산구 한남동 155-3
클럼지페어,"문화,예술 > 문화시설 > 미술관",37.5366906696133,127.012645085901,서울 용산구 한남동 5-7
미래세움 프로젝트관리팀,"문화,예술 > 문화시설 > 전시관",37.5382590695044,127.002050230458,서울 용산구 한남동 682-3
WTFM,"문화,예술 > 문화시설 > 전시관",37.5368348116409,127.012812565171,서울 용산구 한남동 1-90
서숲,"문화,예술 > 문화시설 > 전시관",37.540462196552,127.013193372219,서울 성동구 옥수동 218-7
인터뷰갤러리,"문화,예술 > 문화시설 > 전시관",37.5409413377918,127.002511961734,서울 용산구 한남동 727-56
현대모터스튜디오 서울,"문화,예술 > 문화시설 > 전시관",37.5212611978171,127.034366372898,서울 강남구 논현동 91
SJ쿤스트할레,"문화,예술 > 문화시설 > 공연장,연극극장",37.5204429440981,127.034854678006,서울 강남구 논현동 97-22
호림아트센터,"문화,예술 > 문화시설 > 박물관",37.5226590534459,127.036045771369,서울 강남구 신사동 651-23
화이트큐브 서울,"문화,예술 > 문화시설 > 미술관",37.5226518260753,127.036109117218,서울 강남구 신사동 651-24
도산공원 도산안창호기념관,"문화,예술 > 문화시설 > 기념관",37.5239206199026,127.035507899928,서울 강남구 신사동 649-9
호림박물관 신사분관,"문화,예술 > 문화시설 > 박물관",37.5225509345279,127.036041194408,서울 강남구 신사동 651-23
페로탕,"문화,예술 > 문화시설 > 미술관",37.523030343521,127.035792551411,서울 강남구 신사동 651
스페이스씨,"문화,예술 > 문화시설 > 미술관",37.524130447526,127.032756774322,서울 강남구 신사동 627-10
오페라갤러리,"문화,예술 > 문화시설 > 미술관",37.523336973829,127.034824349337,서울 강남구 신사동 631-33
아뜰리에에르메스,"문화,예술 > 문화시설 > 전시관",37.5227673802957,127.035362554697,서울 강남구 신사동 630-26
청호불교문화원,"문화,예술 > 문화시설 > 문화원",37.520630844258,127.03621560798337,서울 강남구 논현동 98-12
갤러리PAL,"문화,예술 > 문화시설 > 전시관",37.5234302027148,127.029989431312,서울 강남구 신사동 600-8
디아드 아스턴 갤러리,"문화,예술 > 문화시설 > 미술관",37.5231308156031,127.034238268498,서울 강남구 신사동 631-13
아트스페이스엣,"문화,예술 > 문화시설 > 미술관",37.5230925914004,127.032398847257,서울 강남구 신사동 627-27
주주클럽,"문화,예술 > 문화시설 > 공연장,연극극장",37.5197549049976,127.033727688501,서울 강남구 논현동 70-1
에이프로젝트컴퍼니,"문화,예술 > 문화시설 > 미술관",37.5199837417853,127.030478991708,서울 강남구 논현동 60-8
코리아나,"문화,예술 > 문화시설 > 박물관",37.52407006529969,127.03281104837288,서울 강남구 신사동 627-8
아시아고아트홀,"문화,예술 > 문화시설 > 공연장,연극극장",37.5221800713162,127.031677858611,서울 강남구 신사동 628-2
JB아츠앤컴퍼니,"문화,예술 > 문화시설 > 공연장,연극극장",37.5191646372724,127.030836113106,서울 강남구 논현동 65-23
CGV 청담씨네시티,"문화,예술 > 영화,영상 > 영화관 > CGV",37.5229506730658,127.037032355109,서울 강남구 신사동 651-21
K현대미술관,"문화,예술 > 문화시설 > 미술관",37.524349883168405,127.03913323759338,서울 강남구 신사동 666-7
일지아트홀,"문화,예술 > 문화시설 > 공연장,연극극장",37.5239877604781,127.039702636914,서울 강남구 청담동 86-7
광야아트센터,"문화,예술 > 문화시설 > 공연장,연극극장",37.5238904719953,127.039643760012,서울 강남구 청담동 86
조은숙아트앤라이프스타일,"문화,예술 > 문화시설 > 미술관",37.5243864465119,127.043558196382,서울 강남구 청담동 92-18
아르떼22,"문화,예술 > 문화시설 > 미술관",37.5221205088114,127.040801202946,서울 강남구 청담동 22-22
두아르트스퀘이라 서울,"문화,예술 > 문화시설 > 전시관",37.5209137422836,127.039094678551,서울 강남구 논현동 101-2
앤드트리 NFT갤러리,"문화,예술 > 문화시설 > 전시관",37.524366044386,127.037361121222,서울 강남구 신사동 653-20
우림청담시어터,"문화,예술 > 문화시설 > 공연장,연극극장",37.5238760483626,127.039666377509,서울 강남구 청담동 86
서울아트갤러리,"문화,예술 > 문화시설 > 미술관",37.5243561533848,127.037297765522,서울 강남구 신사동 653-20
아트몬,"문화,예술 > 문화시설 > 전시관",37.5222566463879,127.04309541554,서울 강남구 청담동 19-4
엠큐브,"문화,예술 > 문화시설 > 공연장,연극극장",37.5228966072433,127.037050428253,서울 강남구 신사동 651-21
광대무변,"문화,예술 > 문화시설 > 공연장,연극극장",37.5222428863885,127.041258287226,서울 강남구 청담동 22-13
갤러리드채,"문화,예술 > 문화시설 > 미술관",37.5218856936828,127.042375742202,서울 강남구 청담동 20-8
청담홀,"문화,예술 > 문화시설 > 공연장,연극극장",37.5238652530422,127.039616596517,서울 강남구 청담동 86
윤당아트홀,"문화,예술 > 문화시설 > 공연장,연극극장",37.52569972138983,127.0337235770035,서울 강남구 신사동 634-10
갤러리 빈칸 압구정,"문화,예술 > 문화시설 > 전시관",37.5257812531913,127.032139814381,서울 강남구 신사동 624-12
세실아트홀,"문화,예술 > 문화시설 > 공연장,연극극장",37.5281455599253,127.031853473236,서울 강남구 신사동 616-7
갤러리언플러그드,"문화,예술 > 문화시설 > 미술관",37.52810043858087,127.03527456649503,서울 강남구 신사동 637-11
디에이치라운지,"문화,예술 > 문화시설 > 미술관",37.5284895475684,127.035686552435,서울 강남구 신사동 639-13
윤당아트홀 1관,"문화,예술 > 문화시설 > 공연장,연극극장",37.5256546693493,127.033730344423,서울 강남구 신사동 634-10
J-BOX,"문화,예술 > 문화시설 > 전시관",37.5253761553241,127.030814912743,서울 강남구 신사동 606-15
CHRISS&CO 갤러리,"문화,예술 > 문화시설 > 미술관",37.525475779562,127.032264124198,서울 강남구 신사동 624-17
도산공갤러리,"문화,예술 > 문화시설 > 전시관",37.5259102893279,127.034644539553,서울 강남구 신사동 645-26
경애갤러리,"문화,예술 > 문화시설 > 미술관",37.5256546712877,127.033723556724,서울 강남구 신사동 634-10
윤당아트홀 2관,"문화,예술 > 문화시설 > 공연장,연극극장",37.5256546693493,127.033730344423,서울 강남구 신사동 634-10
인데코,"문화,예술 > 문화시설 > 미술관",37.5279618935909,127.031337514053,서울 강남구 신사동 615-4
압구정예홀,"문화,예술 > 문화시설 > 공연장,연극극장",37.5278595765337,127.036247385359,서울 강남구 신사동 640-2
오즈갤러리,"문화,예술 > 문화시설 > 전시관",37.52565466934934,127.03373034442323,서울 강남구 신사동 634-10
S갤러리,"문화,예술 > 문화시설 > 미술관",37.5268474172491,127.03435083459,서울 강남구 신사동 635-9
희갤러리,"문화,예술 > 문화시설 > 미술관",37.5279602939927,127.036876446973,서울 강남구 신사동 660-18
피규어뮤지엄W,"문화,예술 > 문화시설 > 전시관",37.5257859289937,127.040386886164,서울 강남구 청담동 84-9
후지필름 파티클,"문화,예술 > 문화시설 > 전시관",37.5267156931297,127.040591021285,서울 강남구 청담동 84-2
쾨닉 서울,"문화,예술 > 문화시설 > 전시관",37.5271197890209,127.041891110167,서울 강남구 청담동 78-12
엔버갤러리,"문화,예술 > 문화시설 > 미술관",37.5275075687398,127.04341972854,서울 강남구 압구정동 524
포브갤러리,"문화,예술 > 문화시설 > 전시관",37.5259046507698,127.040997845184,서울 강남구 청담동 83-8
아트지트 코미디 클럽,"문화,예술 > 문화시설 > 공연장,연극극장",37.5256983352663,127.03827133794,서울 강남구 신사동 657-32
시바스리갈길,"문화,예술 > 문화시설 > 전시관",37.527303956477,127.038161290007,서울 강남구 신사동 662-2
313 아트 프로젝트 청담 스페이스,"문화,예술 > 문화시설 > 전시관",37.52654393165594,127.04221999549593,서울 강남구 청담동 82
갤러리뤼미에르,"문화,예술 > 문화시설 > 미술관",37.5254217623252,127.040857302233,서울 강남구 청담동 88
송은,"문화,예술 > 문화시설 > 미술관",37.5241555816904,127.04411916743958,서울 강남구 청담동 92-9
에스파스루이비통 서울,"문화,예술 > 문화시설 > 미술관",37.5256144002178,127.046224212305,서울 강남구 청담동 99-18
예인아트홀,"문화,예술 > 문화시설 > 공연장,연극극장",37.5270380007738,127.046179838546,서울 강남구 청담동 100-7
갤러리508,"문화,예술 > 문화시설 > 미술관",37.5249842824061,127.044707917497,서울 강남구 청담동 95-3
지웅파인아트갤러리,"문화,예술 > 문화시설 > 미술관",37.525444315315,127.047970803825,서울 강남구 청담동 117-13
호텔리베라 베르사이유홀,"문화,예술 > 문화시설 > 공연장,연극극장",37.523781975489065,127.05419842932704,서울 강남구 청담동 53-7
유아트스페이스,"문화,예술 > 문화시설 > 전시관",37.5273985371745,127.045831617441,서울 강남구 청담동 101-6
메타갤러리라루나,"문화,예술 > 문화시설 > 전시관",37.5273177108474,127.049637289383,서울 강남구 청담동 112-27
G갤러리,"문화,예술 > 문화시설 > 미술관",37.5219624587482,127.048905230896,서울 강남구 청담동 62-35
이유진갤러리,"문화,예술 > 문화시설 > 미술관",37.5262913743357,127.047681735248,서울 강남구 청담동 116-7
생각하는박물관 청담동교육실,"문화,예술 > 문화시설 > 박물관",37.5208074130572,127.04657757787534,서울 강남구 청담동 15-5
플래티넘갤러리,"문화,예술 > 문화시설 > 미술관",37.5215130505751,127.048438874626,서울 강남구 청담동 9-8
갤러리차만,"문화,예술 > 문화시설 > 미술관",37.5197831545718,127.050519154418,서울 강남구 청담동 76-12
갤러리 오 스퀘어,"문화,예술 > 문화시설 > 미술관",37.5252824304419,127.047237632253,서울 강남구 청담동 118-17
넥스트 스테이지,"문화,예술 > 문화시설 > 공연장,연극극장",37.5261023464972,127.05153705132,서울 강남구 청담동 126-1
아줄레주갤러리,"문화,예술 > 문화시설 > 미술관",37.52347883391695,127.04670933238836,서울 강남구 청담동 6-2
갤러리피치,"문화,예술 > 문화시설 > 미술관",37.5263552192708,127.050161571982,서울 강남구 청담동 122-22
갤러리B,"문화,예술 > 문화시설 > 전시관",37.5216599566193,127.048334897087,서울 강남구 청담동 9-7
셀로아트,"문화,예술 > 문화시설 > 미술관",37.5252842319934,127.047238764666,서울 강남구 청담동 118-17
갤러리엠,"문화,예술 > 문화시설 > 미술관",37.5275174430298,127.045899568873,서울 강남구 청담동 101-5
레스빠스71,"문화,예술 > 문화시설 > 미술관",37.5270887394978,127.045451309448,서울 강남구 청담동 141-11
갤러리아미,"문화,예술 > 문화시설 > 미술관",37.5264865930165,127.046165923085,서울 강남구 청담동 100-17
스페이스옵트,"문화,예술 > 문화시설 > 전시관",37.522273429191,127.046362423858,서울 강남구 청담동 11-10
피카프로젝트 청담본점,"문화,예술 > 문화시설 > 전시관",37.5262747082174,127.052962598583,서울 강남구 청담동 128-6
아이프미술경영연구소,"문화,예술 > 문화시설 > 미술관",37.52480412134882,127.04460373310516,서울 강남구 청담동 95-4
유나화랑,"문화,예술 > 문화시설 > 미술관",37.5269225233135,127.046559884973,서울 강남구 청담동 100-14
살롱드H,"문화,예술 > 문화시설 > 전시관",37.521277872206,127.048479446408,서울 강남구 청담동 31-2
스페이스칸,"문화,예술 > 문화시설 > 전시관",37.5252536001892,127.047233088965,서울 강남구 청담동 118-17
갤러리미,"문화,예술 > 문화시설 > 미술관",37.5251022409047,127.04721036804,서울 강남구 청담동 118-17
피아노가있는갤러리하루,"문화,예술 > 문화시설 > 전시관",37.5225413069172,127.050090013075,서울 강남구 청담동 60
닥터비건&J갤러리,"문화,예술 > 문화시설 > 전시관",37.5219569729405,127.044552264133,서울 강남구 청담동 17-7
아트뱅크갤러리,"문화,예술 > 문화시설 > 미술관",37.5247952169492,127.044323172769,서울 강남구 청담동 93-14
알디스페이스아트홀,"문화,예술 > 문화시설 > 공연장,연극극장",37.5250828154887,127.050604179678,서울 강남구 청담동 125-20
더펀팩토리,"문화,예술 > 문화시설 > 공연장,연극극장",37.52702679497303,127.0493802906176,서울 강남구 청담동 112-18
한국부탄우호협회 부탄문화원,"문화,예술 > 문화시설 > 문화원",37.5217758549532,127.055253542004,서울 강남구 청담동 71-20
디엔에이갤러리,"문화,예술 > 문화시설 > 미술관",37.5245047373075,127.045264214158,서울 강남구 청담동 97-18
톤코하우스,"문화,예술 > 문화시설 > 전시관",37.526389693988,127.045106971836,서울 강남구 청담동 80-18
자넷오갤러리,"문화,예술 > 문화시설 > 미술관",37.5248669323333,127.045284795873,서울 강남구 청담동 96-15
아트불,"문화,예술 > 문화시설 > 미술관",37.5199058965576,127.050036216283,서울 강남구 청담동 76
갤러리 지오,"문화,예술 > 문화시설 > 미술관",37.5252716166085,127.047242150544,서울 강남구 청담동 118-17
수도박물관,"문화,예술 > 문화시설 > 박물관",37.53846936947843,127.04281056048198,서울 성동구 성수동1가 642-1
뚝도아리수정수센터 수도박물관,"문화,예술 > 문화시설 > 박물관",37.5384837789139,127.042828672353,서울 성동구 성수동1가 642-1
갤러리구조,"문화,예술 > 문화시설 > 미술관",37.5383632299041,127.057273016109,서울 성동구 성수동2가 331-10
갤러리 루안앤코,"문화,예술 > 문화시설 > 미술관",37.5380170137436,127.049837862094,서울 성동구 성수동1가 241
맷멀,"문화,예술 > 문화시설 > 전시관",37.5405655583891,127.054774066911,서울 성동구 성수동2가 309-128
미러드 스피어 갤러리,"문화,예술 > 문화시설 > 미술관",37.5387149091388,127.046345446134,서울 성동구 성수동1가 123
아트웨이브,"문화,예술 > 문화시설 > 미술관",37.5383821498025,127.057275293531,서울 성동구 성수동2가 328-73
성북동비둘기,"문화,예술 > 문화시설 > 공연장,연극극장",37.5395978177937,127.046527031621,서울 성동구 성수동1가 656-376
동국대학교 서울캠퍼스 이해랑예술극장,"문화,예술 > 문화시설 > 공연장,연극극장",37.5583152728918,127.003309315842,서울 중구 장충동2가 192-5
신세계 남산 트리니티홀,"문화,예술 > 문화시설 > 공연장,연극극장",37.5604739398753,127.006304179557,서울 중구 장충동1가 56-85
종이나라박물관,"문화,예술 > 문화시설 > 박물관",37.5596558395786,127.006211303255,서울 중구 장충동1가 62-35
열린금호교육문화관,"문화,예술 > 문화시설 > 문화원",37.552512153439906,127.0196913920468,서울 성동구 금호동2가 511
월드케이팝센터 글래스홀,"문화,예술 > 문화시설 > 공연장,연극극장",37.5516352954642,127.002512320599,서울 중구 장충동2가 201-6
갤러리아람,"문화,예술 > 문화시설 > 미술관",37.5626364783682,127.002275003082,서울 중구 장충동2가 173-1
동국대학교 이해랑문화예술극장,"문화,예술 > 문화시설 > 공연장,연극극장",37.558289144415845,127.00329346981476,서울 중구 필동3가 26-1
뮤지컬하우스호연재,"문화,예술 > 문화시설 > 공연장,연극극장",37.5525594422156,127.008474094105,서울 중구 신당동 353-8
대학문화원,"문화,예술 > 문화시설 > 문화원",37.5607552018563,127.0020236832,서울 중구 묵정동 18-27
유머감각,"문화,예술 > 문화시설 > 미술관",37.5546264988708,127.005681240301,서울 중구 신당동 826-32
문화교회 30주년기념관,"문화,예술 > 문화시설 > 기념관",37.562094466576,127.018412677545,서울 중구 신당동 49-3
장충단기억의공간,"문화,예술 > 문화시설 > 전시관",37.5583080449943,127.003956691883,서울 중구 장충동2가 197
복장문화회관,"문화,예술 > 문화시설 > 공연장,연극극장",37.5546136286114,127.009633208982,서울 중구 신당동 361-13
앰배서더박물관 의종관,"문화,예술 > 문화시설 > 박물관",37.5595803064798,127.001733911623,서울 중구 장충동2가 193-68
파라다이스집,"문화,예술 > 문화시설 > 전시관",37.5595009692068,127.003834521115,서울 중구 장충동2가 193-5
웩사,"문화,예술 > 문화시설 > 전시관",37.5575633176623,127.011600597285,서울 중구 신당동 379-8
더서울라이티움,"문화,예술 > 문화시설 > 전시관",37.5455853989664,127.042991156674,서울 성동구 성수동1가 685-696
서울숲씨어터,"문화,예술 > 문화시설 > 공연장,연극극장",37.5456773288432,127.042914261633,서울 성동구 성수동1가 685-696
더페이지갤러리,"문화,예술 > 문화시설 > 미술관",37.5456755268454,127.04291426060006,서울 성동구 성수동1가 685-696
FB씨어터,"문화,예술 > 문화시설 > 공연장,연극극장",37.54752015302431,127.0395272667899,서울 성동구 성수동1가 685-489
본다빈치뮤지엄 서울숲,"문화,예술 > 문화시설 > 미술관",37.5458126553217,127.042425493263,서울 성동구 성수동1가 685-696
서울숲 야외무대,"문화,예술 > 문화시설 > 공연장,연극극장",37.5437048149209,127.041016643131,서울 성동구 성수동1가 685-20
서울숲아트센터,"문화,예술 > 문화시설 > 전시관",37.5456755268454,127.0429142606,서울 성동구 성수동1가 685-696
언더스탠드에비뉴 아트스탠드,"문화,예술 > 문화시설 > 전시관",37.5436247192191,127.043279708789,서울 성동구 성수동1가 685-704
MMM,"문화,예술 > 문화시설 > 전시관",37.5458126520689,127.042434545963,서울 성동구 성수동1가 685-696
소여름 전시회,"문화,예술 > 문화시설 > 전시관",37.5476722971703,127.042480864771,서울 성동구 성수동1가 668-12
뮤트뮤즈 팝업전시장,"문화,예술 > 문화시설 > 전시관",37.5475168727071,127.043721025071,서울 성동구 성수동1가 668-9
핀프레임,"문화,예술 > 문화시설 > 전시관",37.5470886442171,127.041937362133,서울 성동구 성수동1가 685-271
메가박스 성수,"문화,예술 > 영화,영상 > 영화관 > 메가박스",37.541886987541496,127.04489905308826,서울 성동구 성수동1가 656-335
뚝섬미술관,"문화,예술 > 문화시설 > 미술관",37.54718530515838,127.04834345244046,서울 성동구 성수동1가 656-281
디뮤지엄 (휴업중),"문화,예술 > 문화시설 > 미술관",37.54373339300729,127.0442167003155,서울 성동구 성수동1가 685-700
성수아트홀,"문화,예술 > 문화시설 > 공연장,연극극장",37.54552807047959,127.0468464288292,서울 성동구 성수동1가 656-323
에이피어게인,"문화,예술 > 문화시설 > 전시관",37.54252639569,127.050127142775,서울 성동구 성수동1가 27-3
성수미술관,"문화,예술 > 문화시설 > 미술관",37.5457679188565,127.054795978487,서울 성동구 성수동2가 289-14
헬로우뮤지움,"문화,예술 > 문화시설 > 미술관",37.54811120697004,127.05328584607926,서울 성동구 성수동2가 284-22
헤르만아트홀,"문화,예술 > 문화시설 > 공연장,연극극장",37.5478711531354,127.05005490319,서울 성동구 성수동1가 13-163
우란문화재단,"문화,예술 > 문화시설 > 공연장,연극극장",37.54376433464276,127.05428078521324,서울 성동구 성수동2가 314-12
무비랜드,"문화,예술 > 영화,영상 > 영화관",37.5441652404873,127.050299106053,서울 성동구 성수동2가 301-63
코사이어티 서울숲점,"문화,예술 > 문화시설 > 전시관",37.5448014432946,127.04562274422368,서울 성동구 성수동1가 658-5
진로골드 판타지아,"문화,예술 > 문화시설 > 전시관",37.542681712879,127.055403619982,서울 성동구 성수동2가 315-57
헬로우 아일랜드,"문화,예술 > 문화시설 > 전시관",37.542532246872,127.053227561409,서울 성동구 성수동2가 333-94
메타그라운드 성수점,"문화,예술 > 문화시설 > 전시관",37.5418869832387,127.044910368371,서울 성동구 성수동1가 656-335
갤러리까르찌나,"문화,예술 > 문화시설 > 미술관",37.54272908778193,127.05620365464854,서울 성동구 성수동2가 315-9
뮤직스페이스 성수점,"문화,예술 > 문화시설 > 공연장,연극극장",37.5429364411675,127.055943555116,서울 성동구 성수동2가 315-18
아트스페이스 폴라포,"문화,예술 > 문화시설 > 전시관",37.5419057087367,127.05398410872,서울 성동구 성수동2가 321-15
누하스아뜰리에,"문화,예술 > 문화시설 > 전시관",37.5446477882471,127.049079597582,서울 성동구 성수동1가 22-35
플리,"문화,예술 > 문화시설 > 전시관",37.546486931041,127.050729541622,서울 성동구 성수동2가 300-20
앵포르멜,"문화,예술 > 문화시설 > 전시관",37.5431272757837,127.052401954978,서울 성동구 성수동2가 310-52
우란2경,"문화,예술 > 문화시설 > 공연장,연극극장",37.5437894990766,127.054418853437,서울 성동구 성수동2가 314-12
바운더리성수,"문화,예술 > 문화시설 > 전시관",37.5436618923614,127.051666818232,서울 성동구 성수동2가 302-37
성수수제화 홍보관,"문화,예술 > 문화시설 > 전시관",37.54607756083138,127.05146140410945,서울 성동구 성수동2가 289-30
지오피,"문화,예술 > 문화시설 > 전시관",37.5454146480342,127.046584962456,서울 성동구 성수동1가 656-600
아뜰리에 키뮤,"문화,예술 > 문화시설 > 전시관",37.5456612826909,127.04718711943448,서울 성동구 성수동1가 10-1
와디즈 X 꼴렉뜨 핑크,"문화,예술 > 문화시설 > 전시관",37.5449345969837,127.050525937865,서울 성동구 성수동2가 301-27
샵언타이틀드,"문화,예술 > 문화시설 > 전시관",37.5444846834319,127.049137200609,서울 성동구 성수동1가 22-25
공간칠일,"문화,예술 > 문화시설 > 전시관",37.5492235194976,127.056138369056,서울 성동구 성수동2가 289-1
CGV 왕십리,"문화,예술 > 영화,영상 > 영화관 > CGV",37.561783464237266,127.0379502399087,서울 성동구 행당동 168-151
소월아트홀,"문화,예술 > 문화시설 > 공연장,연극극장",37.5593657621977,127.036122300081,서울 성동구 행당동 142-16
성동문화원,"문화,예술 > 문화시설 > 문화원",37.5592648920214,127.035986436433,서울 성동구 행당동 142-16
왕십리갤러리허브,"문화,예술 > 문화시설 > 전시관",37.56215098829,127.038206221022,서울 성동구 행당동 168-151
성동문화회관,"문화,예술 > 문화시설 > 공연장,연극극장",37.55930633304733,127.03600230144994,서울 성동구 행당동 142-16
엔터식스 한양대점 메두사홀,"문화,예술 > 문화시설 > 공연장,연극극장",37.5570759698665,127.04002802388,서울 성동구 행당동 155-1
소월아트심포니오케스트라,"문화,예술 > 문화시설 > 공연장,연극극장",37.5593081246828,127.03603625607,서울 성동구 행당동 142-16
개그전용관 엔터식스한양대점,"문화,예술 > 문화시설 > 공연장,연극극장",37.5572020787401,127.040118632141,서울 성동구 행당동 155-4
서울하수도과학관,"문화,예술 > 문화시설 > 과학관",37.5576983370413,127.05793744610224,서울 성동구 용답동 250-7
한양대학교 박물관,"문화,예술 > 문화시설 > 박물관",37.5551677747939,127.04472141627,서울 성동구 행당동 17-7
한양대학교 노천극장,"문화,예술 > 문화시설 > 공연장,연극극장",37.5555459918939,127.045251294267,서울 성동구 행당동 17-7
한양대학교 역사관,"문화,예술 > 문화시설 > 박물관",37.5560110928729,127.044762662952,서울 성동구 행당동 17-7
국악음반박물관,"문화,예술 > 문화시설 > 박물관",37.56299788911922,127.05238983709812,서울 성동구 용답동 47-9
한양대학교 리사이틀홀,"문화,예술 > 문화시설 > 공연장,연극극장",37.5567435443712,127.04722805933,서울 성동구 사근동 110
CGV 건대입구,"문화,예술 > 영화,영상 > 영화관 > CGV",37.53969788896453,127.06701734324294,서울 광진구 자양동 9-4
롯데시네마 건대입구,"문화,예술 > 영화,영상 > 영화관 > 롯데시네마",37.53860688301305,127.07292268612836,서울 광진구 자양동 227-7
나루아트센터,"문화,예술 > 문화시설 > 공연장,연극극장",37.5377911879621,127.070431534099,서울 광진구 자양동 227-344
CXC아트뮤지엄,"문화,예술 > 문화시설 > 전시관",37.5386187884358,127.072610409529,서울 광진구 자양동 227-7
아파트먼트풀,"문화,예술 > 문화시설 > 전시관",37.5407446775566,127.060671634178,서울 성동구 성수동2가 272-41
나루아트센터 대공연장,"문화,예술 > 문화시설 > 공연장,연극극장",37.5375856708648,127.070580693965,서울 광진구 자양동 227-344
블라인드아트홀소극장,"문화,예술 > 문화시설 > 공연장,연극극장",37.53766983815087,127.0798927269984,서울 광진구 자양동 774-23
청춘뜨락야외공연장,"문화,예술 > 문화시설 > 공연장,연극극장",37.5403681192609,127.070311755401,서울 광진구 화양동 6-11
마크곤잘레스 성수,"문화,예술 > 문화시설 > 전시관",37.540943483048,127.059521045365,서울 성동구 성수동2가 272-42
나루아트센터 소공연장,"문화,예술 > 문화시설 > 공연장,연극극장",37.5377406103373,127.070635150355,서울 광진구 자양동 227-344
성수소극장,"문화,예술 > 문화시설 > 공연장,연극극장",37.5366660895235,127.058409956355,서울 성동구 성수동2가 225-10
뚝섬물보라극장,"문화,예술 > 문화시설 > 공연장,연극극장",37.52818880061149,127.06962152916256,서울 광진구 자양동 427-6
인디스타,"문화,예술 > 문화시설 > 공연장,연극극장",37.5382257615007,127.066829332656,서울 광진구 자양동 848-4
자양스테이션,"문화,예술 > 문화시설 > 공연장,연극극장",37.5346222942102,127.083028030817,서울 광진구 자양동 630-41
건국대학교 노천극장,"문화,예술 > 문화시설 > 공연장,연극극장",37.5413581246499,127.077803349775,서울 광진구 화양동 393-1
충동소극장,"문화,예술 > 문화시설 > 공연장,연극극장",37.5322589149817,127.070648082482,서울 광진구 자양동 497-4
캔디성수,"문화,예술 > 문화시설 > 공연장,연극극장",37.5367021996139,127.06006642744,서울 성동구 성수동2가 233-3
씨앗갤러리,"문화,예술 > 문화시설 > 전시관",37.5383621828328,127.06931304227976,서울 광진구 자양동 2-3
한강이야기전시관,"문화,예술 > 문화시설 > 전시관",37.5300069206049,127.065058226228,서울 광진구 자양동 97-5
CGV 강변,"문화,예술 > 영화,영상 > 영화관 > CGV",37.5354056214823,127.095655661312,서울 광진구 구의동 546-4
동서울아트홀,"문화,예술 > 문화시설 > 공연장,연극극장",37.534168835895,127.091888743924,서울 광진구 구의동 595
광진문화원,"문화,예술 > 문화시설 > 문화원",37.5365293875214,127.09649436766,서울 광진구 구의동 631-2
꼭두일러스트갤러리 그림샘,"문화,예술 > 문화시설 > 미술관",37.5314357270128,127.088844267416,서울 광진구 자양동 688-5
아티스트그룹,"문화,예술 > 문화시설 > 공연장,연극극장",37.5341652318961,127.091888739503,서울 광진구 구의동 595
메가박스 군자,"문화,예술 > 영화,영상 > 영화관 > 메가박스",37.55566202563303,127.07833429050628,서울 광진구 군자동 477-12
그라운드시소 성수,"문화,예술 > 문화시설 > 전시관",37.54676810321139,127.06527987338404,서울 성동구 성수동2가 280-9
건국대학교 새천년관대공연장,"문화,예술 > 문화시설 > 공연장,연극극장",37.54319462054277,127.07740921638926,서울 광진구 화양동 1
서울상상나라,"문화,예술 > 문화시설 > 박물관",37.5508665042994,127.077592558039,서울 광진구 능동 18
KU시네마테크,"문화,예술 > 영화,영상 > 영화관",37.5427053469115,127.07321974685,서울 광진구 화양동 1
본다빈치뮤지엄 능동점,"문화,예술 > 문화시설 > 전시관",37.54802657871,127.076176219401,서울 광진구 능동 18-11
우인아트홀,"문화,예술 > 문화시설 > 공연장,연극극장",37.562846291601,127.076010210871,서울 광진구 중곡동 252-34
서울상상나라 극장,"문화,예술 > 문화시설 > 공연장,연극극장",37.5507683230768,127.077550584743,서울 광진구 능동 18
건국대학교 박물관,"문화,예술 > 문화시설 > 박물관",37.5424011140047,127.075595675151,서울 광진구 화양동 393-1
설렘아트홀,"문화,예술 > 문화시설 > 공연장,연극극장",37.54704957988013,127.07238208063842,서울 광진구 화양동 111-73
버금아트센터,"문화,예술 > 문화시설 > 공연장,연극극장",37.5533418767971,127.077086990375,서울 광진구 군자동 27-3
삼원갤러리,"문화,예술 > 문화시설 > 전시관",37.5576904779674,127.079223719432,서울 광진구 중곡동 649-6
더페이퍼랩,"문화,예술 > 문화시설 > 전시관",37.5576904779674,127.079223719432,서울 광진구 중곡동 649-4
세종뮤지엄갤러리,"문화,예술 > 문화시설 > 전시관",37.5509381516066,127.075479813493,서울 광진구 군자동 98
어쿠스틱블루,"문화,예술 > 문화시설 > 공연장,연극극장",37.5484427856997,127.060727664769,서울 성동구 송정동 81-1
레이블갤러리,"문화,예술 > 문화시설 > 전시관",37.5456207443653,127.060947166105,서울 성동구 성수동2가 278-40
갤러리사진적,"문화,예술 > 문화시설 > 전시관",37.5542262510918,127.080397035517,서울 광진구 능동 208-1
세종아트홀혼,"문화,예술 > 문화시설 > 공연장,연극극장",37.5523022877957,127.074016787797,서울 광진구 군자동 98
미라클아트홀,"문화,예술 > 문화시설 > 공연장,연극극장",37.5558416920914,127.077777662849,서울 광진구 군자동 476-10
세종대학교 박물관,"문화,예술 > 문화시설 > 박물관",37.55148249207771,127.0752642128225,서울 광진구 군자동 98
어린이회관 무지개극장,"문화,예술 > 문화시설 > 공연장,연극극장",37.5469991803517,127.076578025495,서울 광진구 능동 18-11
갤러리프리다,"문화,예술 > 문화시설 > 미술관",37.5449589731607,127.065142506847,서울 성동구 성수동2가 279-39
위니아트,"문화,예술 > 문화시설 > 공연장,연극극장",37.5435639899244,127.077470702194,서울 광진구 화양동 393-1
와이파크전시관,"문화,예술 > 문화시설 > 전시관",37.5468863915741,127.07820289329,서울 광진구 능동 18-11
스튜디오N갤러리 이리오다,"문화,예술 > 문화시설 > 전시관",37.547168143879,127.072979684396,서울 광진구 화양동 210
발레 테이먼트,"문화,예술 > 문화시설 > 공연장,연극극장",37.5592329923688,127.084413480453,서울 광진구 중곡동 52-8
행복정원,"문화,예술 > 문화시설 > 전시관",37.5506097014067,127.077620583326,서울 광진구 능동 18
예스24라이브홀,"문화,예술 > 문화시설 > 공연장,연극극장",37.5457348738776,127.107971464114,서울 광진구 광장동 319-33
유니버설아트센터,"문화,예술 > 문화시설 > 공연장,연극극장",37.55090877962336,127.08797562505988,서울 광진구 능동 25
빛의 시어터,"문화,예술 > 문화시설 > 전시관",37.5550745618675,127.110948931759,서울 광진구 광장동 22-1
비스타워커힐서울 비스타홀,"문화,예술 > 문화시설 > 공연장,연극극장",37.5549478643539,127.110583196592,서울 광진구 광장동 22-1
고구려박물관,"문화,예술 > 문화시설 > 박물관",37.5608076041245,127.110949509804,경기 구리시 아천동 316-47
유니버설발레단,"문화,예술 > 문화시설 > 공연장,연극극장",37.5509195915907,127.087975637768,서울 광진구 능동 25
아차산생태공원 생태자료실,"문화,예술 > 문화시설 > 박물관",37.5518964689854,127.101226489518,서울 광진구 광장동 5-117
워커힐미술관,"문화,예술 > 문화시설 > 미술관",37.5551385910569,127.110886781626,서울 광진구 광장동 22-6
메가박스 상암월드컵경기장,"문화,예술 > 영화,영상 > 영화관 > 메가박스",37.569187914348674,126.89821583795988,서울 마포구 성산동 515
한국영화박물관,"문화,예술 > 문화시설 > 박물관",37.5805291256918,126.889632572273,서울 마포구 상암동 1602
시네마테크KOFA,"문화,예술 > 영화,영상 > 영화관",37.5806123846609,126.890026424992,서울 마포구 상암동 1602
DMC홍보관,"문화,예술 > 문화시설 > 전시관",37.5776086996154,126.892227055397,서울 마포구 상암동 1612
제일라아트홀,"문화,예술 > 문화시설 > 공연장,연극극장",37.5750456032333,126.895490994614,서울 마포구 상암동 30-2
풋볼팬타지움,"문화,예술 > 문화시설 > 기념관",37.5682670305061,126.896070957369,서울 마포구 성산동 516
은평문화원,"문화,예술 > 문화시설 > 문화원",37.5835977159463,126.893343788346,서울 은평구 수색동 417-5
이스포츠 명예의 전당,"문화,예술 > 문화시설 > 전시관",37.57553130328157,126.88962183626676,서울 마포구 상암동 1648
마실영화관,"문화,예술 > 영화,영상 > 영화관",37.5663760791062,126.901606304188,서울 마포구 성산동 370
문화비축기지 공연장,"문화,예술 > 문화시설 > 공연장,연극극장",37.5720625780874,126.892665201954,서울 마포구 성산동 670
YTN뉴스퀘어 YTN공개홀,"문화,예술 > 문화시설 > 공연장,연극극장",37.5792305399055,126.892283586596,서울 마포구 상암동 1607
중소기업역사관,"문화,예술 > 문화시설 > 박물관",37.5767091229322,126.897875041301,서울 마포구 상암동 1622
홀로그램전시관,"문화,예술 > 문화시설 > 전시관",37.5787110753152,126.891745462434,서울 마포구 상암동 1606
서울월드컵경기장 야외공연장,"문화,예술 > 문화시설 > 공연장,연극극장",37.5677901262358,126.894740482273,서울 마포구 성산동 513-7
시루뫼갤러리,"문화,예술 > 문화시설 > 전시관",37.5843499089428,126.907035185828,서울 은평구 증산동 187-19
디지털공연장,"문화,예술 > 문화시설 > 공연장,연극극장",37.5770120822591,126.890099643691,서울 마포구 상암동 1651
서대문자연사박물관,"문화,예술 > 문화시설 > 박물관",37.5767116472635,126.937732431365,서울 서대문구 연희동 141-52
뉴스뮤지엄 연희점,"문화,예술 > 문화시설 > 전시관",37.5669732236782,126.92744244197,서울 서대문구 연희동 433-6
라이카시네마,"문화,예술 > 영화,영상 > 영화관",37.5651643154485,126.930932651709,서울 서대문구 연희동 194-25
연세대학교 노천극장,"문화,예술 > 문화시설 > 공연장,연극극장",37.5654105221669,126.939575491474,서울 서대문구 신촌동 134
연세대학교 대강당,"문화,예술 > 문화시설 > 공연장,연극극장",37.5643145782691,126.938928948429,서울 서대문구 신촌동 134
연희예술극장,"문화,예술 > 문화시설 > 공연장,연극극장",37.5656278392733,126.928596008232,서울 서대문구 연희동 193-10
윤동주기념관,"문화,예술 > 문화시설 > 기념관",37.5654597543091,126.937230186248,서울 서대문구 신촌동 134
아터테인,"문화,예술 > 문화시설 > 미술관",37.57645873395025,126.93015695457072,서울 서대문구 연희동 717-14
갤러리인,"문화,예술 > 문화시설 > 미술관",37.5751404290877,126.926931896551,서울 서대문구 연희동 702
갤러리인 HQ,"문화,예술 > 문화시설 > 미술관",37.57714354663958,126.931795540235,서울 서대문구 연희동 719-10
김옥길기념관,"문화,예술 > 문화시설 > 기념관",37.5647461781247,126.944447614185,서울 서대문구 대신동 92
갤러리호호,"문화,예술 > 문화시설 > 전시관",37.57631128190302,126.93068462715252,서울 서대문구 연희동 715-1
서대문문화체육회관 대극장,"문화,예술 > 문화시설 > 공연장,연극극장",37.5807590968923,126.931556761951,서울 서대문구 홍은동 305-3
황창배미술관,"문화,예술 > 문화시설 > 미술관",37.56649364069829,126.93000779358792,서울 서대문구 연희동 188-80
플레이스막2,"문화,예술 > 문화시설 > 전시관",37.57447975885542,126.92654312673676,서울 서대문구 연희동 622
류아트센터,"문화,예술 > 문화시설 > 전시관",37.5668847765719,126.921572461423,서울 서대문구 연희동 446-176
미학관,"문화,예술 > 문화시설 > 전시관",37.5771763686078,126.930910237686,서울 서대문구 연희동 719
플로어,"문화,예술 > 문화시설 > 미술관",37.5701906714717,126.928911996187,서울 서대문구 연희동 119-16
가좌동 마을극장,"문화,예술 > 문화시설 > 공연장,연극극장",37.5757123123444,126.923691439401,서울 서대문구 남가좌동 336-26
당다세,"문화,예술 > 문화시설 > 공연장,연극극장",37.5794857161704,126.935878010285,서울 서대문구 연희동 169-14
아트힐 연희,"문화,예술 > 문화시설 > 미술관",37.5673092217585,126.927323265218,서울 서대문구 연희동 433-26
서대문문화원,"문화,예술 > 문화시설 > 문화원",37.5808239473865,126.931520474829,서울 서대문구 홍은동 산 26-155
동서의약박물관,"문화,예술 > 문화시설 > 박물관",37.5647099453039,126.930475794313,서울 서대문구 연희동 194-37
플랜비 프로젝트스페이스,"문화,예술 > 문화시설 > 전시관",37.5824176231603,126.926716470832,서울 서대문구 홍은동 377-8
무소속컴퍼니 무소속연구소,"문화,예술 > 문화시설 > 전시관",37.5654091077212,126.928944837298,서울 서대문구 연희동 193-7
서대문문화체육회관 소극장,"문화,예술 > 문화시설 > 공연장,연극극장",37.5807590968923,126.931556761951,서울 서대문구 홍은동 305-3
어나더스타일,"문화,예술 > 문화시설 > 전시관",37.5645072257469,126.923212770396,서울 마포구 연남동 240-64
아트랩반,"문화,예술 > 문화시설 > 전시관",37.570670739158615,126.93014877620938,서울 서대문구 연희동 121-6
전시장,"문화,예술 > 문화시설 > 전시관",37.5644592328589,126.917513856108,서울 마포구 연남동 487-342
겨울토끼,"문화,예술 > 문화시설 > 전시관",37.5728667891533,126.933841563159,서울 서대문구 연희동 77-19
마린아트스페이스,"문화,예술 > 문화시설 > 미술관",37.5817950009028,126.92522266681,서울 서대문구 홍은동 401-1
중앙 문화예술프로그램센터,"문화,예술 > 문화시설 > 공연장,연극극장",37.5808239473865,126.931520474829,서울 서대문구 홍은동 305-3
고원 연희,"문화,예술 > 문화시설 > 전시관",37.5677944570458,126.926674203535,서울 서대문구 연희동 433-45
모모룸,"문화,예술 > 문화시설 > 전시관",37.5684137546712,126.92865673695,서울 서대문구 연희동 126-13
김명선기념센타,"문화,예술 > 문화시설 > 기념관",37.5649280917926,126.940567405251,서울 서대문구 신촌동 134
원선스튜디오,"문화,예술 > 문화시설 > 전시관",37.5764523469397,126.925601586587,서울 서대문구 남가좌동 328-27
니퍼클럽,"문화,예술 > 문화시설 > 공연장,연극극장",37.5658298752953,126.928948965198,서울 서대문구 연희동 193-17
포마자동차디자인미술관,"문화,예술 > 문화시설 > 미술관",37.5917905221845,126.896473051208,경기 고양시 덕양구 향동동 239
히든트리,"문화,예술 > 문화시설 > 공연장,연극극장",37.5990955805828,126.909403928619,서울 은평구 신사동 18-35
CGV 불광,"문화,예술 > 영화,영상 > 영화관 > CGV",37.60947048970448,126.92918154846974,서울 은평구 대조동 240
은평문화예술회관,"문화,예술 > 문화시설 > 공연장,연극극장",37.6036618787743,126.9278088473254,서울 은평구 녹번동 85-4
서울기록원,"문화,예술 > 문화시설 > 전시관",37.60749969144621,126.934857350185,서울 은평구 녹번동 7-1
SeMA 창고,"문화,예술 > 문화시설 > 미술관",37.60932571993423,126.9343574359082,서울 은평구 녹번동 7
은평문화예술회관 숲속극장,"문화,예술 > 문화시설 > 공연장,연극극장",37.60402334776131,126.92853554302302,서울 은평구 녹번동 85-4
도솔,"문화,예술 > 문화시설 > 문화원",37.60146514680882,126.92616215183976,서울 은평구 응암동 84-11
아팅갤러리,"문화,예술 > 문화시설 > 전시관",37.5903240672183,126.9435329898613,서울 서대문구 홍제동 300-10
논골문화원,"문화,예술 > 문화시설 > 문화원",37.5918568516117,126.933530362478,서울 서대문구 홍은동 197-5
한생연 3H키움과학관 홍은센터,"문화,예술 > 문화시설 > 과학관",37.5951925100243,126.940642989135,서울 서대문구 홍은동 439-1
이레피아노로뎀나무연주홀,"문화,예술 > 문화시설 > 공연장,연극극장",37.601763089767,126.933247500699,서울 은평구 녹번동 43-19
극단로얄씨어터,"문화,예술 > 문화시설 > 공연장,연극극장",37.58848885190411,126.9437551618486,서울 서대문구 홍제동 330-72
서대문형무소역사관,"문화,예술 > 문화시설 > 전시관",37.57450354008834,126.95631527553331,서울 서대문구 현저동 101
안팎,"문화,예술 > 문화시설 > 전시관",37.5651084252905,126.952840232497,서울 서대문구 북아현동 1-609
영산불교문화원,"문화,예술 > 문화시설 > 문화원",37.57095885161812,126.94708048582528,서울 서대문구 봉원동 29
이제홀,"문화,예술 > 문화시설 > 공연장,연극극장",37.5655686371535,126.965260134214,서울 서대문구 충정로2가 35
감리교신학대학교 역사박물관,"문화,예술 > 문화시설 > 박물관",37.56741951583636,126.96305996450522,서울 서대문구 냉천동 31
무한상상실,"문화,예술 > 문화시설 > 전시관",37.5674069717004,126.966305169434,서울 종로구 평동 85-15
씨네큐브 광화문,"문화,예술 > 영화,영상 > 영화관",37.5696501678756,126.972131429357,서울 종로구 신문로1가 226
국립정동극장,"문화,예술 > 문화시설 > 공연장,연극극장",37.5658589281598,126.972775755916,서울 중구 정동 8-11
경향아트힐,"문화,예술 > 문화시설 > 공연장,연극극장",37.5682044599751,126.970044695457,서울 중구 정동 22
서울아트시네마,"문화,예술 > 영화,영상 > 영화관",37.56816479719067,126.96997000422864,서울 중구 정동 22
서울유관순기념관,"문화,예술 > 문화시설 > 기념관",37.5644131334488,126.970299752309,서울 중구 순화동 1-1
농업박물관,"문화,예술 > 문화시설 > 박물관",37.5667299831859,126.968329319115,서울 중구 충정로1가 75-1
국토발전전시관,"문화,예술 > 문화시설 > 전시관",37.56683765958173,126.97008485950153,서울 중구 정동 28-5
문화일보홀,"문화,예술 > 문화시설 > 공연장,연극극장",37.567036406339,126.968646123861,서울 중구 충정로1가 68
청춘극장,"문화,예술 > 영화,영상 > 영화관",37.5670940748742,126.968664210245,서울 중구 충정로1가 68
농협중앙회 쌀박물관,"문화,예술 > 문화시설 > 박물관",37.56644602189297,126.96778386357435,서울 중구 충정로1가 81-3
세화미술관,"문화,예술 > 문화시설 > 미술관",37.56950328153664,126.9720296089277,서울 종로구 신문로1가 226
페인터즈 NH아트홀 전용관,"문화,예술 > 문화시설 > 공연장,연극극장",37.56578553521637,126.96757701216109,서울 중구 충정로1가 85
돈의문역사관,"문화,예술 > 문화시설 > 전시관",37.5692132476349,126.968781044412,서울 종로구 신문로2가 7-33
이화박물관,"문화,예술 > 문화시설 > 박물관",37.56607665581958,126.97144909650876,서울 중구 정동 32-1
서울 도시재생이야기관,"문화,예술 > 문화시설 > 전시관",37.56853208548537,126.96874510690012,서울 종로구 신문로2가 6
4.19혁명기념회관,"문화,예술 > 문화시설 > 기념관",37.5674452017369,126.967694011965,서울 종로구 평동 166
서대문여관,"문화,예술 > 문화시설 > 전시관",37.5688998106424,126.969197728068,서울 종로구 신문로2가 22-2
이화여자고등학교 심슨기념관,"문화,예술 > 문화시설 > 기념관",37.5661757357425,126.971326813943,서울 중구 정동 32-1
스코필드기념관,"문화,예술 > 문화시설 > 기념관",37.5688961723291,126.969066424875,서울 종로구 신문로2가 31
정동극장 야외마당,"문화,예술 > 문화시설 > 공연장,연극극장",37.5658949763444,126.972811963329,서울 중구 정동 8-11
템포러리,"문화,예술 > 문화시설 > 전시관",37.5687052286294,126.969324584817,서울 종로구 신문로2가 18-1
정동문화예술회관 정동A&C,"문화,예술 > 문화시설 > 공연장,연극극장",37.5675956165668,126.970964056141,서울 중구 정동 15-5
아주갤러리,"문화,예술 > 문화시설 > 미술관",37.5674617182909,126.968804413732,서울 중구 충정로1가 58-3
돈의문전시관 아지오,"문화,예술 > 문화시설 > 전시관",37.5692132476349,126.968781044412,서울 종로구 신문로2가 7-33
일주앤선화갤러리,"문화,예술 > 문화시설 > 미술관",37.5696609819573,126.972140480917,서울 종로구 신문로1가 226
밸루션,"문화,예술 > 문화시설 > 전시관",37.5681720103361,126.969990376002,서울 중구 정동 22
허리우드스카이쇼공연장,"문화,예술 > 문화시설 > 공연장,연극극장",37.56799187197225,126.97023041601506,서울 중구 정동 22-8
스크랜톤기념관,"문화,예술 > 문화시설 > 기념관",37.5657462378162,126.968863987366,서울 중구 순화동 1-1
경찰박물관,"문화,예술 > 문화시설 > 박물관",37.572058467776735,126.96219623292242,서울 종로구 행촌동 211-1
국립기상박물관,"문화,예술 > 문화시설 > 박물관",37.5714163900279,126.966264876069,서울 종로구 신문로2가 1-430
독립운동가 가족을생각하는 작은집,"문화,예술 > 문화시설 > 전시관",37.57316583978858,126.959623765549,서울 종로구 무악동 89
양정원갤러리,"문화,예술 > 문화시설 > 미술관",37.5722935409127,126.964831383097,서울 종로구 행촌동 6
아쇼카스페이스,"문화,예술 > 문화시설 > 전시관",37.5721446162618,126.961127594461,서울 종로구 교북동 126-2
운경기념관,"문화,예술 > 문화시설 > 기념관",37.5748744293253,126.966338029996,서울 종로구 사직동 1-57
서울역사박물관,"문화,예술 > 문화시설 > 박물관",37.5705003227005,126.970546366796,서울 종로구 신문로2가 2-1
성곡미술관,"문화,예술 > 문화시설 > 미술관",37.5731706785274,126.969780082012,서울 종로구 신문로2가 1-101
에무시네마,"문화,예술 > 영화,영상 > 영화관",37.5720658580513,126.969006250711,서울 종로구 신문로2가 1-181
마리오폰테의 트웰브,"문화,예술 > 문화시설 > 전시관",37.57079608607658,126.9715118171172,서울 종로구 신문로2가 1-153
팡타개라지,"문화,예술 > 문화시설 > 공연장,연극극장",37.5720820807144,126.969024355752,서울 종로구 신문로2가 1-181
스페이스 사직,"문화,예술 > 문화시설 > 박물관",37.5733023926656,126.967043975881,서울 종로구 사직동 181-3
갤러리내일,"문화,예술 > 문화시설 > 전시관",37.57065574032,126.972393670246,서울 종로구 신문로1가 58-45
북한인권박물관,"문화,예술 > 문화시설 > 박물관",37.5715485062915,126.971883951005,서울 종로구 신문로2가 1-128
교보문고 위켄드 아크홀,"문화,예술 > 문화시설 > 공연장,연극극장",37.5726379400364,126.972438218332,서울 종로구 내수동 73
축구전시관,"문화,예술 > 문화시설 > 전시관",37.5734840477058,126.969096223497,서울 종로구 신문로2가 1-131
서울 역사박물관 전시기획과,"문화,예술 > 문화시설 > 박물관",37.5705291545475,126.970546355442,서울 종로구 신문로2가 2-1
엔트리갤러리,"문화,예술 > 문화시설 > 전시관",37.5713190006438,126.972945828589,서울 종로구 신문로1가 238
세상에서 제일작은한평극장,"문화,예술 > 문화시설 > 공연장,연극극장",37.5737733501373,126.973117006386,서울 종로구 내수동 74
국립대한민국임시정부기념관,"문화,예술 > 문화시설 > 기념관",37.576025483934245,126.95436726930023,서울 서대문구 현저동 산 5-5
한국생산성본부 정보문화원,"문화,예술 > 문화시설 > 문화원",37.5758517289328,126.957136350631,서울 종로구 무악동 63-10
대림미술관,"문화,예술 > 문화시설 > 미술관",37.5775449688657,126.97336244129605,서울 종로구 통의동 35-1
그라운드시소 서촌,"문화,예술 > 문화시설 > 전시관",37.5778385914657,126.972916300185,서울 종로구 통의동 35-17
종로구립 박노수미술관,"문화,예술 > 문화시설 > 미술관",37.5813184655898,126.966783450397,서울 종로구 옥인동 168-2
경복궁아트홀,"문화,예술 > 문화시설 > 공연장,연극극장",37.5833521439842,126.970699806044,서울 종로구 효자동 70-1
황학정 국궁전시관,"문화,예술 > 문화시설 > 전시관",37.5770615850763,126.964765745351,서울 종로구 사직동 산 1-11
표갤러리,"문화,예술 > 문화시설 > 미술관",37.57789575768786,126.97082873644398,서울 종로구 체부동 120-2
우당기념관,"문화,예술 > 문화시설 > 기념관",37.5839857140942,126.967896316106,서울 종로구 신교동 6-22
갤러리B,"문화,예술 > 문화시설 > 미술관",37.5781625618643,126.971276934955,서울 종로구 체부동 28-2
아트스페이스3,"문화,예술 > 문화시설 > 전시관",37.5784585671646,126.973319096728,서울 종로구 통의동 7-33
이상범가옥,"문화,예술 > 문화시설 > 전시관",37.5788682052583,126.968396632153,서울 종로구 누하동 178
곧곳,"문화,예술 > 문화시설 > 미술관",37.5851775723232,126.970764757225,서울 종로구 청운동 108-5
갤러리시몬,"문화,예술 > 문화시설 > 미술관",37.5781161832806,126.97329204906,서울 종로구 통의동 35-9
tya,"문화,예술 > 문화시설 > 미술관",37.5778172425068,126.970312542225,서울 종로구 체부동 126
오르겔하우스,"문화,예술 > 문화시설 > 공연장,연극극장",37.5844367735047,126.970037060161,서울 종로구 신교동 70-10
청와대 사랑채 한국관광전시관,"문화,예술 > 문화시설 > 전시관",37.58252736922298,126.97294177313644,서울 종로구 효자동 150
진갤러리,"문화,예술 > 문화시설 > 미술관",37.57834868643844,126.97349913667044,서울 종로구 통의동 7-35
중간지점 둘,"문화,예술 > 문화시설 > 전시관",37.5793186797452,126.968312666739,서울 종로구 누하동 141-1
협동조합사진공방 공간291,"문화,예술 > 문화시설 > 전시관",37.5798491036006,126.970791747074,서울 종로구 통인동 124
더그라운드,"문화,예술 > 문화시설 > 전시관",37.5796729714145,126.972725442912,서울 종로구 창성동 117-10
어북뮤지엄,"문화,예술 > 문화시설 > 박물관",37.58555051097977,126.97047363876516,서울 종로구 청운동 115-1
세계유산토이뮤지엄,"문화,예술 > 문화시설 > 박물관",37.5835799528321,126.970131372793,서울 종로구 신교동 58-1
안드로메다12.6,"문화,예술 > 문화시설 > 전시관",37.5795803451438,126.96975032123,서울 종로구 통인동 74
갤러리소행성,"문화,예술 > 문화시설 > 전시관",37.5798809586351,126.968532056482,서울 종로구 누하동 64
서울유치원역사전시관,"문화,예술 > 문화시설 > 전시관",37.5767991526228,126.967043566907,서울 종로구 사직동 1-27
문화공간라임,"문화,예술 > 문화시설 > 전시관",37.5820402412363,126.970473892997,서울 종로구 옥인동 19-2
국립현대미술관 덕수궁,"문화,예술 > 문화시설 > 미술관",37.5659384342432,126.973740099183,서울 중구 정동 5-1
일민미술관,"문화,예술 > 문화시설 > 미술관",37.5698819940064,126.977637157186,서울 종로구 세종로 139-8
국립정동극장 세실,"문화,예술 > 문화시설 > 공연장,연극극장",37.5667642080192,126.97590401119,서울 중구 정동 3-7
서울도시건축전시관,"문화,예술 > 문화시설 > 전시관",37.56690492421112,126.97670535593808,서울 중구 태평로1가 60-6
아트조선스페이스,"문화,예술 > 문화시설 > 미술관",37.5678454010722,126.97589460754,서울 중구 태평로1가 61-27
서울시민청 바스락홀,"문화,예술 > 문화시설 > 공연장,연극극장",37.5668778859271,126.978563388844,서울 중구 태평로1가 31
한국금융사박물관,"문화,예술 > 문화시설 > 박물관",37.568591529702,126.976410528269,서울 중구 태평로1가 62-12
아트센터나비,"문화,예술 > 문화시설 > 미술관",37.5698825110856,126.980557593063,서울 종로구 서린동 99
구세군역사박물관,"문화,예술 > 문화시설 > 박물관",37.56799455177643,126.97394312358352,서울 중구 정동 1-23
조선일보미술관,"문화,예술 > 문화시설 > 미술관",37.5679966220122,126.975188238604,서울 중구 정동 1-16
아트스페이스호화,"문화,예술 > 문화시설 > 전시관",37.5674205185068,126.977873331336,서울 중구 태평로1가 25
시민청 활짝라운지,"문화,예술 > 문화시설 > 공연장,연극극장",37.566818797519,126.978656787988,서울 중구 태평로1가 31
더 케이브,"문화,예술 > 문화시설 > 전시관",37.5685156429997,126.980209313522,서울 중구 다동 39
스페이스mm,"문화,예술 > 문화시설 > 전시관",37.56584222049173,126.9792320671494,서울 중구 을지로1가 200
서울시종합자료관,"문화,예술 > 문화시설 > 박물관",37.5644179651838,126.975664810631,서울 중구 서소문동 37
시민청 군기시유적전시실,"문화,예술 > 문화시설 > 전시관",37.5668151935356,126.978656789016,서울 중구 태평로1가 31
서울특별시청 하늘광장갤러리,"문화,예술 > 문화시설 > 전시관",37.5667268649198,126.978485896684,서울 중구 태평로1가 31
기억과빛,"문화,예술 > 문화시설 > 전시관",37.56721124510338,126.9766158395366,서울 중구 태평로1가 60-1
덕수궁 구이왕가미술관신관,"문화,예술 > 문화시설 > 미술관",37.5659672671204,126.973744616633,서울 중구 정동 5-1
재일한국인기념관,"문화,예술 > 문화시설 > 기념관",37.5685879284331,126.976424112593,서울 중구 태평로1가 62-12
궁중유물전시관,"문화,예술 > 문화시설 > 전시관",37.5655818900246,126.974890221394,서울 중구 정동 5-1
기후에너지정보센터,"문화,예술 > 문화시설 > 전시관",37.5643909137884,126.975560687497,서울 중구 서소문동 37
세븐픽쳐스,"문화,예술 > 문화시설 > 전시관",37.5698387931381,126.977886199385,서울 종로구 서린동 154-1
롯데시네마 에비뉴엘,"문화,예술 > 영화,영상 > 영화관 > 롯데시네마",37.5642965417763,126.981844846266,서울 중구 소공동 7
하이커그라운드,"문화,예술 > 문화시설 > 전시관",37.5685753051734,126.981418201295,서울 중구 다동 10
그라운드시소 명동,"문화,예술 > 문화시설 > 전시관",37.56423888965341,126.98192069531612,서울 중구 남대문로2가 130
우미관극장,"문화,예술 > 문화시설 > 공연장,연극극장",37.5698257003851,126.986710893999,서울 종로구 관철동 15-1
CKL스테이지,"문화,예술 > 문화시설 > 공연장,연극극장",37.5685815964224,126.981318589692,서울 중구 다동 10
KF갤러리,"문화,예술 > 문화시설 > 전시관",37.5672559152847,126.985475302407,서울 중구 수하동 67
미래기술 체험관 티움,"문화,예술 > 문화시설 > 전시관",37.5665314677789,126.985099651856,서울 중구 을지로2가 11
중구문화원,"문화,예술 > 문화시설 > 문화원",37.5675227345974,126.986525668878,서울 중구 장교동 1
페럼타워 페럼홀,"문화,예술 > 문화시설 > 공연장,연극극장",37.5670034633584,126.984130644256,서울 중구 수하동 66
롯데호텔서울 크리스탈볼룸,"문화,예술 > 문화시설 > 공연장,연극극장",37.565338018568,126.981364675044,서울 중구 을지로1가 180-6
청계천광교갤러리,"문화,예술 > 문화시설 > 미술관",37.5687764450283,126.982857972923,서울 중구 남대문로1가 9
KF XR 갤러리,"문화,예술 > 문화시설 > 전시관",37.5674216616533,126.985178708567,서울 중구 수하동 67
하나은행 화폐전시관,"문화,예술 > 문화시설 > 전시관",37.5657313464227,126.984810047607,서울 중구 을지로2가 181
롯데백화점 롯데문화홀,"문화,예술 > 문화시설 > 공연장,연극극장",37.5647326127814,126.981772300502,서울 중구 소공동 1
갤러리393,"문화,예술 > 문화시설 > 전시관",37.5696744076494,126.987390090167,서울 종로구 관철동 6-3
종로아트프라자,"문화,예술 > 문화시설 > 전시관",37.5698527325395,126.986731264323,서울 종로구 관철동 15-1
종로아트홀,"문화,예술 > 문화시설 > 공연장,연극극장",37.5689283433813,126.98702120431,서울 종로구 관철동 7-18
PICKR,"문화,예술 > 문화시설 > 전시관",37.5685275835951,126.981617433085,서울 중구 다동 10
서울YWCA 마루홀,"문화,예술 > 문화시설 > 공연장,연극극장",37.5648989940215,126.986177523488,서울 중구 명동1가 1-1
세종문화회관,"문화,예술 > 문화시설 > 공연장,연극극장",37.572594523923904,126.9757787456328,서울 종로구 세종로 81-3
대한민국역사박물관,"문화,예술 > 문화시설 > 박물관",37.573986969296435,126.97785780450153,서울 종로구 세종로 82-1
세종문화회관 대극장,"문화,예술 > 문화시설 > 공연장,연극극장",37.5728621787462,126.976069582189,서울 종로구 세종로 81-4
세종문화회관 미술관,"문화,예술 > 문화시설 > 미술관",37.5718530872608,126.976183103242,서울 종로구 세종로 81-3
세종문화회관 M씨어터,"문화,예술 > 문화시설 > 공연장,연극극장",37.5718133419444,126.975685044186,서울 종로구 세종로 160-1
세종문화회관 S씨어터,"문화,예술 > 문화시설 > 공연장,연극극장",37.5727754952377,126.97515948536,서울 종로구 세종로 81-7
세종문화회관 체임버홀,"문화,예술 > 문화시설 > 공연장,연극극장",37.5720692375751,126.975748352154,서울 종로구 세종로 81-3
세종충무공이야기,"문화,예술 > 문화시설 > 기념관",37.5725315342155,126.97617156726932,서울 종로구 세종로 81-3
갤러리광화,"문화,예술 > 문화시설 > 전시관",37.5705268017908,126.976081649026,서울 종로구 신문로1가 2
신문박물관PRESSEUM,"문화,예술 > 문화시설 > 박물관",37.5699901220177,126.977682403001,서울 종로구 세종로 139-5
주대한민국일본국대사관 공보문화원,"문화,예술 > 문화시설 > 문화원",37.57544692393916,126.97977051335752,서울 종로구 중학동 14
교보아트스페이스,"문화,예술 > 문화시설 > 전시관",37.5712118946362,126.977804291421,서울 종로구 종로1가 1
종로홍보관,"문화,예술 > 문화시설 > 전시관",37.57140328037411,126.97989612436156,서울 종로구 청진동 146-3
세종문화회관 세종예술아카데미,"문화,예술 > 문화시설 > 공연장,연극극장",37.5728400686737,126.97589412977398,서울 종로구 세종로 81-4
대한민국역사박물관 상설기증관,"문화,예술 > 문화시설 > 박물관",37.5738283893336,126.977831815185,서울 종로구 세종로 82-1
세종문화회관 전시관,"문화,예술 > 문화시설 > 전시관",37.5727215829861,126.975870396071,서울 종로구 세종로 81-4
서울지방국세청 국세홍보관,"문화,예술 > 문화시설 > 전시관",37.5741495137175,126.9798999142,서울 종로구 수송동 104
세종문화회관 서비스플라자,"문화,예술 > 문화시설 > 공연장,연극극장",37.5727684384225,126.975888492884,서울 종로구 세종로 81-4
광화문광장 유구전시공간,"문화,예술 > 문화시설 > 전시관",37.5737488710423,126.976635303694,서울 종로구 세종로 1-68
서울지하철 시대관,"문화,예술 > 문화시설 > 전시관",37.571634222476,126.976568045613,서울 종로구 세종로 1-68
DIGICO 가든,"문화,예술 > 문화시설 > 전시관",37.5719959572626,126.978877179507,서울 종로구 청진동 244
세종문화회관 광화랑,"문화,예술 > 문화시설 > 전시관",37.5727396084344,126.97589755814,서울 종로구 세종로 81-4
세종문화회관 뮤지컬단,"문화,예술 > 문화시설 > 공연장,연극극장",37.5727215894603,126.975902091927,서울 종로구 세종로 81-4
세종문화회관 무용단,"문화,예술 > 문화시설 > 공연장,연극극장",37.5727035667882,126.975888513798,서울 종로구 세종로 81-4
세종문화회관 화원,"문화,예술 > 문화시설 > 공연장,연극극장",37.5727468145445,126.975888499855,서울 종로구 세종로 81-4
세종문화회관 대관안내,"문화,예술 > 문화시설 > 공연장,연극극장",37.5727504203734,126.975897554656,서울 종로구 세종로 81-4
세종문화회관 소년소녀합창단,"문화,예술 > 문화시설 > 공연장,연극극장",37.572714381501,126.975902094249,서울 종로구 세종로 81-4
세종문화회관 청소년교향악단,"문화,예술 > 문화시설 > 공연장,연극극장",37.57273960658514,126.97588850217902,서울 종로구 세종로 81-4
세종문화회관 아루비쥬,"문화,예술 > 문화시설 > 공연장,연극극장",37.5726530767358,126.975720994982,서울 종로구 세종로 81-3
공평도시유적전시관,"문화,예술 > 문화시설 > 전시관",37.57190117255984,126.98338702457757,서울 종로구 공평동 5-1
국립아시아문화전당 아시아예술커뮤니티,"문화,예술 > 문화시설 > 공연장,연극극장",37.570755137706,126.983609144306,서울 종로구 공평동 70
일조원갤러리,"문화,예술 > 문화시설 > 미술관",37.5723408740229,126.983500125824,서울 종로구 견지동 111
갤러리시선,"문화,예술 > 문화시설 > 미술관",37.57126655800092,126.98128848777836,서울 종로구 청진동 70
붓다사리박물관,"문화,예술 > 문화시설 > 박물관",37.5721143305729,126.980889816702,서울 종로구 청진동 6
갤러리라메르,"문화,예술 > 문화시설 > 미술관",37.57255730558019,126.98494223644524,서울 종로구 관훈동 198-1
박물관은살아있다 인사동점,"문화,예술 > 문화시설 > 박물관",37.5717935364132,126.987276534799,서울 종로구 인사동 43
한국미술관,"문화,예술 > 문화시설 > 미술관",37.571912463369,126.98723576319,서울 종로구 인사동 43
아름다운차박물관,"문화,예술 > 문화시설 > 박물관",37.5723700147182,126.985881825528,서울 종로구 인사동 193-1
남인사마당,"문화,예술 > 문화시설 > 공연장,연극극장",37.571493514391584,126.98736374801648,서울 종로구 인사동 43-2
구구갤러리 인사동,"문화,예술 > 문화시설 > 미술관",37.57251427672,126.986769279861,서울 종로구 인사동 30-1
무우수갤러리,"문화,예술 > 문화시설 > 미술관",37.572665593314,126.986325511411,서울 종로구 인사동 168
호산붓박물관,"문화,예술 > 문화시설 > 박물관",37.5720024785696,126.9864784505,서울 종로구 인사동 153-1
아트피플,"문화,예술 > 문화시설 > 미술관",37.57273230130871,126.9866254779138,서울 종로구 인사동 27-1
갤러리시작,"문화,예술 > 문화시설 > 미술관",37.5721755262452,126.986982153281,서울 종로구 인사동 39
하나로갤러리,"문화,예술 > 문화시설 > 미술관",37.5721140743101,126.985406439834,서울 종로구 인사동 194-4
블루원갤러리,"문화,예술 > 문화시설 > 미술관",37.57259792369035,126.98552860067102,서울 종로구 인사동 190-2
한국예술문화센터,"문화,예술 > 문화시설 > 미술관",37.5714439202046,126.98700039223,서울 종로구 인사동 131
한국미술협회 문화원,"문화,예술 > 문화시설 > 문화원",37.5723304848572,126.986868927408,서울 종로구 인사동 37
한국예술문화원,"문화,예술 > 문화시설 > 문화원",37.571908857919134,126.98722218001387,서울 종로구 인사동 43
아트앤스마트 갤러리,"문화,예술 > 문화시설 > 전시관",37.5721250675226,126.986954994402,서울 종로구 인사동 39
하나투어 히스토리룸,"문화,예술 > 문화시설 > 전시관",37.5718508244681,126.98417036713,서울 종로구 공평동 1
숭동교회130주년기념관,"문화,예술 > 문화시설 > 기념관",37.571746628160014,126.98676262377934,서울 종로구 인사동 143
아라아트센터,"문화,예술 > 문화시설 > 전시관",37.5733103653783,126.983649336439,서울 종로구 견지동 85-15
인사센트럴뮤지엄,"문화,예술 > 문화시설 > 전시관",37.57437081846456,126.9835211863394,서울 종로구 관훈동 155-2
그라운드서울,"문화,예술 > 문화시설 > 미술관",37.5734292938767,126.983628934337,서울 종로구 견지동 85-24
컬러풀뮤지엄,"문화,예술 > 문화시설 > 전시관",37.5744311890571,126.983549473557,서울 종로구 견지동 74-1
갤러리인사아트,"문화,예술 > 문화시설 > 전시관",37.5749970670194,126.983936503121,서울 종로구 관훈동 119
동덕아트갤러리,"문화,예술 > 문화시설 > 전시관",37.5749789543555,126.983268609845,서울 종로구 관훈동 151-8
불교중앙박물관,"문화,예술 > 문화시설 > 박물관",37.57466341800256,126.9819894929616,서울 종로구 수송동 38-2
조계사 불교역사문화기념관,"문화,예술 > 문화시설 > 기념관",37.5742939708717,126.981733745705,서울 종로구 수송동 38-2
OCI미술관,"문화,예술 > 문화시설 > 미술관",37.573168685915746,126.9821098451121,서울 종로구 수송동 46-15
전통문화예술공연장,"문화,예술 > 문화시설 > 공연장,연극극장",37.57432640598065,126.9817292097058,서울 종로구 수송동 44-2
인사동 홍보관,"문화,예술 > 문화시설 > 전시관",37.5737356336895,126.98364018738,서울 종로구 견지동 85-18
북인사마당,"문화,예술 > 문화시설 > 공연장,연극극장",37.5754114655268,126.983508504633,서울 종로구 관훈동 130-3
아라모던아트뮤지엄,"문화,예술 > 문화시설 > 전시관",37.5735482242546,126.983622116258,서울 종로구 견지동 85-24
체신기념관,"문화,예술 > 문화시설 > 기념관",37.57441303632775,126.98262235273688,서울 종로구 견지동 39-7
예당,"문화,예술 > 문화시설 > 전시관",37.5754259419822,126.983947731356,서울 종로구 관훈동 118-25
컬러 뮤지엄,"문화,예술 > 문화시설 > 전시관",37.5751502190927,126.983811946738,서울 종로구 관훈동 118-32
갤러리온도,"문화,예술 > 문화시설 > 미술관",37.5750690793486,126.983449714555,서울 종로구 관훈동 145
조계사 도심포교100주년기념관,"문화,예술 > 문화시설 > 기념관",37.5732019637732,126.981724956405,서울 종로구 수송동 46-10
경허기념관,"문화,예술 > 문화시설 > 기념관",37.5729129603024,126.983177380231,서울 종로구 견지동 95-2
아트불갤러리 인사,"문화,예술 > 문화시설 > 전시관",37.5744672291606,126.983551729672,서울 종로구 관훈동 155-2
경인미술관,"문화,예술 > 문화시설 > 미술관",37.57442062570009,126.98544221439988,서울 종로구 관훈동 30-1
인사아트프라자 갤러리,"문화,예술 > 문화시설 > 미술관",37.5738728535309,126.985709475946,서울 종로구 관훈동 21
인사아트센터,"문화,예술 > 문화시설 > 전시관",37.573848387905215,126.98460576893604,서울 종로구 관훈동 188
인사1010,"문화,예술 > 문화시설 > 미술관",37.5739881715206,126.985632476951,서울 종로구 관훈동 29-23
뮤지엄김치간,"문화,예술 > 문화시설 > 박물관",37.5736024547676,126.984903537733,서울 종로구 관훈동 192-15
백악미술관,"문화,예술 > 문화시설 > 미술관",37.5736708427746,126.984233374424,서울 종로구 관훈동 192-21
한국공예디자인문화진흥원 갤러리,"문화,예술 > 문화시설 > 전시관",37.57400960286309,126.98412915767824,서울 종로구 관훈동 182-2
엠스테이지,"문화,예술 > 문화시설 > 공연장,연극극장",37.573853018440175,126.98560080657884,서울 종로구 관훈동 21
갤러리인덱스,"문화,예술 > 문화시설 > 미술관",37.5741970501689,126.984432498524,서울 종로구 관훈동 185
가온갤러리,"문화,예술 > 문화시설 > 미술관",37.5734132655791,126.985058660662,서울 종로구 관훈동 196-10
인사아트홀,"문화,예술 > 문화시설 > 공연장,연극극장",37.5738151755535,126.985591757773,서울 종로구 관훈동 21
올갤러리,"문화,예술 > 문화시설 > 미술관",37.573780919139686,126.98544007490392,서울 종로구 관훈동 23
리수갤러리,"문화,예술 > 문화시설 > 전시관",37.57484590660004,126.98553495783295,서울 종로구 관훈동 84-24
SK에코플랜트 행복station,"문화,예술 > 문화시설 > 전시관",37.573066287427615,126.98432519388813,서울 종로구 관훈동 192-18
충북갤러리,"문화,예술 > 문화시설 > 전시관",37.5738853291346,126.984609157369,서울 종로구 관훈동 188
풀무원김치박물관,"문화,예술 > 문화시설 > 박물관",37.5735555983981,126.984867322949,서울 종로구 관훈동 192-15
하나아트갤러리,"문화,예술 > 문화시설 > 미술관",37.5739160495538,126.985288358852,서울 종로구 관훈동 27-5
G&J 광주전남갤러리,"문화,예술 > 문화시설 > 전시관",37.57387992109861,126.984593310308,서울 종로구 관훈동 188
갤러리산촌,"문화,예술 > 문화시설 > 전시관",37.5737972355466,126.986261911867,서울 종로구 관훈동 2-1
서경갤러리,"문화,예술 > 문화시설 > 미술관",37.5731302657177,126.984382912536,서울 종로구 관훈동 192-18
다크룸,"문화,예술 > 문화시설 > 전시관",37.5743881262616,126.984935075697,서울 종로구 관훈동 38
갤러리보아,"문화,예술 > 문화시설 > 미술관",37.5729431206036,126.986506580393,서울 종로구 인사동 15
화봉책박물관,"문화,예술 > 문화시설 > 박물관",37.573149319927325,126.98542548184874,서울 종로구 관훈동 197-28
백송화랑,"문화,예술 > 문화시설 > 미술관",37.5733502505713,126.985496758971,서울 종로구 관훈동 197-9
헬로우심쿵,"문화,예술 > 문화시설 > 전시관",37.5742043181291,126.984894360099,서울 종로구 관훈동 38
코사스페이스갤러리,"문화,예술 > 문화시설 > 미술관",37.574042170107,126.985138908073,서울 종로구 관훈동 37
공예 장생호,"문화,예술 > 문화시설 > 전시관",37.5746423674333,126.986251568397,서울 종로구 경운동 66-3
아틀리에서울,"문화,예술 > 문화시설 > 미술관",37.5733611349594,126.986098983313,서울 종로구 관훈동 7
쌈지길 기획전시실,"문화,예술 > 문화시설 > 전시관",37.574360170564,126.984741505955,서울 종로구 관훈동 38
갤러리해인,"문화,예술 > 문화시설 > 전시관",37.5743486432913,126.986252754416,서울 종로구 경운동 64-13
서울문화홍보원,"문화,예술 > 문화시설 > 문화원",37.57552692541305,126.98448655947736,서울 종로구 관훈동 110
보나장신구박물관,"문화,예술 > 문화시설 > 박물관",37.5735988068719,126.984563936007,서울 종로구 관훈동 192-10
원에이치갤러리,"문화,예술 > 문화시설 > 미술관",37.5735234497186,126.987303408663,서울 종로구 낙원동 280-4
갤러리통큰,"문화,예술 > 문화시설 > 미술관",37.574633109396,126.98426486822,서울 종로구 관훈동 74
학아재미술관,"문화,예술 > 문화시설 > 미술관",37.57557034263061,126.9858348077885,서울 종로구 경운동 89-4
갤러리케이티에이,"문화,예술 > 문화시설 > 미술관",37.5727591805743,126.985356506153,서울 종로구 관훈동 198-33
아트가가,"문화,예술 > 문화시설 > 미술관",37.573112486547416,126.98632316569808,서울 종로구 인사동 14-1
예전사,"문화,예술 > 문화시설 > 전시관",37.5753505382311,126.986157479321,서울 종로구 경운동 88
창의물류갤러리낳이,"문화,예술 > 문화시설 > 미술관",37.5736025123648,126.985360869059,서울 종로구 관훈동 196-3
죽염박물관,"문화,예술 > 문화시설 > 박물관",37.57308084780438,126.98545379520166,서울 종로구 관훈동 197-28
갤러리건국,"문화,예술 > 문화시설 > 전시관",37.5739595071422,126.987081459953,서울 종로구 경운동 47-17
갤러리스카이연,"문화,예술 > 문화시설 > 전시관",37.5731015252116,126.985089286961,서울 종로구 관훈동 197-28
갤러리경북,"문화,예술 > 문화시설 > 미술관",37.5737881252823,126.985425357357,서울 종로구 관훈동 23
라이프러리 아카이브,"문화,예술 > 문화시설 > 전시관",37.5745322219945,126.984446013021,서울 종로구 관훈동 72
명보아트홀,"문화,예술 > 문화시설 > 공연장,연극극장",37.5646995866903,126.993208758748,서울 중구 초동 18-5
아름다운청년전태일기념관,"문화,예술 > 문화시설 > 기념관",37.56842041782943,126.98938249808266,서울 종로구 관수동 152-1
서울영화센터 (2024년12월예정),"문화,예술 > 영화,영상 > 영화관",37.5642580340335,126.992167481321,서울 중구 초동 64-11
을지영화관,"문화,예술 > 영화,영상 > 영화관",37.5659518532397,126.991397617085,서울 중구 을지로3가 315-12
뉴스뮤지엄 을지로점,"문화,예술 > 문화시설 > 전시관",37.566586200953,126.992061970662,서울 중구 을지로3가 118-6
명보아트홀 가온홀,"문화,예술 > 문화시설 > 공연장,연극극장",37.5647049942271,126.993235923224,서울 중구 초동 18-5
명보아트홀 라온홀,"문화,예술 > 문화시설 > 공연장,연극극장",37.5646995879903,126.993231396219,서울 중구 초동 18-5
스페이스 카다로그,"문화,예술 > 문화시설 > 미술관",37.56645628781836,126.98984685591486,서울 중구 을지로3가 5-7
중간지점,"문화,예술 > 문화시설 > 전시관",37.5655374605009,126.99234844916,서울 중구 을지로3가 296-10
공간형,"문화,예술 > 문화시설 > 전시관",37.5664382420232,126.989550300605,서울 중구 을지로2가 101-2
빈칸 을지로점,"문화,예술 > 문화시설 > 전시관",37.56550128320129,126.99046046756378,서울 중구 을지로3가 344-9
그블루갤러리,"문화,예술 > 문화시설 > 미술관",37.5652131099018,126.992472989279,서울 중구 을지로3가 296-4
3Q,"문화,예술 > 문화시설 > 전시관",37.5652492636352,126.99454432944,서울 중구 인현동1가 37-2
공간형7,"문화,예술 > 문화시설 > 미술관",37.566195224292,126.992936967889,서울 중구 을지로3가 291-49
이정숙한국자수갤러리,"문화,예술 > 문화시설 > 전시관",37.5647896744166,126.993005013087,서울 중구 초동 18-11
픽앤플레이스,"문화,예술 > 문화시설 > 전시관",37.5663787335693,126.989078307058,서울 중구 을지로2가 101-12
MC코어채플린홀,"문화,예술 > 문화시설 > 공연장,연극극장",37.5689320606846,126.988096544365,서울 종로구 관철동 33-1
푸르지오아트홀,"문화,예술 > 문화시설 > 공연장,연극극장",37.5661395435934,126.997328727022,서울 중구 을지로4가 323
하트원,"문화,예술 > 문화시설 > 미술관",37.5667485980871,126.996598626841,서울 중구 을지로4가 39-1
바다극장,"문화,예술 > 영화,영상 > 영화관",37.5692966529478,126.998460557379,서울 종로구 예지동 222
세운전자박물관,"문화,예술 > 문화시설 > 박물관",37.56960109677942,126.99507602745884,서울 종로구 장사동 116-4
을지공간,"문화,예술 > 문화시설 > 공연장,연극극장",37.5671126268422,126.99769090349,서울 중구 을지로4가 77
더소소,"문화,예술 > 문화시설 > 전시관",37.5683848128985,126.996830597947,서울 중구 주교동 148-1
을지로OF,"문화,예술 > 문화시설 > 전시관",37.566918875861425,126.99625338742652,서울 중구 을지로4가 32
브레이브 썬샤인,"문화,예술 > 문화시설 > 전시관",37.5678892873818,126.997804071696,서울 중구 주교동 170-1
원룸,"문화,예술 > 문화시설 > 미술관",37.5654186841454,126.995318526029,서울 중구 인현동1가 15-4
PS센터,"문화,예술 > 문화시설 > 미술관",37.5677360890364,126.996581603147,서울 중구 산림동 82-12
FF Seoul,"문화,예술 > 문화시설 > 미술관",37.5692812501081,126.995240180231,서울 종로구 장사동 116-4
아뜨리애갤러리,"문화,예술 > 문화시설 > 전시관",37.566773872884504,127.00070178105535,서울 중구 을지로5가 6-5
FF 서울,"문화,예술 > 문화시설 > 미술관",37.5692857548574,126.995234520229,서울 종로구 장사동 116-4
도심산업 그라운드 공간 을,"문화,예술 > 문화시설 > 전시관",37.5673576321664,126.995438387543,서울 중구 산림동 207-2
CGV 피카디리1958,"문화,예술 > 영화,영상 > 영화관 > CGV",37.570993818720254,126.99131327152529,서울 종로구 돈의동 137
실버영화관,"문화,예술 > 영화,영상 > 영화관",37.57261620326433,126.9878299395856,서울 종로구 낙원동 288
단성사 영화역사관,"문화,예술 > 문화시설 > 전시관",37.5709758811505,126.992515424171,서울 종로구 묘동 56
떡박물관,"문화,예술 > 문화시설 > 박물관",37.5749076901335,126.990649448489,서울 종로구 와룡동 164-2
낭만극장,"문화,예술 > 영화,영상 > 영화관",37.5727540838764,126.988108388023,서울 종로구 낙원동 288
춘원당한의약박물관,"문화,예술 > 문화시설 > 박물관",37.57149289294144,126.99032160228836,서울 종로구 낙원동 155
한국색동박물관,"문화,예술 > 문화시설 > 박물관",37.57388516615074,126.99208610026172,서울 종로구 권농동 187-25
피카디리국제미술관,"문화,예술 > 문화시설 > 미술관",37.571132549448315,126.99101215115728,서울 종로구 돈의동 137
아트뮤지엄,"문화,예술 > 문화시설 > 미술관",37.5711325528868,126.991057429992,서울 종로구 돈의동 137
모두의 극장,"문화,예술 > 영화,영상 > 영화관",37.5726297179559,126.987827673399,서울 종로구 낙원동 284-6
d/p,"문화,예술 > 문화시설 > 전시관",37.5727630725455,126.987898967415,서울 종로구 낙원동 288
국악로천우극장,"문화,예술 > 문화시설 > 공연장,연극극장",37.5727382570736,126.992995213762,서울 종로구 봉익동 12-13
우리열린극장,"문화,예술 > 문화시설 > 공연장,연극극장",37.5722152410742,126.987643226932,서울 종로구 낙원동 288
오브제유니버스,"문화,예술 > 문화시설 > 전시관",37.5739525190779,126.989277567475,서울 종로구 익선동 137-6
정선갤러리,"문화,예술 > 문화시설 > 전시관",37.5745797685051,126.991174748192,서울 종로구 와룡동 69
육의전박물관,"문화,예술 > 문화시설 > 박물관",37.5705287204247,126.989087888751,서울 종로구 종로2가 40
아트라운지멋진하늘,"문화,예술 > 문화시설 > 공연장,연극극장",37.572802737719,126.988109512283,서울 종로구 낙원동 284-6
중앙공예,"문화,예술 > 문화시설 > 미술관",37.5742191397822,126.988494173068,서울 종로구 낙원동 58-1
동인문화원,"문화,예술 > 문화시설 > 문화원",37.5752283118195,126.989105315554,서울 종로구 익선동 30-6
두산아트센터,"문화,예술 > 문화시설 > 공연장,연극극장",37.5718482775218,127.001000671841,서울 종로구 연지동 270
두산아트센터 연강홀,"문화,예술 > 문화시설 > 공연장,연극극장",37.571743761114,127.001109340536,서울 종로구 연지동 269
두산아트센터 스페이스111,"문화,예술 > 문화시설 > 공연장,연극극장",37.5716608710148,127.000941806432,서울 종로구 연지동 269-2
더씨어터,"문화,예술 > 문화시설 > 공연장,연극극장",37.5740611137048,127.001661798335,서울 종로구 효제동 64-2
두산갤러리,"문화,예술 > 문화시설 > 전시관",37.57164645286561,127.00118857759936,서울 종로구 연지동 272-1
한국교회 100주년기념관 대공연장,"문화,예술 > 문화시설 > 공연장,연극극장",37.5746449686871,127.000556955834,서울 종로구 연지동 135
가나의집,"문화,예술 > 문화시설 > 공연장,연극극장",37.57393497845523,127.00134596381976,서울 종로구 연지동 136-26
열림홀,"문화,예술 > 문화시설 > 공연장,연극극장",37.57397822580094,127.00138105703086,서울 종로구 연지동 136-25
파라디소극장,"문화,예술 > 문화시설 > 공연장,연극극장",37.5728826128966,127.001625548232,서울 종로구 연지동 136-46
엘로힘프로덕션,"문화,예술 > 문화시설 > 공연장,연극극장",37.572958296097,127.001652717841,서울 종로구 연지동 136-46
네팔문화원,"문화,예술 > 문화시설 > 문화원",37.575340513572,126.997604614826,서울 종로구 원남동 89-3
국립현대미술관 서울,"문화,예술 > 문화시설 > 미술관",37.578627489574416,126.9800979573524,서울 종로구 소격동 165-10
국립고궁박물관,"문화,예술 > 문화시설 > 박물관",37.57656320804203,126.97483446000231,서울 종로구 세종로 1-57
국제갤러리 본관,"문화,예술 > 문화시설 > 미술관",37.5806836181488,126.980459686997,서울 종로구 소격동 59-1
금호미술관,"문화,예술 > 문화시설 > 미술관",37.577465172613,126.979894494703,서울 종로구 사간동 78
국립민속박물관 추억의거리,"문화,예술 > 문화시설 > 박물관",37.581161936829,126.979811987803,서울 종로구 세종로 1-1
갤러리현대 본관,"문화,예술 > 문화시설 > 미술관",37.57663534934952,126.97985056770656,서울 종로구 사간동 122
종로문화원,"문화,예술 > 문화시설 > 문화원",37.57610474931733,126.98035899939175,서울 종로구 사간동 122-4
인디프레스갤러리,"문화,예술 > 문화시설 > 미술관",37.5787830144003,126.973717475463,서울 종로구 통의동 7-25
국립고궁박물관 별관,"문화,예술 > 문화시설 > 박물관",37.57795064910381,126.9744151256585,서울 종로구 세종로 1-1
보안1942,"문화,예술 > 문화시설 > 전시관",37.579001044091,126.973668718956,서울 종로구 통의동 2-1
세움아트스페이스,"문화,예술 > 문화시설 > 미술관",37.5801862273384,126.980206224812,서울 종로구 소격동 73
아프리카미술관,"문화,예술 > 문화시설 > 미술관",37.5779300886963,126.979912482877,서울 종로구 사간동 69
광화시대,"문화,예술 > 문화시설 > 전시관",37.5757790994531,126.973717399222,서울 종로구 적선동 81-1
서울공예박물관,"문화,예술 > 문화시설 > 박물관",37.57663678742704,126.98329088000077,서울 종로구 안국동 175-112
아트선재센터,"문화,예술 > 문화시설 > 미술관",37.5795738136114,126.981836609,서울 종로구 소격동 144-2
전통주갤러리,"문화,예술 > 문화시설 > 전시관",37.57840306918705,126.9858376674118,서울 종로구 재동 55
서울교육박물관,"문화,예술 > 문화시설 > 박물관",37.5798082848136,126.983276586049,서울 종로구 화동 2
서울공예박물관 어린이박물관,"문화,예술 > 문화시설 > 박물관",37.5769043261638,126.982895731892,서울 종로구 안국동 175-112
송원아트센터,"문화,예술 > 문화시설 > 전시관",37.579328983475,126.983471413583,서울 종로구 화동 106-5
57th갤러리,"문화,예술 > 문화시설 > 미술관",37.5764555849566,126.982581124232,서울 종로구 송현동 57
CN갤러리,"문화,예술 > 문화시설 > 전시관",37.5800387431225,126.981945178203,서울 종로구 소격동 117-1
가고시포갤러리,"문화,예술 > 문화시설 > 미술관",37.5802802431958,126.98216701332,서울 종로구 화동 99
코너갤러리,"문화,예술 > 문화시설 > 전시관",37.5794813164535,126.98394233236851,서울 종로구 재동 2-1
뮤지엄헤드,"문화,예술 > 문화시설 > 전시관",37.581253042755144,126.9869647231712,서울 종로구 계동 133-6
위크앨리,"문화,예술 > 문화시설 > 전시관",37.580771873736,126.98662177567,서울 종로구 계동 77-1
바라캇컨템포러리,"문화,예술 > 문화시설 > 미술관",37.580862046606576,126.9806521004518,서울 종로구 소격동 55
북촌박물관,"문화,예술 > 문화시설 > 박물관",37.5802986236203,126.984739162023,서울 종로구 가회동 170-4
갤러리 기체,"문화,예술 > 문화시설 > 미술관",37.580434304397414,126.98210923887864,서울 종로구 화동 90-1
세계장신구박물관,"문화,예술 > 문화시설 > 박물관",37.5809901716813,126.981809094039,서울 종로구 화동 75-3
사이아트센터,"문화,예술 > 문화시설 > 전시관",37.57735767367937,126.98394505254768,서울 종로구 안국동 63-1
갤러리담,"문화,예술 > 문화시설 > 미술관",37.5790803053311,126.983444298366,서울 종로구 안국동 7-1
전북도립미술관 서울관,"문화,예술 > 문화시설 > 미술관",37.57902883969337,126.98268467709872,서울 종로구 화동 137-1
탑골미술관,"문화,예술 > 문화시설 > 미술관",37.575941553048,126.985840397691,서울 종로구 경운동 90-3
갤러리더플럭스,"문화,예술 > 문화시설 > 전시관",37.5773504697247,126.983974487784,서울 종로구 안국동 63-1
아원 갤러리,"문화,예술 > 문화시설 > 전시관",37.5797450549045,126.982180726181,서울 종로구 소격동 143
아트로직 스페이스,"문화,예술 > 문화시설 > 전시관",37.5773369543497,126.983971094487,서울 종로구 안국동 63-1
러브컨템포러리아트 서울,"문화,예술 > 문화시설 > 미술관",37.5806192830469,126.984025864444,서울 종로구 가회동 99
서울공예박물관 직물보존연구센터,"문화,예술 > 문화시설 > 전시관",37.5764053252878,126.98396450188,서울 종로구 안국동 175-112
북촌전시실,"문화,예술 > 문화시설 > 전시관",37.5795739973557,126.983072860692,서울 종로구 화동 2
갤러리일지,"문화,예술 > 문화시설 > 미술관",37.5777072447652,126.983837430804,서울 종로구 안국동 56
한국국제아트페어,"문화,예술 > 문화시설 > 미술관",37.575741491046315,126.98550082337964,서울 종로구 경운동 89-4
제이콥1212,"문화,예술 > 문화시설 > 미술관",37.579070582637,126.984845829227,서울 종로구 재동 27-1
국제갤러리 송현재,"문화,예술 > 문화시설 > 미술관",37.5805250730951,126.980640866522,서울 종로구 소격동 60-12
명인박물관,"문화,예술 > 문화시설 > 박물관",37.5801256927512,126.985210153839,서울 종로구 가회동 208-7
한글전각미술관,"문화,예술 > 문화시설 > 미술관",37.57559556952654,126.98582687874092,서울 종로구 경운동 89-4
킵인터치,"문화,예술 > 문화시설 > 전시관",37.5773145581055,126.984948070912,서울 종로구 안국동 109
청남문화원,"문화,예술 > 문화시설 > 문화원",37.58034548216515,126.98479236164512,서울 종로구 가회동 170-4
투게더투게더,"문화,예술 > 문화시설 > 전시관",37.5788351614321,126.982928120757,서울 종로구 안국동 17-5
역사가옥박물관,"문화,예술 > 문화시설 > 박물관",37.5809616615844,126.984032584012,서울 종로구 가회동 93-1
JY아트갤러리,"문화,예술 > 문화시설 > 전시관",37.5805540837313,126.9817639156,서울 종로구 소격동 35-3
운현궁 유물전시관,"문화,예술 > 문화시설 > 전시관",37.5764462302652,126.986881789335,서울 종로구 운니동 114-10
갤러리재동,"문화,예술 > 문화시설 > 미술관",37.5786336924248,126.985579508481,서울 종로구 재동 60
한옥란갤러리,"문화,예술 > 문화시설 > 전시관",37.5772605024865,126.984979779575,서울 종로구 안국동 110
크래프트온더힐,"문화,예술 > 문화시설 > 전시관",37.5806462943974,126.983890004886,서울 종로구 가회동 97
제이갤러리,"문화,예술 > 문화시설 > 미술관",37.575741491046315,126.98550082337964,서울 종로구 경운동 89-4
아티스트큐브,"문화,예술 > 문화시설 > 전시관",37.577321638523,126.983979022221,서울 종로구 안국동 63-1
국립민속박물관,"문화,예술 > 문화시설 > 박물관",37.581699691218866,126.9790159546164,서울 종로구 세종로 1-1
국립민속박물관 어린이박물관,"문화,예술 > 문화시설 > 박물관",37.58168625594765,126.9794688106425,서울 종로구 세종로 1-1
PKM갤러리,"문화,예술 > 문화시설 > 미술관",37.5840965170627,126.980073858136,서울 종로구 삼청동 157-83
공근혜갤러리,"문화,예술 > 문화시설 > 미술관",37.58404598373672,126.97961874072315,서울 종로구 삼청동 157-78
스튜디오 공옥,"문화,예술 > 문화시설 > 미술관",37.5827270565494,126.980368581207,서울 종로구 팔판동 123-3
공근혜갤러리 2관,"문화,예술 > 문화시설 > 미술관",37.5840297756194,126.979675353448,서울 종로구 삼청동 157-78
어둠속의대화,"문화,예술 > 문화시설 > 전시관",37.5833349800145,126.98480081078836,서울 종로구 가회동 1-29
이음더플레이스,"문화,예술 > 문화시설 > 미술관",37.5820137903565,126.982402084039,서울 종로구 삼청동 35-3
한벽원미술관,"문화,예술 > 문화시설 > 미술관",37.583044384109,126.981468948854,서울 종로구 팔판동 35-1
북촌동양문화박물관,"문화,예술 > 문화시설 > 박물관",37.58399791638415,126.98335716479964,서울 종로구 삼청동 35-35
지우헌,"문화,예술 > 문화시설 > 전시관",37.5833833879806,126.9829995402,서울 종로구 가회동 31-94
갤러리민정,"문화,예술 > 문화시설 > 미술관",37.5833066515375,126.981974957211,서울 종로구 삼청동 63-12
더아트나인 갤러리,"문화,예술 > 문화시설 > 미술관",37.5862339047675,126.981499859787,서울 종로구 삼청동 118-1
갤러리신라 서울,"문화,예술 > 문화시설 > 미술관",37.585288820073686,126.98186692168184,서울 종로구 삼청동 109-1
가회민화박물관,"문화,예술 > 문화시설 > 박물관",37.581509621394,126.985227994125,서울 종로구 가회동 28
북촌생활사박물관,"문화,예술 > 문화시설 > 박물관",37.5844789964215,126.983003819743,서울 종로구 삼청동 35-177
북촌한옥역사관,"문화,예술 > 문화시설 > 전시관",37.5823135234214,126.987066430886,서울 종로구 계동 25
꼭두랑한옥,"문화,예술 > 문화시설 > 박물관",37.582907747744834,126.98359515880888,서울 종로구 가회동 31-45
동림매듭공방,"문화,예술 > 문화시설 > 박물관",37.5818088015703,126.985635502714,서울 종로구 가회동 11-7
정수아트센터,"문화,예술 > 문화시설 > 미술관",37.58623210278167,126.98149986023284,서울 종로구 삼청동 118-1
태오양스튜디오,"문화,예술 > 문화시설 > 전시관",37.5817115760173,126.986323857061,서울 종로구 계동 67-22
MGFS100 갤러리,"문화,예술 > 문화시설 > 전시관",37.5861880075723,126.981844059587,서울 종로구 삼청동 28-24
양유당,"문화,예술 > 문화시설 > 전시관",37.5830837463119,126.985959053167,서울 종로구 가회동 11-14
가모갤러리,"문화,예술 > 문화시설 > 미술관",37.58404277976731,126.982084599857,서울 종로구 삼청동 62-26
푸투라 서울,"문화,예술 > 문화시설 > 미술관",37.5822501977245,126.984908584549,서울 종로구 가회동 30-1
눅갤러리,"문화,예술 > 문화시설 > 미술관",37.5843158929053,126.982839692107,서울 종로구 삼청동 35-192
아트스페이스영,"문화,예술 > 문화시설 > 미술관",37.5864843629856,126.981386577471,서울 종로구 삼청동 140
진현재,"문화,예술 > 문화시설 > 전시관",37.5848637722592,126.98336716164552,서울 종로구 삼청동 35-167
중앙고등학교 3.1기념관,"문화,예술 > 문화시설 > 기념관",37.584007366456966,126.98684423335114,서울 종로구 계동 1
갤러리미앙헌,"문화,예술 > 문화시설 > 미술관",37.5832606550342,126.981677211671,서울 종로구 팔판동 27-6
학고재디자인프로젝트스페이스,"문화,예술 > 문화시설 > 전시관",37.5827344008541,126.981206367698,서울 종로구 팔판동 43-1
일민문화재단기념관,"문화,예술 > 문화시설 > 기념관",37.5837657571027,126.985617012109,서울 종로구 가회동 5-7
코리아미술관,"문화,예술 > 문화시설 > 전시관",37.5820108904483,126.981127300083,서울 종로구 팔판동 64
삼청동갤러리작,"문화,예술 > 문화시설 > 미술관",37.5825993939352,126.982121174368,서울 종로구 삼청동 35-110
서울돈화문국악당,"문화,예술 > 문화시설 > 공연장,연극극장",37.5772214457464,126.990671800431,서울 종로구 와룡동 13
아라리오뮤지엄 인 스페이스,"문화,예술 > 문화시설 > 미술관",37.5777438354931,126.988547970142,서울 종로구 원서동 229
서울우리소리박물관,"문화,예술 > 문화시설 > 박물관",37.57714207035938,126.9896189928122,서울 종로구 와룡동 5-9
북촌창우극장,"문화,예술 > 문화시설 > 공연장,연극극장",37.5788863263743,126.988864779873,서울 종로구 원서동 158-1
은덕문화원,"문화,예술 > 문화시설 > 문화원",37.5797440971233,126.989127299618,서울 종로구 원서동 129-5
북촌나래홀,"문화,예술 > 문화시설 > 공연장,연극극장",37.5788394333206,126.988434593589,서울 종로구 원서동 174
서울무형문화재 교육전시장,"문화,예술 > 문화시설 > 전시관",37.576936765090245,126.9911065465007,서울 종로구 권농동 127-4
나마갤러리,"문화,예술 > 문화시설 > 미술관",37.5756068761527,126.990830487242,서울 종로구 와룡동 93-1
한옥문화원,"문화,예술 > 문화시설 > 문화원",37.5757616972513,126.989069012536,서울 종로구 운니동 65-1
성재전통건축자료관,"문화,예술 > 문화시설 > 박물관",37.580280977462,126.987972469986,서울 종로구 원서동 135-2
대한황실문화원,"문화,예술 > 문화시설 > 문화원",37.57648439006445,126.990151148504,서울 종로구 와룡동 139
소공헌,"문화,예술 > 문화시설 > 전시관",37.5796558001363,126.989131840857,서울 종로구 원서동 134-1
본태 더 팔라스 131,"문화,예술 > 문화시설 > 전시관",37.576915054732,126.99002430124,서울 종로구 와룡동 131
국악기전시관,"문화,예술 > 문화시설 > 전시관",37.5759275462779,126.98980708063,서울 종로구 운니동 49-1
플레이스비원,"문화,예술 > 문화시설 > 미술관",37.5811712733897,126.989149734534,서울 종로구 원서동 102
갤러리 오뉴월,"문화,예술 > 문화시설 > 미술관",37.5794566278812,126.988574878137,서울 종로구 원서동 136-3
홍익대학교 대학로아트센터 대극장,"문화,예술 > 문화시설 > 공연장,연극극장",37.576681207884405,127.00152148175482,서울 종로구 연건동 128-8
서울대학교병원 의학박물관,"문화,예술 > 문화시설 > 박물관",37.5784868086925,126.99940678892,서울 종로구 연건동 28-21
홍익대학교 대학로아트센터 갤러리,"문화,예술 > 문화시설 > 공연장,연극극장",37.5766956249272,127.001430917641,서울 종로구 연건동 128-8
홍익대학교 대학로아트센터 소극장,"문화,예술 > 문화시설 > 공연장,연극극장",37.5764145151565,127.001390158431,서울 종로구 연건동 128-8
중국어문화원,"문화,예술 > 문화시설 > 문화원",37.5765082120922,126.998138906088,서울 종로구 원남동 4-1
고희동미술관,"문화,예술 > 문화시설 > 미술관",37.583131818761565,126.98897056989716,서울 종로구 원서동 16
인사미술공간,"문화,예술 > 문화시설 > 미술관",37.58154339041102,126.98922213675354,서울 종로구 원서동 90
갤러리림,"문화,예술 > 문화시설 > 미술관",37.5814307693015,126.9892561167921,서울 종로구 원서동 92
포스포스키,"문화,예술 > 문화시설 > 미술관",37.58314250445,126.987693500071,서울 종로구 원서동 4-61
국립어린이과학관,"문화,예술 > 문화시설 > 과학관",37.58193577739816,126.99703380777856,서울 종로구 와룡동 2-70
안똔체홉극장,"문화,예술 > 문화시설 > 공연장,연극극장",37.5830818402188,126.996997533451,서울 종로구 명륜3가 140-4
한국창극원 창덕궁소극장,"문화,예술 > 문화시설 > 공연장,연극극장",37.58242232968515,126.99774703781088,서울 종로구 명륜4가 198-3
스튜디오sk소극장,"문화,예술 > 문화시설 > 공연장,연극극장",37.5839071525106,126.997092602105,서울 종로구 명륜3가 122-2
미송아트홀,"문화,예술 > 문화시설 > 공연장,연극극장",37.5838530995953,126.997377909402,서울 종로구 명륜3가 127
아트씨어터 문,"문화,예술 > 문화시설 > 공연장,연극극장",37.583089048797,126.997022440503,서울 종로구 명륜3가 141-7
CGV 대학로,"문화,예술 > 영화,영상 > 영화관 > CGV",37.583458493533186,126.99984149795074,서울 종로구 명륜2가 41-9
후암씨어터,"문화,예술 > 문화시설 > 공연장,연극극장",37.5821160122321,127.000520783096,서울 종로구 명륜4가 113-1
한성아트홀,"문화,예술 > 문화시설 > 공연장,연극극장",37.5837630293767,126.999950184867,서울 종로구 명륜2가 41-4
서연아트홀,"문화,예술 > 문화시설 > 공연장,연극극장",37.5839107908654,127.000579668144,서울 종로구 명륜2가 21-10
열린극장,"문화,예술 > 문화시설 > 공연장,연극극장",37.5836873454728,127.000335119644,서울 종로구 명륜2가 21-18
후암스테이지,"문화,예술 > 문화시설 > 공연장,연극극장",37.5820799726622,127.000480025927,서울 종로구 명륜4가 113-1
대학로스타시티극장,"문화,예술 > 문화시설 > 공연장,연극극장",37.582119616246,127.000511726023,서울 종로구 명륜4가 113-1
소극장 무극,"문화,예술 > 문화시설 > 공연장,연극극장",37.581809672588,127.000837778069,서울 종로구 명륜4가 111-2
한성아트홀 2관,"문화,예술 > 문화시설 > 공연장,연극극장",37.5836981578662,127.000022643222,서울 종로구 명륜2가 41-4
피카소소극장,"문화,예술 > 문화시설 > 공연장,연극극장",37.5825629058052,127.000294357422,서울 종로구 명륜4가 70-4
대학로스타시티 콘텐츠룸,"문화,예술 > 문화시설 > 공연장,연극극장",37.5820583490085,127.000430211791,서울 종로구 명륜4가 113-1
한성아트홀 1관,"문화,예술 > 문화시설 > 공연장,연극극장",37.5837558214337,126.999959242168,서울 종로구 명륜2가 41-4
백기완마당집,"문화,예술 > 문화시설 > 기념관",37.5816628131957,127.000309071573,서울 종로구 명륜4가 133
동화소극장,"문화,예술 > 문화시설 > 공연장,연극극장",37.5837810405789,126.998568946752,서울 종로구 명륜2가 208-5
타이니앨리스,"문화,예술 > 문화시설 > 공연장,연극극장",37.5821232199063,127.000579654284,서울 종로구 명륜4가 113-1
아트포럼뉴게이트,"문화,예술 > 문화시설 > 미술관",37.5828908675135,127.000258129949,서울 종로구 명륜4가 66-3
아트홀마리카 1관,"문화,예술 > 문화시설 > 공연장,연극극장",37.5820799726622,127.000480025927,서울 종로구 명륜4가 113-1
바다씨어터,"문화,예술 > 문화시설 > 공연장,연극극장",37.5831323297146,127.00100988008,서울 종로구 명륜4가 16-1
대학로 진건아트홀,"문화,예술 > 문화시설 > 공연장,연극극장",37.5823286465228,126.999438458369,서울 종로구 명륜4가 166-1
뮤지컬 수컴퍼니,"문화,예술 > 문화시설 > 공연장,연극극장",37.5838819528406,127.001345010722,서울 종로구 혜화동 166-4
성균소극장,"문화,예술 > 문화시설 > 공연장,연극극장",37.584141429518,126.997993798592,서울 종로구 명륜2가 149
정문규미술관 서울,"문화,예술 > 문화시설 > 미술관",37.585269369561,126.994667409029,서울 종로구 명륜3가 61-8
명륜아트홀,"문화,예술 > 문화시설 > 공연장,연극극장",37.5868047368621,126.996734711625,서울 종로구 명륜1가 72-3
선돌극장,"문화,예술 > 문화시설 > 공연장,연극극장",37.5868264056281,126.999769029465,서울 종로구 명륜1가 46-11
씨어터쿰,"문화,예술 > 문화시설 > 공연장,연극극장",37.58442075361745,126.9995516598612,서울 종로구 명륜2가 8
예술공간혜화,"문화,예술 > 문화시설 > 공연장,연극극장",37.5866353944818,127.000457411066,서울 종로구 혜화동 74-38
극장 동국,"문화,예술 > 문화시설 > 공연장,연극극장",37.58451265576224,127.00005660867298,서울 종로구 명륜2가 13
창조소극장,"문화,예술 > 문화시설 > 공연장,연극극장",37.584563111386,127.000045286969,서울 종로구 명륜2가 13
지즐소극장,"문화,예술 > 문화시설 > 공연장,연극극장",37.5847361016711,126.999687519191,서울 종로구 명륜2가 8-16
해오름예술극장,"문화,예술 > 문화시설 > 공연장,연극극장",37.5844135451658,127.000566085979,서울 종로구 명륜2가 21-1
연극실험실 혜화동1번지,"문화,예술 > 문화시설 > 공연장,연극극장",37.5863939214017,127.00136317115,서울 종로구 혜화동 88-1
짚풀생활사박물관,"문화,예술 > 문화시설 > 박물관",37.5849235086584,126.999981885125,서울 종로구 명륜2가 8-3
서완소극장,"문화,예술 > 문화시설 > 공연장,연극극장",37.5842207330686,127.000461924968,서울 종로구 명륜2가 21-23
나무와물,"문화,예술 > 문화시설 > 공연장,연극극장",37.58488206239133,127.00037135472977,서울 종로구 명륜2가 8-1
한얼소극장,"문화,예술 > 문화시설 > 공연장,연극극장",37.5867290873039,127.001634906949,서울 종로구 혜화동 70-1
서울호서아트홀,"문화,예술 > 문화시설 > 공연장,연극극장",37.5845216599476,127.00116613880375,서울 종로구 혜화동 143-2
아름다운극장,"문화,예술 > 문화시설 > 공연장,연극극장",37.58471447823776,127.00005094794324,서울 종로구 명륜2가 8-9
꿈꾸는공작소,"문화,예술 > 문화시설 > 공연장,연극극장",37.5868948810658,127.000240028422,서울 종로구 혜화동 74-12
해븐 생명사랑,"문화,예술 > 문화시설 > 공연장,연극극장",37.5847072699017,126.999692048017,서울 종로구 명륜2가 8-16
풍기문란센터,"문화,예술 > 문화시설 > 공연장,연극극장",37.584379302588,126.998790840902,서울 종로구 명륜2가 160-2
석파정 서울미술관,"문화,예술 > 문화시설 > 미술관",37.59492059415746,126.9632162240255,서울 종로구 부암동 202-4
윤동주문학관,"문화,예술 > 문화시설 > 전시관",37.5921304732029,126.967118332223,서울 종로구 청운동 3-100
서울시립 미술아카이브,"문화,예술 > 문화시설 > 미술관",37.60778643279106,126.97193826762,서울 종로구 평창동 148-16
목인박물관 목석원,"문화,예술 > 문화시설 > 박물관",37.589010118837855,126.9633199024179,서울 종로구 부암동 338-42
무계원,"문화,예술 > 문화시설 > 문화원",37.591909528303,126.963372829163,서울 종로구 부암동 327
화정박물관,"문화,예술 > 문화시설 > 박물관",37.6046971618139,126.965939553026,서울 종로구 평창동 273-1
상명아트센터 계당홀,"문화,예술 > 문화시설 > 공연장,연극극장",37.6032993689949,126.956613265866,서울 종로구 홍지동 7-1
환기미술관,"문화,예술 > 문화시설 > 미술관",37.594085340208,126.966109708704,서울 종로구 부암동 210-8
상명아트센터,"문화,예술 > 문화시설 > 공연장,연극극장",37.6029532868975,126.956337148378,서울 종로구 홍지동 7-1
서울아트센터 도암홀,"문화,예술 > 문화시설 > 공연장,연극극장",37.6060332882929,126.969060112452,서울 종로구 평창동 217
자하미술관,"문화,예술 > 문화시설 > 미술관",37.5893893617136,126.96030340960624,서울 종로구 부암동 362-21
삼성출판박물관,"문화,예술 > 문화시설 > 박물관",37.6087090847805,126.957085790478,서울 종로구 구기동 126-4
하랑갤러리,"문화,예술 > 문화시설 > 미술관",37.5941662886414,126.965622774547,서울 종로구 부암동 210-15
에이라운지,"문화,예술 > 문화시설 > 미술관",37.5937231863466,126.966266132123,서울 종로구 부암동 239-9
석파정 서울미술관 신관,"문화,예술 > 문화시설 > 미술관",37.59432854388868,126.96290059758287,서울 종로구 부암동 287
김달진 미술자료박물관,"문화,예술 > 문화시설 > 박물관",37.6000450086259,126.956660452087,서울 종로구 홍지동 44
쌀롱드무지끄,"문화,예술 > 문화시설 > 공연장,연극극장",37.5923644128308,126.96599499528892,서울 종로구 부암동 251-4
상명아트센터 대신홀,"문화,예술 > 문화시설 > 공연장,연극극장",37.6030903226352,126.956568089078,서울 종로구 홍지동 7-1
유금와당박물관,"문화,예술 > 문화시설 > 박물관",37.59369776622138,126.96263594959083,서울 종로구 부암동 302-5
프로젝트 스페이스 미음,"문화,예술 > 문화시설 > 미술관",37.6085928874806,126.972230159526,서울 종로구 평창동 148-1
JJ중정갤러리,"문화,예술 > 문화시설 > 미술관",37.6047157866563,126.968104845407,서울 종로구 평창동 234-33
공간일리 수경재배,"문화,예술 > 문화시설 > 전시관",37.60399830616461,126.96112008509591,서울 종로구 신영동 222
쉼박물관 (휴관중),"문화,예술 > 문화시설 > 박물관",37.5994680062094,126.955668804423,서울 종로구 홍지동 36-20
상명대학교 월해갤러리,"문화,예술 > 문화시설 > 미술관",37.6028572307159,126.954871812508,서울 종로구 홍지동 7-1
본화랑,"문화,예술 > 문화시설 > 미술관",37.59910001285726,126.95960522563227,서울 종로구 홍지동 127-11
위상공간,"문화,예술 > 문화시설 > 전시관",37.5879784113506,126.946604226098,서울 서대문구 홍제동 179-10
스페이스셀,"문화,예술 > 문화시설 > 공연장,연극극장",37.60358347427896,126.96274651693548,서울 종로구 신영동 72-7
살롱드뮤지끄 부암,"문화,예술 > 문화시설 > 공연장,연극극장",37.5923734234016,126.965997255774,서울 종로구 부암동 251-4
서울아트센터 도암갤러리,"문화,예술 > 문화시설 > 전시관",37.6060314984771,126.969106545672,서울 종로구 평창동 217
상명아트센터 콘서트홀,"문화,예술 > 문화시설 > 공연장,연극극장",37.6030362915427,126.956645127365,서울 종로구 홍지동 7-1
갤러리 메일란,"문화,예술 > 문화시설 > 미술관",37.59777466219882,126.96235194983602,서울 종로구 부암동 185-5
가인갤러리,"문화,예술 > 문화시설 > 미술관",37.6067918871185,126.968928426959,서울 종로구 평창동 158-1
로즈갤러리,"문화,예술 > 문화시설 > 전시관",37.60534759776654,126.96566745906814,서울 종로구 평창동 323-4
구암남상해역사관,"문화,예술 > 문화시설 > 박물관",37.59750983891936,126.9625661012528,서울 종로구 부암동 187-1
상명대학교 스페이스제로 갤러리,"문화,예술 > 문화시설 > 미술관",37.60323605302004,126.95594741788192,서울 종로구 홍지동 7-1
상명대학교 월해 전시관,"문화,예술 > 문화시설 > 전시관",37.6030861193992,126.954969065354,서울 종로구 홍지동 7-1
뮤지엄한미 삼청,"문화,예술 > 문화시설 > 미술관",37.58786366786638,126.9806706683131,서울 종로구 삼청동 5
뮤지엄한미 삼청별관,"문화,예술 > 문화시설 > 미술관",37.5883493638341,126.98104644359,서울 종로구 삼청동 4-2
변종하미술관,"문화,예술 > 문화시설 > 미술관",37.5982609724817,126.986058115985,서울 성북구 성북동 330-484
새김아트,"문화,예술 > 문화시설 > 미술관",37.5877010108031,126.983451446958,서울 종로구 삼청동 산 2-1
CAC리딩룸,"문화,예술 > 문화시설 > 전시관",37.5878899752343,126.98179382831,서울 종로구 삼청동 18-4
갤러리롤랑,"문화,예술 > 문화시설 > 미술관",37.5882773456148,126.981431420209,서울 종로구 삼청동 1-3
아트그라운드 헵타,"문화,예술 > 문화시설 > 전시관",37.5874088908715,126.982092850856,서울 종로구 삼청동 25-7
간송미술관,"문화,예술 > 문화시설 > 미술관",37.59444243403915,126.99625540492724,서울 성북구 성북동 81-2
성균관대학교 새천년홀,"문화,예술 > 문화시설 > 공연장,연극극장",37.5874353512492,126.994551768303,서울 종로구 명륜3가 53-21
아이들극장,"문화,예술 > 문화시설 > 공연장,연극극장",37.59039432628729,126.99845219709556,서울 종로구 혜화동 1-21
최순우옛집,"문화,예술 > 문화시설 > 기념관",37.59290089595328,127.0003510131624,서울 성북구 성북동 126-20
성북구립미술관,"문화,예술 > 문화시설 > 미술관",37.5948451259332,126.994886397801,서울 성북구 성북동 246
미마지아트센터 눈빛극장,"문화,예술 > 문화시설 > 공연장,연극극장",37.587152565115574,126.99981884584912,서울 종로구 명륜1가 36-13
나온씨어터,"문화,예술 > 문화시설 > 공연장,연극극장",37.5877057731972,126.999384071329,서울 종로구 명륜1가 36-4
동숭무대소극장,"문화,예술 > 문화시설 > 공연장,연극극장",37.5887292998328,126.99921649177,서울 종로구 명륜1가 33-30
성북선잠박물관,"문화,예술 > 문화시설 > 박물관",37.5932342500526,126.998220015637,서울 성북구 성북동 66-21
한생연 융합교육과학관,"문화,예술 > 문화시설 > 과학관",37.5894545553128,126.99670176066591,서울 종로구 명륜1가 7-5
성북근현대문학관,"문화,예술 > 문화시설 > 전시관",37.5925026210951,126.997046975971,서울 성북구 성북동 113-86
스페이스캔,"문화,예술 > 문화시설 > 전시관",37.59515878107599,126.99959235949538,서울 성북구 성북동 46-26
리홀아트갤러리,"문화,예술 > 문화시설 > 미술관",37.5945673864408,126.990977628242,서울 성북구 성북동 279-2
엘케이트갤러리,"문화,예술 > 문화시설 > 미술관",37.59606289831378,126.98936724820813,서울 성북구 성북동 330-478
그라운드씬,"문화,예술 > 문화시설 > 공연장,연극극장",37.5899474310905,126.998238210008,서울 종로구 명륜1가 5
한상수자수박물관,"문화,예술 > 문화시설 > 박물관",37.59361267639262,127.0009284952728,서울 성북구 성북동 58-13
성균관대학교 박물관,"문화,예술 > 문화시설 > 박물관",37.5874353514582,126.994556297174,서울 종로구 명륜3가 53-21
운우미술관,"문화,예술 > 문화시설 > 미술관",37.594822711704325,126.99977693106038,서울 성북구 성북동 55-1
옵스큐라,"문화,예술 > 문화시설 > 전시관",37.5923330099624,126.992141894082,서울 성북구 성북동 217-70
바움아트스페이스,"문화,예술 > 문화시설 > 미술관",37.5945743794276,126.988504627687,서울 성북구 성북동 350-4
성균관대학교 경영관소극장,"문화,예술 > 문화시설 > 공연장,연극극장",37.5885705042022,126.992735580753,서울 종로구 명륜3가 53-21
한무숙문학관,"문화,예술 > 문화시설 > 기념관",37.58775532134725,126.9986209529063,서울 종로구 명륜1가 33-100
유영공간,"문화,예술 > 문화시설 > 전시관",37.59394424435818,127.0003951783999,서울 성북구 성북동 58-20
대양역사관,"문화,예술 > 문화시설 > 전시관",37.5977121370897,126.996421699968,서울 성북구 성북동 13-32
캔파운데이션,"문화,예술 > 문화시설 > 전시관",37.5951587811667,126.999619535529,서울 성북구 성북동 46-26
오래된집,"문화,예술 > 문화시설 > 전시관",37.5940091155567,126.999547073074,서울 성북구 성북동 62-11
성북동작은갤러리,"문화,예술 > 문화시설 > 미술관",37.5928233974741,126.998201908633,서울 성북구 성북동 122-7
아뜰리에터닝,"문화,예술 > 문화시설 > 전시관",37.5900627567255,126.998147626687,서울 종로구 명륜1가 5-3
월갤러리,"문화,예술 > 문화시설 > 전시관",37.59373515302598,126.99617731075908,서울 성북구 성북동 97-21
호텔 이매지너리,"문화,예술 > 문화시설 > 전시관",37.59513715729385,127.00040311104908,서울 성북구 성북동 3-78
313아트프로젝트 성북스페이스,"문화,예술 > 문화시설 > 전시관",37.59501053932851,126.98935720695287,서울 성북구 성북동 286-5
아웃사이트,"문화,예술 > 문화시설 > 전시관",37.5872372508871,127.001347335524,서울 종로구 혜화동 71-17
연극실험실일상지하,"문화,예술 > 문화시설 > 공연장,연극극장",37.5931080918512,126.997219062204,서울 성북구 성북동 100-1
공연기획 실험극장,"문화,예술 > 문화시설 > 공연장,연극극장",37.5885851407133,126.999171203876,서울 종로구 명륜1가 33-90
새청년,"문화,예술 > 문화시설 > 공연장,연극극장",37.5905923361713,126.992816907364,서울 종로구 명륜3가 1-1087
글로브극장,"문화,예술 > 문화시설 > 공연장,연극극장",37.5916375675024,126.994288772703,서울 성북구 성북동 210-42
우리옛돌박물관,"문화,예술 > 문화시설 > 박물관",37.60090128282046,126.99008564748388,서울 성북구 성북동 330-605
한국가구박물관,"문화,예술 > 문화시설 > 박물관",37.60001763264553,126.99322140350704,서울 성북구 성북동 330-577
이영미술관,"문화,예술 > 문화시설 > 미술관",37.599876299290464,126.99586445246018,서울 성북구 성북동 15-164
갤러리330,"문화,예술 > 문화시설 > 미술관",37.5995587872203,126.989858212944,서울 성북구 성북동 330-365
서울아트클럽,"문화,예술 > 문화시설 > 미술관",37.6002979319846,126.995058151339,서울 성북구 성북동 15-24
뿌리깊은나무유물관,"문화,예술 > 문화시설 > 기념관",37.5984329210642,126.996138569362,서울 성북구 성북동 13-28
갤러리아트인아트,"문화,예술 > 문화시설 > 미술관",37.5987048000362,126.991819625687,서울 성북구 성북동 330-220
코펌,"문화,예술 > 문화시설 > 박물관",37.6000122255281,126.993201020648,서울 성북구 성북동 330-577
롯데시네마 은평,"문화,예술 > 영화,영상 > 영화관 > 롯데시네마",37.637537034256034,126.91789992144192,서울 은평구 진관동 63
메가박스 고양스타필드,"문화,예술 > 영화,영상 > 영화관 > 메가박스",37.646791523587744,126.8926857986271,경기 고양시 덕양구 동산동 370
은평역사한옥박물관,"문화,예술 > 문화시설 > 박물관",37.6404045181413,126.937978427932,서울 은평구 진관동 135-5
사비나미술관,"문화,예술 > 문화시설 > 미술관",37.63012118353018,126.92927751015938,서울 은평구 진관동 162-4
다문화박물관,"문화,예술 > 문화시설 > 박물관",37.6187994961979,126.932550391279,서울 은평구 불광동 13-27
삼각산금암미술관,"문화,예술 > 문화시설 > 미술관",37.6416279340854,126.941263225457,서울 은평구 진관동 125-29
샤머니즘박물관,"문화,예술 > 문화시설 > 박물관",37.6351391208422,126.92545247781,서울 은평구 진관동 175-836
매직플로우,"문화,예술 > 문화시설 > 전시관",37.646731416157664,126.89297029739724,경기 고양시 덕양구 동산동 370
셋이서문학관,"문화,예술 > 문화시설 > 전시관",37.6414873399403,126.941181757458,서울 은평구 진관동 200
한국기독교역사문화관 (2024년12월예정),"문화,예술 > 문화시설 > 박물관",37.6298379728811,126.928777054209,서울 은평구 진관동 162-13
너나들이센터,"문화,예술 > 문화시설 > 전시관",37.6405742090445,126.938562926995,서울 은평구 진관동 220
은평생활문화센터 인디스테이션,"문화,예술 > 문화시설 > 공연장,연극극장",37.619203979102,126.918206657734,서울 은평구 갈현동 453-1
예술공간 서로,"문화,예술 > 문화시설 > 전시관",37.62177494260147,126.9137714372774,서울 은평구 갈현동 273-8
공간황금향,"문화,예술 > 문화시설 > 전시관",37.6266277220891,126.911425442791,서울 은평구 갈현동 285-166
진관동그림가게,"문화,예술 > 문화시설 > 미술관",37.6512916647154,126.93733479038,서울 은평구 진관동 327-7
가나아트센터,"문화,예술 > 문화시설 > 미술관",37.6123074094318,126.975119159947,서울 종로구 평창동 97
김종영미술관,"문화,예술 > 문화시설 > 미술관",37.613073739708746,126.97756193640366,서울 종로구 평창동 114-8
수애뇨339,"문화,예술 > 문화시설 > 미술관",37.6125243519681,126.978725279578,서울 종로구 평창동 432-8
토탈미술관,"문화,예술 > 문화시설 > 미술관",37.61216787699209,126.9756990938195,서울 종로구 평창동 465-16
삼세영,"문화,예술 > 문화시설 > 전시관",37.613626179307,126.978275317661,서울 종로구 평창동 437-2
영인문학관,"문화,예술 > 문화시설 > 전시관",37.6119102112176,126.971730587066,서울 종로구 평창동 499-3
상명대학교 박물관,"문화,예술 > 문화시설 > 박물관",37.610512829422625,126.9760382700056,서울 종로구 평창동 577-7
북한동역사관,"문화,예술 > 문화시설 > 전시관",37.65235997617738,126.962105701681,경기 고양시 덕양구 북한동 422
국민대학교 대극장,"문화,예술 > 문화시설 > 공연장,연극극장",37.6101872811746,126.997784707665,서울 성북구 정릉동 861-1
아트센터 자인,"문화,예술 > 문화시설 > 전시관",37.6148977661408,126.975186254927,서울 종로구 평창동 466-2
삼세영미술관,"문화,예술 > 문화시설 > 미술관",37.613626179306976,126.97827531766082,서울 종로구 평창동 437-2
일중의집 보현재,"문화,예술 > 문화시설 > 전시관",37.61084410308,126.970753580567,서울 종로구 평창동 141-1
메타포32,"문화,예술 > 문화시설 > 전시관",37.6165133972164,126.975953660482,서울 종로구 평창동 442-7
명원박물관,"문화,예술 > 문화시설 > 박물관",37.61105135046242,127.00018800755733,서울 성북구 정릉동 848-4
일우스페이스 별관,"문화,예술 > 문화시설 > 미술관",37.61452347601,126.973440999127,서울 종로구 평창동 475-5
상원미술관,"문화,예술 > 문화시설 > 미술관",37.6116481804902,126.976560027273,서울 종로구 평창동 456-5
영도미술관,"문화,예술 > 문화시설 > 미술관",37.6119348239837,126.969270594429,서울 종로구 평창동 494-24
서울자브종,"문화,예술 > 문화시설 > 전시관",37.6113978552638,126.957691308849,서울 종로구 구기동 149-3
우리선문화원,"문화,예술 > 문화시설 > 문화원",37.6136499720192,126.956711453609,서울 종로구 구기동 183-6
갤러리나인,"문화,예술 > 문화시설 > 전시관",37.6128219812545,126.954367446571,서울 종로구 구기동 230-63
평창동미술관,"문화,예술 > 문화시설 > 미술관",37.6145240530493,126.976142317382,서울 종로구 평창동 449-7
아트세빈,"문화,예술 > 문화시설 > 미술관",37.6191106311084,126.996180542724,서울 성북구 정릉동 825
평창아트,"문화,예술 > 문화시설 > 전시관",37.6127218240216,126.974928744919,서울 종로구 평창동 462-2
THE GROTTO 아트윈도우,"문화,예술 > 문화시설 > 미술관",37.6127478102438,126.978797702407,서울 종로구 평창동 432-2
국민대학교 박물관,"문화,예술 > 문화시설 > 박물관",37.61290813602805,126.99399266941938,서울 성북구 정릉동 861-1
아트갤러리,"문화,예술 > 문화시설 > 미술관",37.6102143111281,126.997799430182,서울 성북구 정릉동 861-1
키스갤러리,"문화,예술 > 문화시설 > 전시관",37.6117776840095,126.975386626873,서울 종로구 평창동 98-12
아트라운지 디방,"문화,예술 > 문화시설 > 미술관",37.6118251919232,126.978766251893,서울 종로구 평창동 435
아트스페이스 플라스크,"문화,예술 > 문화시설 > 전시관",37.6103457192431,126.993915861114,서울 성북구 정릉동 957-17
김흥수미술관,"문화,예술 > 문화시설 > 미술관",37.6126359728108,126.978168008749,서울 종로구 평창동 111-16
스페이스언더바,"문화,예술 > 문화시설 > 전시관",37.6111522593026,126.9747322034,서울 종로구 평창동 461-1
CGV 동대문,"문화,예술 > 영화,영상 > 영화관 > CGV",37.56872428046827,127.00768809872343,서울 중구 을지로6가 17-2
메가박스 동대문,"문화,예술 > 영화,영상 > 영화관 > 메가박스",37.5667763337993,127.00759281850102,서울 중구 을지로6가 18-21
충무아트센터,"문화,예술 > 문화시설 > 공연장,연극극장",37.5660161094843,127.014809694016,서울 중구 흥인동 131
충무아트센터 대극장,"문화,예술 > 문화시설 > 공연장,연극극장",37.5660269214363,127.014809696157,서울 중구 흥인동 131
한양도성박물관,"문화,예술 > 문화시설 > 박물관",37.5729471865215,127.008544323564,서울 종로구 종로6가 70-6
동대문디자인플라자 디자인전시관,"문화,예술 > 문화시설 > 전시관",37.5667951134511,127.00953969743,서울 중구 을지로7가 2-1
동대문역사문화공원 동대문운동장기념관,"문화,예술 > 문화시설 > 기념관",37.56781489861205,127.01116073789268,서울 중구 신당동 853
충무아트센터 중극장 블랙,"문화,예술 > 문화시설 > 공연장,연극극장",37.5660161094843,127.014809694016,서울 중구 흥인동 131
SeMA 백남준기념관,"문화,예술 > 문화시설 > 기념관",37.5730367921835,127.013769644435,서울 종로구 창신동 197-33
V SPACE,"문화,예술 > 문화시설 > 공연장,연극극장",37.5657609485183,127.006990550174,서울 중구 을지로6가 21-31
광무대,"문화,예술 > 문화시설 > 공연장,연극극장",37.5708172665775,127.008082238065,서울 종로구 종로6가 289-57
동대문디자인플라자 배움터 디자인박물관,"문화,예술 > 문화시설 > 박물관",37.5667338457298,127.009539689617,서울 중구 을지로7가 2-1
동대문디자인플라자(DDP) 동대문역사관1398,"문화,예술 > 문화시설 > 전시관",37.5671156897561,127.011536427721,서울 중구 신당동 853
노보텔앰배서더 서울동대문호텔&레지던스 그랜드볼룸라온,"문화,예술 > 문화시설 > 공연장,연극극장",37.5662692370658,127.004350900001,서울 중구 을지로6가 58-5
테테루 뮤지엄,"문화,예술 > 문화시설 > 전시관",37.56602384595415,127.00972296583336,서울 중구 을지로7가 143
충무아트센터 소극장 블루,"문화,예술 > 문화시설 > 공연장,연극극장",37.5659656576795,127.014777991033,서울 중구 흥인동 131
을지미술관,"문화,예술 > 문화시설 > 미술관",37.56673868283495,127.00354738837498,서울 중구 을지로5가 35-6
동대문디자인플라자 이간수문전시장,"문화,예술 > 문화시설 > 전시관",37.5680203522575,127.010875523754,서울 중구 신당동 853
갤러리 신당,"문화,예술 > 문화시설 > 미술관",37.5659440326415,127.0147870419,서울 중구 흥인동 131
동대문역사문화공원 디자인갤러리,"문화,예술 > 문화시설 > 전시관",37.5670653846654,127.009874777061,서울 중구 을지로7가 2-1
서울365거리공연,"문화,예술 > 문화시설 > 공연장,연극극장",37.5671411146548,127.009304304176,서울 중구 을지로7가 143
YK프레젠츠,"문화,예술 > 문화시설 > 전시관",37.5668890064546,127.006802759083,서울 중구 을지로6가 18-71
B the B,"문화,예술 > 문화시설 > 전시관",37.5665906012455,127.009366490321,서울 중구 을지로7가 143
충무아트센터 컨벤션센터,"문화,예술 > 문화시설 > 공연장,연극극장",37.5659079990284,127.014737231537,서울 중구 흥인동 131
전통문화공간창선당,"문화,예술 > 문화시설 > 공연장,연극극장",37.5706982904337,127.008711597366,서울 종로구 종로6가 289-3
강경대기념관,"문화,예술 > 문화시설 > 기념관",37.5747566201598,127.004156798525,서울 종로구 충신동 128
헬로apm cuex홀,"문화,예술 > 문화시설 > 전시관",37.5674943909857,127.008140738647,서울 중구 을지로6가 18-35
국립중앙의료원 스칸디나비아기념관,"문화,예술 > 문화시설 > 기념관",37.5674331891217,127.007122008575,서울 중구 을지로6가 18-79
갤러리스칸디아,"문화,예술 > 문화시설 > 미술관",37.5674188439799,127.005831624467,서울 중구 을지로6가 18-79
동대문역사문화공원 동대문유구전시장,"문화,예술 > 문화시설 > 전시관",37.567324719902494,127.01154551526456,서울 중구 을지로7가 143
사이언스쇼 인체박물관,"문화,예술 > 문화시설 > 전시관",37.5657321155706,127.007008657706,서울 중구 을지로6가 21-31
훈련원공원 야외극장,"문화,예술 > 문화시설 > 공연장,연극극장",37.5674874019915,127.003816819824,서울 중구 을지로5가 40-3
스컹크,"문화,예술 > 문화시설 > 공연장,연극극장",37.5652133682033,127.020522140031,서울 중구 신당동 140-30
서울특별시문화원연합회,"문화,예술 > 문화시설 > 문화원",37.574336408354455,127.02291207212429,서울 종로구 숭인동 1385
진흥아트홀,"문화,예술 > 문화시설 > 공연장,연극극장",37.5740189737062,127.024333785148,서울 동대문구 신설동 104-7
JTN아트홀,"문화,예술 > 문화시설 > 공연장,연극극장",37.576645112479866,127.00393049263532,서울 종로구 이화동 139
한예극장,"문화,예술 > 문화시설 > 공연장,연극극장",37.578212814024,127.004709444748,서울 종로구 동숭동 199-17
H씨어터,"문화,예술 > 문화시설 > 공연장,연극극장",37.5776001376023,127.004718462711,서울 종로구 이화동 57
JTN아트홀 4관,"문화,예술 > 문화시설 > 공연장,연극극장",37.5766306962676,127.00393954831,서울 종로구 이화동 139
졸탄극장,"문화,예술 > 문화시설 > 공연장,연극극장",37.5778956671174,127.004632443792,서울 종로구 이화동 36-2
JTN아트홀 2관,"문화,예술 > 문화시설 > 공연장,연극극장",37.5766451124799,127.003930492635,서울 종로구 이화동 139
JTN아트홀 1관,"문화,예술 > 문화시설 > 공연장,연극극장",37.5766306962676,127.00393954831,서울 종로구 이화동 139
JTN아트홀 3관,"문화,예술 > 문화시설 > 공연장,연극극장",37.5766306962676,127.00393954831,서울 종로구 이화동 139
이수아트홀,"문화,예술 > 문화시설 > 공연장,연극극장",37.577895667295,127.004627915499,서울 종로구 이화동 36-2
익스트림씨어터 2관,"문화,예술 > 문화시설 > 공연장,연극극장",37.5776325737569,127.004709408204,서울 종로구 이화동 57
이승만대통령기념관,"문화,예술 > 문화시설 > 기념관",37.5784109530219,127.006403050498,서울 종로구 이화동 1
북극곰소극장,"문화,예술 > 문화시설 > 공연장,연극극장",37.5773874578338,127.005737308302,서울 종로구 이화동 28-18
이화동마을박물관,"문화,예술 > 문화시설 > 박물관",37.57786305547463,127.0079358301076,서울 종로구 이화동 9-434
종로마루홀,"문화,예술 > 문화시설 > 공연장,연극극장",37.5766648461645,127.006022530626,서울 종로구 이화동 25-1
김미연칠보미술관,"문화,예술 > 문화시설 > 미술관",37.5782739043864,127.008001534293,서울 종로구 이화동 9-442
잘살기기념관,"문화,예술 > 문화시설 > 전시관",37.5782379284803,127.006996244786,서울 종로구 이화동 9-411
아뮤스소극장,"문화,예술 > 문화시설 > 공연장,연극극장",37.5773802500996,127.005732779487,서울 종로구 이화동 28-18
유니플렉스,"문화,예술 > 문화시설 > 공연장,연극극장",37.5811717139277,127.003704306017,서울 종로구 동숭동 1-94
콘텐츠박스,"문화,예술 > 문화시설 > 공연장,연극극장",37.5806959747884,127.00413901486,서울 종로구 동숭동 1-145
플러스씨어터,"문화,예술 > 문화시설 > 공연장,연극극장",37.5808257236473,127.003971468634,서울 종로구 동숭동 1-144
유니플렉스 2관,"문화,예술 > 문화시설 > 공연장,연극극장",37.581186135237,127.00352769553,서울 종로구 동숭동 1-99
아르코예술극장,"문화,예술 > 문화시설 > 공연장,연극극장",37.5811825460218,127.002993333291,서울 종로구 동숭동 1-111
예스24 아트원,"문화,예술 > 문화시설 > 공연장,연극극장",37.5803247707903,127.003980498905,서울 종로구 동숭동 1-181
아르코미술관,"문화,예술 > 문화시설 > 미술관",37.5804617445584,127.00323784065,서울 종로구 동숭동 1-130
지인시어터,"문화,예술 > 문화시설 > 공연장,연극극장",37.57983644755506,127.0034925366675,서울 종로구 동숭동 1-131
브릭스씨어터,"문화,예술 > 문화시설 > 공연장,연극극장",37.5809536735174,127.003702030975,서울 종로구 동숭동 1-93
도토리씨어터,"문화,예술 > 문화시설 > 공연장,연극극장",37.5812239611894,127.004021303229,서울 종로구 동숭동 1-89
정극장,"문화,예술 > 문화시설 > 공연장,연극극장",37.5810257449425,127.003951101087,서울 종로구 동숭동 1-92
업스테이지,"문화,예술 > 문화시설 > 공연장,연극극장",37.58008599601545,127.00430540073764,서울 종로구 동숭동 1-150
대학로우리소극장,"문화,예술 > 문화시설 > 공연장,연극극장",37.5792237109437,127.005151024833,서울 종로구 동숭동 192-8
봄날아트홀,"문화,예술 > 문화시설 > 공연장,연극극장",37.579996799713,127.004247658243,서울 종로구 동숭동 1-153
유니플렉스 1관,"문화,예술 > 문화시설 > 공연장,연극극장",37.5812041552463,127.003523167887,서울 종로구 동숭동 1-99
예스24아트원 2관,"문화,예술 > 문화시설 > 공연장,연극극장",37.5803247701781,127.003998612666,서울 종로구 동숭동 1-181
미마지아트센터 물빛극장,"문화,예술 > 문화시설 > 공연장,연극극장",37.5802707255611,127.003527652339,서울 종로구 동숭동 1-133
예스24아트원 1관,"문화,예술 > 문화시설 > 공연장,연극극장",37.5803175625338,127.003989555401,서울 종로구 동숭동 1-181
예스24아트원 3관,"문화,예술 > 문화시설 > 공연장,연극극장",37.5802851266024,127.003994082108,서울 종로구 동숭동 1-181
아르코예술극장 대극장,"문화,예술 > 문화시설 > 공연장,연극극장",37.5812149816802,127.002997863084,서울 종로구 동숭동 1-111
씨어터조이,"문화,예술 > 문화시설 > 공연장,연극극장",37.5786741257057,127.0046415487,서울 종로구 동숭동 192-18
유니플렉스 3관,"문화,예술 > 문화시설 > 공연장,연극극장",37.5812041552463,127.003523167887,서울 종로구 동숭동 1-99
소극장혜화당,"문화,예술 > 문화시설 > 공연장,연극극장",37.5812365749468,127.004025832403,서울 종로구 동숭동 1-89
미마지아트센터 풀빛극장,"문화,예술 > 문화시설 > 공연장,연극극장",37.5803283897068,127.003509541298,서울 종로구 동숭동 1-133
CJ아지트 대학로점,"문화,예술 > 문화시설 > 공연장,연극극장",37.5809590705698,127.003976004196,서울 종로구 동숭동 1-92
무하아트센터,"문화,예술 > 문화시설 > 공연장,연극극장",37.5784939268852,127.004641537514,서울 종로구 동숭동 199-33
중앙대학교 공연예술원,"문화,예술 > 문화시설 > 공연장,연극극장",37.5789227875597,127.004949492293,서울 종로구 동숭동 192-10
마로니에공원 야외무대,"문화,예술 > 문화시설 > 공연장,연극극장",37.5803356230726,127.002513284657,서울 종로구 동숭동 1-124
마로니에공원 좋은공연안내센터 다목적홀,"문화,예술 > 문화시설 > 공연장,연극극장",37.5806707946638,127.002422726701,서울 종로구 동숭동 1-124
청년극장,"문화,예술 > 문화시설 > 공연장,연극극장",37.5803463851677,127.004252206544,서울 종로구 동숭동 1-149
플레이더씨어터,"문화,예술 > 문화시설 > 공연장,연극극장",37.580548195324035,127.00458505936838,서울 종로구 동숭동 130-47
아르코예술극장 소극장,"문화,예술 > 문화시설 > 공연장,연극극장",37.5812149819099,127.002988806095,서울 종로구 동숭동 1-111
홍해성 소극장,"문화,예술 > 문화시설 > 공연장,연극극장",37.5810698801653,127.004334892548,서울 종로구 동숭동 128-16
마당세실극장,"문화,예술 > 문화시설 > 공연장,연극극장",37.5786669173966,127.004650604932,서울 종로구 동숭동 192-18
스튜디오76,"문화,예술 > 문화시설 > 공연장,연극극장",37.5796508167413,127.004283865782,서울 종로구 동숭동 187-12
콘텐츠그라운드,"문화,예술 > 문화시설 > 공연장,연극극장",37.5809590792667,127.00370882396,서울 종로구 동숭동 1-93
하모니아트홀,"문화,예술 > 문화시설 > 공연장,연극극장",37.5810311506773,127.003957894097,서울 종로구 동숭동 1-92
문예진흥원 예술극장,"문화,예술 > 문화시설 > 공연장,연극극장",37.5799535910498,127.002970642001,서울 종로구 동숭동 1-130
아르코예술극장 스튜디오다락,"문화,예술 > 문화시설 > 공연장,연극극장",37.5812113774751,127.003006919927,서울 종로구 동숭동 1-111
아르코예술극장 연습실,"문화,예술 > 문화시설 > 공연장,연극극장",37.581196962379,127.002975219896,서울 종로구 동숭동 1-111
아르코미술관 스페이스필룩스,"문화,예술 > 문화시설 > 미술관",37.5807464579744,127.003260495308,서울 종로구 동숭동 1-130
엘림홀,"문화,예술 > 문화시설 > 공연장,연극극장",37.579578720468,127.004723115964,서울 종로구 동숭동 195-6
윈씨어터,"문화,예술 > 문화시설 > 공연장,연극극장",37.580971698934,127.003520892693,서울 종로구 동숭동 1-100
소극장해피투게더,"문화,예술 > 문화시설 > 공연장,연극극장",37.5807932803587,127.004188833401,서울 종로구 동숭동 1-145
다르게놀자소극장,"문화,예술 > 문화시설 > 공연장,연극극장",37.5800004036886,127.004247658447,서울 종로구 동숭동 1-153
낙산공원 낙산전시관,"문화,예술 > 문화시설 > 전시관",37.5804183260669,127.007127773736,서울 종로구 동숭동 50-111
리미티드앤 언리미티드,"문화,예술 > 문화시설 > 박물관",37.5790164652143,127.005529128693,서울 종로구 동숭동 192-3
뭐든지 소극장,"문화,예술 > 문화시설 > 공연장,연극극장",37.5766907042605,127.010009630482,서울 종로구 창신동 630-1
아트포레스트,"문화,예술 > 문화시설 > 공연장,연극극장",37.5824943902625,127.003088485817,서울 종로구 동숭동 1-66
바탕골 소극장,"문화,예술 > 문화시설 > 공연장,연극극장",37.5818240645092,127.002522391754,서울 종로구 동숭동 1-60
해피씨어터,"문화,예술 > 문화시설 > 공연장,연극극장",37.5818925389481,127.00257220795,서울 종로구 동숭동 1-60
파랑씨어터,"문화,예술 > 문화시설 > 공연장,연극극장",37.5824871968218,127.002472599844,서울 종로구 동숭동 1-57
라온아트홀,"문화,예술 > 문화시설 > 공연장,연극극장",37.5818528899711,127.002803161755,서울 종로구 동숭동 1-61
대학로예술극장,"문화,예술 > 문화시설 > 공연장,연극극장",37.5819682062752,127.003228848811,서울 종로구 동숭동 1-67
컬쳐씨어터,"문화,예술 > 문화시설 > 공연장,연극극장",37.5824763657644,127.003260570751,서울 종로구 동숭동 1-73
스튜디오 블루,"문화,예술 > 문화시설 > 공연장,연극극장",37.5824583458942,127.003260569965,서울 종로구 동숭동 1-73
드림시어터,"문화,예술 > 문화시설 > 공연장,연극극장",37.5823502373355,127.002848466031,서울 종로구 동숭동 1-63
하마씨어터,"문화,예술 > 문화시설 > 공연장,연극극장",37.5822601398146,127.002771477123,서울 종로구 동숭동 1-63
제나아트홀,"문화,예술 > 문화시설 > 공연장,연극극장",37.5816114235726,127.00280768122,서울 종로구 동숭동 1-113
마루아트홀,"문화,예술 > 문화시설 > 공연장,연극극장",37.582299788139,127.002567693402,서울 종로구 동숭동 1-58
아라아트홀,"문화,예술 > 문화시설 > 공연장,연극극장",37.5822871744261,127.002558635851,서울 종로구 동숭동 1-58
대학로예술극장 대극장,"문화,예술 > 문화시설 > 공연장,연극극장",37.5820078501166,127.003224321981,서울 종로구 동숭동 1-67
대학로예술극장 소극장,"문화,예술 > 문화시설 > 공연장,연극극장",37.5820871387794,127.003179039931,서울 종로구 동숭동 1-67
파랑새극장,"문화,예술 > 문화시설 > 공연장,연극극장",37.58161413717315,127.00231860134956,서울 종로구 동숭동 1-115
대학로 연극순위아트홀 1관,"문화,예술 > 문화시설 > 공연장,연극극장",37.581831266017,127.002807689476,서울 종로구 동숭동 1-61
대학로연극 순위아트홀,"문화,예술 > 문화시설 > 공연장,연극극장",37.5818492855652,127.00282127575,서울 종로구 동숭동 1-61
아프리카미술박물관,"문화,예술 > 문화시설 > 박물관",37.5815897996174,127.002812208924,서울 종로구 동숭동 1-113
명작극장 1관,"문화,예술 > 문화시설 > 공연장,연극극장",37.58227699313775,127.00256146585114,서울 종로구 동숭동 1-58
블랙박스시어터,"문화,예술 > 문화시설 > 공연장,연극극장",37.5818276674087,127.002572205718,서울 종로구 동숭동 1-60
대학로우리극장,"문화,예술 > 문화시설 > 공연장,연극극장",37.582224105464,127.002531462361,서울 종로구 동숭동 1-58
대학로예술극장 스튜디오하늘,"문화,예술 > 문화시설 > 공연장,연극극장",37.5819970383172,127.003219792973,서울 종로구 동숭동 1-67
블랙박스시어터 대공연장,"문화,예술 > 문화시설 > 공연장,연극극장",37.5818637070541,127.002576735492,서울 종로구 동숭동 1-60
레몬아트홀,"문화,예술 > 문화시설 > 공연장,연극극장",37.5822961851412,127.002522407682,서울 종로구 동숭동 1-58
대학로극장가게,"문화,예술 > 문화시설 > 공연장,연극극장",37.5816132254252,127.002813341935,서울 종로구 동숭동 1-113
틴틴홀,"문화,예술 > 문화시설 > 공연장,연극극장",37.5816005915118,127.00355488619,서울 종로구 동숭동 1-97
세우아트센터,"문화,예술 > 문화시설 > 공연장,연극극장",37.5819465593204,127.003985113788,서울 종로구 동숭동 1-86
티오엠 1관,"문화,예술 > 문화시설 > 공연장,연극극장",37.5822745319552,127.0036454894,서울 종로구 동숭동 1-80
TOM,"문화,예술 > 문화시설 > 공연장,연극극장",37.58226912599394,127.00364548913682,서울 종로구 동숭동 1-80
아트하우스,"문화,예술 > 문화시설 > 공연장,연극극장",37.5816023886196,127.00371338439,서울 종로구 동숭동 1-96
JS아트홀,"문화,예술 > 문화시설 > 공연장,연극극장",37.5824312810645,127.004347425046,서울 종로구 동숭동 25-11
티오엠 2관,"문화,예술 > 문화시설 > 공연장,연극극장",37.5822745319552,127.0036454894,서울 종로구 동숭동 1-80
댕로홀,"문화,예술 > 문화시설 > 공연장,연극극장",37.5818420527808,127.003717924826,서울 종로구 동숭동 1-78
코델아트홀,"문화,예술 > 문화시설 > 공연장,연극극장",37.5817465280251,127.004290778649,서울 종로구 동숭동 50-24
올래홀,"문화,예술 > 문화시설 > 공연장,연극극장",37.5816005916481,127.003550357673,서울 종로구 동숭동 1-97
해바라기소극장,"문화,예술 > 문화시설 > 공연장,연극극장",37.5816510234397,127.004270394826,서울 종로구 동숭동 50-42
세우아트센터 2관,"문화,예술 > 문화시설 > 공연장,연극극장",37.58188889762789,127.0039285040281,서울 종로구 동숭동 1-86
플랫폼74,"문화,예술 > 문화시설 > 공연장,연극극장",37.5815320911279,127.004302087626,서울 종로구 동숭동 50-44
큐씨어터,"문화,예술 > 문화시설 > 공연장,연극극장",37.5824943778166,127.003532285831,서울 종로구 동숭동 1-74
베리컴퍼니,"문화,예술 > 문화시설 > 공연장,연극극장",37.58230422425768,127.00477989514263,서울 종로구 동숭동 25-25
연극오마이갓전용관,"문화,예술 > 문화시설 > 공연장,연극극장",37.5813050407232,127.004302074561,서울 종로구 동숭동 128-5
키득키득아트홀,"문화,예술 > 문화시설 > 공연장,연극극장",37.5813266644065,127.004306604306,서울 종로구 동숭동 128-5
탑아트홀,"문화,예술 > 문화시설 > 공연장,연극극장",37.5814383877873,127.004302082234,서울 종로구 동숭동 50-20
티오엠 연습실A,"문화,예술 > 문화시설 > 공연장,연극극장",37.5822889481311,127.003636432985,서울 종로구 동숭동 1-80
고스트씨어터,"문화,예술 > 문화시설 > 공연장,연극극장",37.5824366865244,127.004361011064,서울 종로구 동숭동 25-11
목금토 갤러리,"문화,예술 > 문화시설 > 전시관",37.5822889516996,127.003518690448,서울 종로구 동숭동 1-80
미아트홀,"문화,예술 > 문화시설 > 공연장,연극극장",37.5817591420181,127.00428851511,서울 종로구 동숭동 50-24
폴리미디어 씨어터,"문화,예술 > 문화시설 > 공연장,연극극장",37.5822493046941,127.003627373943,서울 종로구 동숭동 1-75
AN아트홀,"문화,예술 > 문화시설 > 공연장,연극극장",37.5824907727529,127.003568514231,서울 종로구 동숭동 1-74
울씨어터,"문화,예술 > 문화시설 > 공연장,연극극장",37.5817483297652,127.004297571542,서울 종로구 동숭동 50-24
예스24스테이지,"문화,예술 > 문화시설 > 공연장,연극극장",37.58275567374538,127.00326058293216,서울 종로구 동숭동 1-52
링크아트센터드림,"문화,예술 > 문화시설 > 공연장,연극극장",37.5832872589862,127.003292306454,서울 종로구 동숭동 1-42
예그린씨어터,"문화,예술 > 문화시설 > 공연장,연극극장",37.5838855252471,127.003043256729,서울 종로구 동숭동 1-8
동덕여자대학교 공연예술센터,"문화,예술 > 문화시설 > 공연장,연극극장",37.5836260314729,127.003328550494,서울 종로구 동숭동 1-6
더굿씨어터,"문화,예술 > 문화시설 > 공연장,연극극장",37.5839819526946,127.00206506973008,서울 종로구 혜화동 185
스타스테이지,"문화,예술 > 문화시설 > 공연장,연극극장",37.58271063549632,127.0028167796696,서울 종로구 동숭동 1-54
시온아트홀,"문화,예술 > 문화시설 > 공연장,연극극장",37.58298454138512,127.00264923174262,서울 종로구 동숭동 1-48
초록씨어터,"문화,예술 > 문화시설 > 공연장,연극극장",37.5827016395697,127.002151077463,서울 종로구 동숭동 1-33
세명대학교 민송아트홀,"문화,예술 > 문화시설 > 공연장,연극극장",37.5840261015232,127.002056013621,서울 종로구 혜화동 185
올웨이즈씨어터,"문화,예술 > 문화시설 > 공연장,연극극장",37.583089067769,127.002094481016,서울 종로구 동숭동 1-35
아루또소극장,"문화,예술 > 문화시설 > 공연장,연극극장",37.5829196748152,127.00241827098,서울 종로구 동숭동 1-47
아스가르드 씨어터,"문화,예술 > 문화시설 > 공연장,연극극장",37.5836656943776,127.00255868303,서울 종로구 혜화동 201
소극장 선물,"문화,예술 > 문화시설 > 공연장,연극극장",37.5831701538227,127.002275627788,서울 종로구 동숭동 1-36
스카이씨어터,"문화,예술 > 문화시설 > 공연장,연극극장",37.5829809372078,127.002658288817,서울 종로구 동숭동 1-48
상명아트홀,"문화,예술 > 문화시설 > 공연장,연극극장",37.5833197055225,127.00288020332,서울 종로구 동숭동 1-38
달밤엔씨어터,"문화,예술 > 문화시설 > 공연장,연극극장",37.58400086117188,127.00268096839773,서울 종로구 혜화동 194
동덕여자대학교 공연예술센터 신관,"문화,예술 > 문화시설 > 공연장,연극극장",37.5836584760918,127.002997961066,서울 종로구 동숭동 1-9
스카이씨어터 2관,"문화,예술 > 문화시설 > 공연장,연극극장",37.5829557094935,127.00265375932,서울 종로구 동숭동 1-48
JH아트홀,"문화,예술 > 문화시설 > 공연장,연극극장",37.5830061553766,127.003056806741,서울 종로구 동숭동 1-50
컬투홀 2관,"문화,예술 > 문화시설 > 공연장,연극극장",37.5827070455305,127.002151077619,서울 종로구 동숭동 1-33
상명아트홀 2관,"문화,예술 > 문화시설 > 공연장,연극극장",37.5833521449406,127.002726231369,서울 종로구 동숭동 1-38
한양레퍼토리,"문화,예술 > 문화시설 > 공연장,연극극장",37.583921583774,127.002196399145,서울 종로구 혜화동 185
이영란의감성놀이터,"문화,예술 > 문화시설 > 공연장,연극극장",37.5829917495355,127.002640174795,서울 종로구 동숭동 1-48
원패스아트홀,"문화,예술 > 문화시설 > 공연장,연극극장",37.5827142387095,127.0028484799,서울 종로구 동숭동 1-54
노을소극장,"문화,예술 > 문화시설 > 공연장,연극극장",37.5829556949146,127.003237948658,서울 종로구 동숭동 1-51
스콘뮤직홀,"문화,예술 > 문화시설 > 공연장,연극극장",37.5835098305577,127.002156761509,서울 종로구 혜화동 179-4
마크앤스페이스 혜화점,"문화,예술 > 문화시설 > 전시관",37.58292688266984,127.00242279981062,서울 종로구 동숭동 1-47
내유외강씨어터,"문화,예술 > 문화시설 > 공연장,연극극장",37.582703441474,127.002155606099,서울 종로구 동숭동 1-33
상명아트홀 1관,"문화,예술 > 문화시설 > 공연장,연극극장",37.583359352573,127.002739817504,서울 종로구 동숭동 1-38
드로잉쇼,"문화,예술 > 문화시설 > 공연장,연극극장",37.5839756438735,127.002169228766,서울 종로구 혜화동 185
창조아트센터 2관,"문화,예술 > 문화시설 > 공연장,연극극장",37.5840369129661,127.002083185908,서울 종로구 혜화동 185
소극장시월,"문화,예술 > 문화시설 > 공연장,연극극장",37.5828944467197,127.002431855951,서울 종로구 동숭동 1-47
아룽구지극장,"문화,예술 > 문화시설 > 공연장,연극극장",37.5827719022915,127.002848482097,서울 종로구 동숭동 1-54
대학로자유극장,"문화,예술 > 문화시설 > 공연장,연극극장",37.5827430495515,127.003613812139,서울 종로구 동숭동 1-45
서울문화재단 대학로극장 쿼드,"문화,예술 > 문화시설 > 공연장,연극극장",37.5836908906524,127.003740659991,서울 종로구 동숭동 1-5
단막극장,"문화,예술 > 문화시설 > 공연장,연극극장",37.5833088464988,127.004406348149,서울 종로구 동숭동 12-6
동숭아트센터 소극장,"문화,예술 > 문화시설 > 공연장,연극극장",37.5837125153501,127.0037134892,서울 종로구 동숭동 1-5
대학로뮤지컬센터,"문화,예술 > 문화시설 > 공연장,연극극장",37.5828979993135,127.004247823073,서울 종로구 동숭동 25-5
동숭아트센터 꼭두소극장,"문화,예술 > 문화시설 > 공연장,연극극장",37.5836980993144,127.003718017129,서울 종로구 동숭동 1-5
대학로뮤지컬센터 대극장,"문화,예술 > 문화시설 > 공연장,연극극장",37.5829232274554,127.004238767311,서울 종로구 동숭동 25-5
대학로뮤지컬센터 중극장,"문화,예술 > 문화시설 > 공연장,연극극장",37.5828763694916,127.004410851254,서울 종로구 동숭동 25-5
대학로뮤지컬센터 공간피꼴로,"문화,예술 > 문화시설 > 공연장,연극극장",37.5828763694916,127.004410851254,서울 종로구 동숭동 25-5
링크아트센터,"문화,예술 > 문화시설 > 공연장,연극극장",37.5846892281094,127.002296053199,서울 종로구 혜화동 163-24
판타스틱전용관,"문화,예술 > 문화시설 > 공연장,연극극장",37.5842567561885,127.002033376573,서울 종로구 혜화동 90-18
가톨릭대학교 전례박물관,"문화,예술 > 문화시설 > 박물관",37.5860334553331,127.004257058811,서울 종로구 혜화동 90-1
홍사소극장,"문화,예술 > 문화시설 > 공연장,연극극장",37.5867326870523,127.001915694385,서울 종로구 혜화동 64-1
극단현대극장,"문화,예술 > 문화시설 > 공연장,연극극장",37.5867362910971,127.001911165649,서울 종로구 혜화동 64-1
소리아트홀 1관,"문화,예술 > 문화시설 > 공연장,연극극장",37.5841918862751,127.001938272646,서울 종로구 혜화동 90-18
소리아트홀 3관,"문화,예술 > 문화시설 > 공연장,연극극장",37.5841702632446,127.001888456681,서울 종로구 혜화동 90-18
소리아트홀 2관,"문화,예술 > 문화시설 > 공연장,연극극장",37.5842675685723,127.002006204793,서울 종로구 혜화동 90-18
성곽마을 박물관,"문화,예술 > 문화시설 > 박물관",37.5817084356676,127.008807979118,서울 성북구 삼선동1가 300-3
라이트씨어터,"문화,예술 > 문화시설 > 공연장,연극극장",37.5862637394074,127.010271318208,서울 성북구 삼선동2가 196
동네극장,"문화,예술 > 문화시설 > 공연장,연극극장",37.5791579129554,127.025897744919,서울 동대문구 용두동 764-12
안암문화원,"문화,예술 > 문화시설 > 문화원",37.580368981206,127.025286824628,서울 성북구 안암동4가 41-21
숭인재,"문화,예술 > 문화시설 > 기념관",37.57753664715713,127.01828515947412,서울 종로구 숭인동 58
수치,"문화,예술 > 문화시설 > 전시관",37.5810328817621,127.021397082305,서울 성북구 보문동5가 261-3
남예종예술실용전문학교 아트홀,"문화,예술 > 문화시설 > 공연장,연극극장",37.5767578813749,127.024889383846,서울 동대문구 신설동 76-34
애비로드,"문화,예술 > 문화시설 > 공연장,연극극장",37.5844115975369,127.029758006636,서울 성북구 안암동5가 103-96
롯데시네마 청량리,"문화,예술 > 영화,영상 > 영화관 > 롯데시네마",37.58044047556045,127.04760869583596,서울 동대문구 전농동 588-1
청계천박물관,"문화,예술 > 문화시설 > 박물관",37.57129886065509,127.0351070226222,서울 성동구 마장동 527-4
서울약령시한의약박물관,"문화,예술 > 문화시설 > 박물관",37.58064409914353,127.0376292335738,서울 동대문구 제기동 1082
선농단역사문화관,"문화,예술 > 문화시설 > 전시관",37.5811998991222,127.031894176976,서울 동대문구 제기동 274-1
거창박물관,"문화,예술 > 문화시설 > 박물관",37.5788487467328,127.036584545244,서울 동대문구 제기동 1140-55
동대문문화원,"문화,예술 > 문화시설 > 문화원",37.57782128481103,127.03763007713692,서울 동대문구 용두동 787
서울시립대학교 빨간벽돌갤러리,"문화,예술 > 문화시설 > 미술관",37.582908655219825,127.05696974371914,서울 동대문구 전농동 694
동원극장,"문화,예술 > 문화시설 > 공연장,연극극장",37.5815262805502,127.047341072878,서울 동대문구 전농동 591-2
더 윌로,"문화,예술 > 문화시설 > 전시관",37.5792708944387,127.040619534875,서울 동대문구 제기동 997-1
스페이스 잉크,"문화,예술 > 문화시설 > 미술관",37.5849732571968,127.047895759692,서울 동대문구 청량리동 54-2
롯데백화점 청량리점 문화홀,"문화,예술 > 문화시설 > 공연장,연극극장",37.5810214682975,127.047974740709,서울 동대문구 전농동 591-53
휘락아트홀,"문화,예술 > 문화시설 > 공연장,연극극장",37.5868293318894,127.05208159131,서울 동대문구 청량리동 2-5
미니바둑기념관,"문화,예술 > 문화시설 > 기념관",37.5661962214814,127.033028730275,서울 성동구 홍익동 315
롯데갤러리 청량리점,"문화,예술 > 문화시설 > 미술관",37.5807177962047,127.048066247242,서울 동대문구 전농동 588-1
신설동역 자이르네,"문화,예술 > 문화시설 > 전시관",37.5771238469963,127.037843685787,서울 동대문구 용두동 45-2
스튜디오경동,"문화,예술 > 문화시설 > 공연장,연극극장",37.5790371370434,127.039136369365,서울 동대문구 제기동 1019
CGV 성신여대입구,"문화,예술 > 영화,영상 > 영화관 > CGV",37.59255995612785,127.01729015005344,서울 성북구 동선동1가 1-2
아리랑시네센터 아리랑인디웨이브,"문화,예술 > 영화,영상 > 영화관",37.6002359515116,127.013883367137,서울 성북구 정릉동 113-32
성북꿈빛극장,"문화,예술 > 문화시설 > 공연장,연극극장",37.6037557517832,127.02219631446,서울 성북구 길음동 1286-8
미아리고개 예술극장,"문화,예술 > 문화시설 > 공연장,연극극장",37.5977192575545,127.021419977676,서울 성북구 돈암동 51-49
한양도성 혜화동 전시안내센터,"문화,예술 > 문화시설 > 전시관",37.5886067285583,127.003029862116,서울 종로구 혜화동 27-1
성북문화원,"문화,예술 > 문화시설 > 문화원",37.5897274612914,127.005765429456,서울 성북구 동소문동1가 1-5
소극장공유,"문화,예술 > 문화시설 > 공연장,연극극장",37.5876012160981,127.003206447715,서울 종로구 혜화동 37-1
연우 소극장,"문화,예술 > 문화시설 > 공연장,연극극장",37.5870029871665,127.001770778281,서울 종로구 혜화동 53-9
뜻밖의극장,"문화,예술 > 문화시설 > 공연장,연극극장",37.5925012614127,127.018157474027,서울 성북구 동선동1가 89
여행자극장,"문화,예술 > 문화시설 > 공연장,연극극장",37.58896166775585,127.0046286005779,서울 성북구 성북동1가 35-8
하땅세극장,"문화,예술 > 문화시설 > 공연장,연극극장",37.5886931503092,127.005151677341,서울 성북구 성북동1가 35-29
극장봄,"문화,예술 > 문화시설 > 공연장,연극극장",37.5875938242563,127.007327728654,서울 성북구 삼선동1가 35
성북예술창작터,"문화,예술 > 문화시설 > 미술관",37.590026659613066,127.00412141540345,서울 성북구 성북동1가 74-1
공감M아트센터,"문화,예술 > 문화시설 > 공연장,연극극장",37.59188193776197,127.01406298073094,서울 성북구 동소문동5가 15
놀터예술공방,"문화,예술 > 문화시설 > 공연장,연극극장",37.5894895305414,127.007033529804,서울 성북구 동소문동1가 48
오엔갤러리,"문화,예술 > 문화시설 > 미술관",37.589466046067926,127.0079574423576,서울 성북구 동소문동1가 72
성북마을극장,"문화,예술 > 문화시설 > 공연장,연극극장",37.5916472435955,127.017342023849,서울 성북구 동선동1가 4-7
아트스페이스감,"문화,예술 > 문화시설 > 전시관",37.5876948185906,127.005836602636,서울 성북구 삼선동1가 11-2
웨스,"문화,예술 > 문화시설 > 전시관",37.5878426147537,127.005117652004,서울 성북구 삼선동1가 8
미인도,"문화,예술 > 문화시설 > 전시관",37.59553905715732,127.02029607096624,서울 성북구 동선동3가 22-6
성신여자대학교 돈암수정캠퍼스 수정홀,"문화,예술 > 문화시설 > 공연장,연극극장",37.591069677573,127.022815296365,서울 성북구 돈암동 173-1
공간222,"문화,예술 > 문화시설 > 공연장,연극극장",37.5893885015971,127.008790768121,서울 성북구 동소문동2가 222
파소갤러리,"문화,예술 > 문화시설 > 미술관",37.588959482798,127.010575129179,서울 성북구 삼선동4가 9-7
새공간,"문화,예술 > 문화시설 > 전시관",37.5877650854783,127.006046069326,서울 성북구 삼선동1가 11-186
성신여자대학교 돈암수정캠퍼스 중앙박물관,"문화,예술 > 문화시설 > 박물관",37.591754717119386,127.02128692325364,서울 성북구 돈암동 173-1
극단초인,"문화,예술 > 문화시설 > 공연장,연극극장",37.5954602902056,127.017003206922,서울 성북구 동선동5가 67
00의 00,"문화,예술 > 문화시설 > 전시관",37.5889994280658,127.006374519181,서울 성북구 동소문동1가 19
케이뮤지컬컴퍼니,"문화,예술 > 문화시설 > 공연장,연극극장",37.5923182835097,127.011621841955,서울 성북구 동소문동4가 167
예문관,"문화,예술 > 문화시설 > 문화원",37.5906281572724,127.010158691358,서울 성북구 동소문동4가 75
369예술터,"문화,예술 > 문화시설 > 전시관",37.5869631990115,127.006102614994,서울 성북구 삼선동1가 11-54
성신여자대학교 돈암수정캠퍼스 성신역사관,"문화,예술 > 문화시설 > 기념관",37.5916356774673,127.021881337049,서울 성북구 돈암동 173-1
고려대학교 노천극장,"문화,예술 > 문화시설 > 공연장,연극극장",37.5926370001886,127.024815410454,서울 성북구 안암동5가 126-28
스페이스 오뉴월,"문화,예술 > 문화시설 > 전시관",37.590722214001545,127.00444301773275,서울 성북구 성북동 184-46
신민요민속보존회,"문화,예술 > 문화시설 > 공연장,연극극장",37.6078663227845,127.002677294656,서울 성북구 정릉동 653-40
팩션,"문화,예술 > 문화시설 > 전시관",37.5894348336662,127.01413951316,서울 성북구 삼선동5가 4
고래스튜디오,"문화,예술 > 문화시설 > 공연장,연극극장",37.6092536205256,127.007780607403,서울 성북구 정릉동 350-8
갤러리이엘,"문화,예술 > 문화시설 > 미술관",37.590470818960824,127.00490270185333,서울 성북구 성북동 183-16
성신여자대학교 돈암수정캠퍼스 가온미술관,"문화,예술 > 문화시설 > 미술관",37.5911715093357,127.022713422764,서울 성북구 돈암동 산 7-1
커넥트플러스,"문화,예술 > 문화시설 > 박물관",37.5996993956781,127.009494071316,서울 성북구 정릉동 556-52
아트스페이스벤,"문화,예술 > 문화시설 > 미술관",37.5920269061198,127.002577085854,서울 성북구 성북동 132-3
하람꾼스튜디오,"문화,예술 > 문화시설 > 공연장,연극극장",37.5917666417849,127.013800269303,서울 성북구 동소문동5가 8
런닝구,"문화,예술 > 문화시설 > 공연장,연극극장",37.5874386312892,127.010303181747,서울 성북구 삼선동2가 132
봄,"문화,예술 > 문화시설 > 미술관",37.5900626983551,127.004148591571,서울 성북구 성북동1가 74-1
강현주한국문화원,"문화,예술 > 문화시설 > 문화원",37.5907863313355,127.01406277458,서울 성북구 삼선동4가 344-1
피스키스,"문화,예술 > 문화시설 > 공연장,연극극장",37.5886137272322,127.007653912485,서울 성북구 동소문동2가 39
경희대학교 서울캠퍼스 평화의전당,"문화,예술 > 문화시설 > 공연장,연극극장",37.5986824730534,127.052773814646,서울 동대문구 회기동 1-5
세종대왕기념관,"문화,예술 > 문화시설 > 기념관",37.5908403884541,127.043587838139,서울 동대문구 청량리동 산 1-157
경희대학교 서울캠퍼스 자연사박물관,"문화,예술 > 문화시설 > 박물관",37.5978344312692,127.055201028009,서울 동대문구 이문동 1-3
김희수아트센터,"문화,예술 > 문화시설 > 공연장,연극극장",37.590703717843,127.042822345838,서울 동대문구 청량리동 206-46
KOCCA 콘텐츠문화광장,"문화,예술 > 문화시설 > 공연장,연극극장",37.591445324735055,127.04500127436376,서울 동대문구 청량리동 산 1-136
고려대학교 서울캠퍼스 박물관,"문화,예술 > 문화시설 > 박물관",37.58953970242364,127.03435018790692,서울 성북구 안암동5가 1-2
문화공간이육사,"문화,예술 > 문화시설 > 전시관",37.5981347529575,127.032621597764,서울 성북구 종암동 65-13
경희대학교 한의학역사박물관,"문화,예술 > 문화시설 > 박물관",37.595859912732,127.0542212231,서울 동대문구 회기동 1
국립산림과학원 산림과학관,"문화,예술 > 문화시설 > 전시관",37.5921347847396,127.044470646049,서울 동대문구 청량리동 207
한국경제발전전시관,"문화,예술 > 문화시설 > 전시관",37.594758147537725,127.04291525534792,서울 동대문구 청량리동 207-41
경희대학교 서울캠퍼스 노천극장,"문화,예술 > 문화시설 > 공연장,연극극장",37.5965372930424,127.05457953895096,서울 동대문구 회기동 1-5
새힘아트홀,"문화,예술 > 문화시설 > 공연장,연극극장",37.5875426606787,127.052661784568,서울 동대문구 청량리동 1-1
성북어린이미술관 꿈자람,"문화,예술 > 문화시설 > 미술관",37.6049723445232,127.050585770119,서울 성북구 상월곡동 24-348
천장산우화극장,"문화,예술 > 문화시설 > 공연장,연극극장",37.6049723445232,127.050585770119,서울 성북구 상월곡동 24-348
서우갤러리,"문화,예술 > 문화시설 > 미술관",37.5888284729803,127.035520595941,서울 동대문구 제기동 137-18
르네아트홀,"문화,예술 > 문화시설 > 공연장,연극극장",37.5916069257052,127.054883918559,서울 동대문구 회기동 2-20
동덕여자대학교 박물관,"문화,예술 > 문화시설 > 박물관",37.6069831842796,127.04181241444869,서울 성북구 하월곡동 23-1
예인,"문화,예술 > 문화시설 > 공연장,연극극장",37.5989022724156,127.033070359859,서울 성북구 종암동 79-317
CGV 상봉,"문화,예술 > 영화,영상 > 영화관 > CGV",37.59748249443501,127.09216357979344,서울 중랑구 상봉동 501
메가박스 상봉,"문화,예술 > 영화,영상 > 영화관 > 메가박스",37.593039388039465,127.07477725968386,서울 중랑구 상봉동 130-3
답십리영화미디어아트센터,"문화,예술 > 문화시설 > 전시관",37.57179142060842,127.06375881854105,서울 동대문구 답십리동 산 2-121
중랑아트센터,"문화,예술 > 문화시설 > 미술관",37.5982127985855,127.09151902362149,서울 중랑구 상봉동 500
중랑구민회관 대극장,"문화,예술 > 문화시설 > 공연장,연극극장",37.5737134361492,127.084914322445,서울 중랑구 면목동 378-8
서울특별시교육청융합과학교육원 동부분원,"문화,예술 > 문화시설 > 전시관",37.5736496587243,127.083379246274,서울 중랑구 면목동 380
중랑문화원,"문화,예술 > 문화시설 > 문화원",37.5742574406795,127.08518662442,서울 중랑구 면목동 378-10
광진어린이공연장,"문화,예술 > 문화시설 > 공연장,연극극장",37.56555516428025,127.08458020983105,서울 광진구 중곡동 30-80
의릉역사문화관,"문화,예술 > 문화시설 > 박물관",37.6038869047302,127.059686671449,서울 성북구 석관동 409
동대문구민회관 대강당,"문화,예술 > 문화시설 > 공연장,연극극장",37.5673601436745,127.073379702578,서울 동대문구 장안동 354-5
중랑아트센터 실감미디어 전시실,"문화,예술 > 문화시설 > 전시관",37.5981650847421,127.091469140464,서울 중랑구 상봉동 500
서일대학교 호천박물관,"문화,예술 > 문화시설 > 박물관",37.5872228005312,127.097885592873,서울 중랑구 면목동 49-3
용마성인극장,"문화,예술 > 문화시설 > 공연장,연극극장",37.5935470835721,127.08603859089,서울 중랑구 상봉동 108-6
세미갤러리,"문화,예술 > 문화시설 > 전시관",37.5706772471571,127.064757392791,서울 동대문구 답십리동 766
CGV 수유,"문화,예술 > 영화,영상 > 영화관 > CGV",37.64238839946736,127.0298445691386,서울 강북구 수유동 168-12
CGV 미아,"문화,예술 > 영화,영상 > 영화관 > CGV",37.6120573620072,127.030715864901,서울 강북구 미아동 35-4
롯데시네마 수유,"문화,예술 > 영화,영상 > 영화관 > 롯데시네마",37.6356972554135,127.0238146009,서울 강북구 번동 449-1
메가박스 창동,"문화,예술 > 영화,영상 > 영화관 > 메가박스",37.6545770264401,127.0387192877969,서울 도봉구 창동 715-14
둘리뮤지엄 (휴업중),"문화,예술 > 문화시설 > 박물관",37.6524222901,127.027636570805,서울 도봉구 쌍문동 산 240-5
광운대학교 동해문화예술관 대극장,"문화,예술 > 문화시설 > 공연장,연극극장",37.6198282413004,127.05759144243,서울 노원구 월계동 466
꿈의숲아트센터,"문화,예술 > 문화시설 > 공연장,연극극장",37.62147398170501,127.038586574221,서울 강북구 번동 90
근현대사기념관,"문화,예술 > 문화시설 > 기념관",37.6434408870332,127.002787345359,서울 강북구 수유동 산 73-23
상상톡톡미술관,"문화,예술 > 문화시설 > 미술관",37.6225163748567,127.041390667983,서울 강북구 번동 90
국립현대미술관 창동레지던시,"문화,예술 > 문화시설 > 미술관",37.64069173483465,127.03942928538032,서울 도봉구 창동 601-107
꿈의숲아트센터 콘서트홀,"문화,예술 > 문화시설 > 공연장,연극극장",37.6214938171239,127.038544673316,서울 강북구 번동 90
성북구립최만린미술관,"문화,예술 > 문화시설 > 미술관",37.6106593423435,127.004290174029,서울 성북구 정릉동 716-16
김중업건축문화의집,"문화,예술 > 문화시설 > 기념관",37.6149831396228,127.044086694389,서울 성북구 장위동 230-49
꿈의숲아트센터 퍼포먼스홀,"문화,예술 > 문화시설 > 공연장,연극극장",37.6216704342967,127.038472269356,서울 강북구 번동 90
함석헌기념관,"문화,예술 > 문화시설 > 기념관",37.6529753961546,127.034812274366,서울 도봉구 쌍문동 81-78
도봉문화원,"문화,예술 > 문화시설 > 문화원",37.6540122094538,127.038416422705,서울 도봉구 창동 303
문익환통일의집,"문화,예술 > 문화시설 > 박물관",37.641115940027,127.010192755025,서울 강북구 수유동 527-30
국립4.19민주묘지 기념관,"문화,예술 > 문화시설 > 기념관",37.6492825724441,127.008770627137,서울 강북구 수유동 산 7-1
강북문화원,"문화,예술 > 문화시설 > 문화원",37.6408237257114,127.013174843385,서울 강북구 수유동 360-10
도봉구민회관 하모니홀,"문화,예술 > 문화시설 > 공연장,연극극장",37.6541887798308,127.038484507498,서울 도봉구 창동 303
강북문화예술회관 강북진달래홀,"문화,예술 > 문화시설 > 공연장,연극극장",37.6408327315026,127.013211101859,서울 강북구 수유동 360-10
박을복자수박물관,"문화,예술 > 문화시설 > 박물관",37.6538415659482,127.008499189269,서울 강북구 우이동 86-4
창동극장,"문화,예술 > 문화시설 > 공연장,연극극장",37.6528863702348,127.05157015171554,서울 도봉구 창동 16-1
하늘채시네마,"문화,예술 > 영화,영상 > 영화관",37.6189105259862,127.046489193488,서울 성북구 장위동 319
편지문학관,"문화,예술 > 문화시설 > 전시관",37.6541698558742,127.038494696803,서울 도봉구 창동 303
한신대학교 신학대학원 만우기념관,"문화,예술 > 문화시설 > 기념관",37.6343620107817,127.011755274918,서울 강북구 수유동 498-16
성신여자대학교 미아운정그린캠퍼스 자연사박물관,"문화,예술 > 문화시설 > 박물관",37.63144120923671,127.02702157298148,서울 강북구 미아동 147
난나소극장,"문화,예술 > 문화시설 > 공연장,연극극장",37.6459869269897,127.006402048296,서울 강북구 수유동 535-380
도봉구민회관 소공연장,"문화,예술 > 문화시설 > 공연장,연극극장",37.6541527523623,127.038448225548,서울 도봉구 창동 303
성신여자대학교 미아운정그린캠퍼스 정원박광훈복식박물관,"문화,예술 > 문화시설 > 박물관",37.6316907958065,127.026962753135,서울 강북구 미아동 147
성신여자대학교 미아운정그린캠퍼스 성신미술관,"문화,예술 > 문화시설 > 미술관",37.6318079394828,127.026894822026,서울 강북구 미아동 147
그때 그 시절 청춘극장,"문화,예술 > 영화,영상 > 영화관",37.65413473567,127.038439150421,서울 도봉구 창동 303
더켠,"문화,예술 > 문화시설 > 공연장,연극극장",37.6147931700924,127.029113182766,서울 강북구 미아동 61-52
덕성여자대학교 박물관,"문화,예술 > 문화시설 > 박물관",37.6527847576933,127.016562985273,서울 도봉구 쌍문동 419
도란도란 마을극장,"문화,예술 > 문화시설 > 공연장,연극극장",37.6360204073133,127.029171312904,서울 강북구 번동 414-41
서울영어마을 수유캠프 야외극장,"문화,예술 > 문화시설 > 공연장,연극극장",37.6408133904876,127.00781788845,서울 강북구 수유동 522
그린트리예술창작센터,"문화,예술 > 문화시설 > 공연장,연극극장",37.6485068434459,127.033699707302,서울 도봉구 쌍문동 88-108
공집,"문화,예술 > 문화시설 > 전시관",37.6099474170537,127.007234786287,서울 성북구 정릉동 364-4
공간명아락,"문화,예술 > 문화시설 > 공연장,연극극장",37.6400474988974,127.022343069085,서울 강북구 수유동 30-7
스마트페이,"문화,예술 > 문화시설 > 공연장,연극극장",37.6419348016884,127.027804907921,서울 강북구 수유동 172-196
남북사랑나눔예술단,"문화,예술 > 문화시설 > 공연장,연극극장",37.6161613793244,127.017383960452,서울 강북구 미아동 1357
더봄 갤러리,"문화,예술 > 문화시설 > 전시관",37.6425568536445,127.056888362382,서울 노원구 상계동 771
소극장 모꼬지,"문화,예술 > 문화시설 > 공연장,연극극장",37.6123806700988,127.034507928474,서울 강북구 미아동 9-9
극단키즈샘,"문화,예술 > 문화시설 > 공연장,연극극장",37.61451709590529,127.03388143970432,서울 강북구 미아동 80-41
CGV 중계,"문화,예술 > 영화,영상 > 영화관 > CGV",37.6396655720199,127.068773695534,서울 노원구 중계동 509-2
CGV 하계,"문화,예술 > 영화,영상 > 영화관 > CGV",37.6387993923945,127.06458080994,서울 노원구 중계동 506-1
롯데시네마 노원,"문화,예술 > 영화,영상 > 영화관 > 롯데시네마",37.655019837734514,127.06112486570564,서울 노원구 상계동 713
롯데시네마 중랑,"문화,예술 > 영화,영상 > 영화관 > 롯데시네마",37.6151128766676,127.075977300625,서울 중랑구 묵동 234-1
서울시립 북서울미술관,"문화,예술 > 문화시설 > 미술관",37.64066135905104,127.06685980156716,서울 노원구 중계동 508
서울시립과학관,"문화,예술 > 문화시설 > 과학관",37.64183333311373,127.0775057868646,서울 노원구 하계동 21
서울생활사박물관,"문화,예술 > 문화시설 > 박물관",37.6197018366411,127.07701499863,서울 노원구 공릉동 622
더숲아트시네마,"문화,예술 > 영화,영상 > 영화관",37.6541610382725,127.061439199647,서울 노원구 상계동 727-1
노원문화예술회관,"문화,예술 > 문화시설 > 공연장,연극극장",37.650185380219,127.080305462078,서울 노원구 중계동 364-3
노원천문우주과학관,"문화,예술 > 문화시설 > 과학관",37.6408423499572,127.065443679321,서울 노원구 중계동 507-1
노원문화원,"문화,예술 > 문화시설 > 문화원",37.6288026802774,127.069814964677,서울 노원구 공릉동 710
경춘선숲길갤러리,"문화,예술 > 문화시설 > 미술관",37.6250948531682,127.09361931026154,서울 노원구 공릉동 29-29
노원어린이극장,"문화,예술 > 문화시설 > 공연장,연극극장",37.6543751628167,127.063720574449,서울 노원구 상계동 723
타임뮤지엄,"문화,예술 > 문화시설 > 전시관",37.62442056544388,127.09292180609792,서울 노원구 공릉동 29-4
태릉 조선왕릉전시관,"문화,예술 > 문화시설 > 전시관",37.6306574613443,127.097064556307,서울 노원구 공릉동 산 223-19
육군박물관,"문화,예술 > 문화시설 > 박물관",37.62291424379262,127.1004618151156,서울 노원구 공릉동 1-1
노원이지센터,"문화,예술 > 문화시설 > 전시관",37.6382323834651,127.072814875268,서울 노원구 하계동 251-9
로즈아트홀,"문화,예술 > 문화시설 > 공연장,연극극장",37.6163835617381,127.063265659189,서울 노원구 월계동 68-25
나눔아트센터,"문화,예술 > 문화시설 > 공연장,연극극장",37.6363588566442,127.077648517732,서울 노원구 하계동 65-37
삼육대학교 박물관,"문화,예술 > 문화시설 > 박물관",37.6421772777175,127.107653142858,서울 노원구 공릉동 26-21
한국체육박물관,"문화,예술 > 문화시설 > 박물관",37.6387145051758,127.102930355349,서울 노원구 공릉동 산 223-19
화랑대역사전시관,"문화,예술 > 문화시설 > 전시관",37.6242391830564,127.093281802867,서울 노원구 공릉동 29-61
노원문화예술회관 대공연장,"문화,예술 > 문화시설 > 공연장,연극극장",37.6501998113605,127.080282814225,서울 노원구 중계동 364-3
노원문화예술회관 소공연장,"문화,예술 > 문화시설 > 공연장,연극극장",37.650232240552,127.080291914495,서울 노원구 중계동 364-3
청춘극장,"문화,예술 > 영화,영상 > 영화관",37.6213085385601,127.083291985496,서울 노원구 공릉동 87-7
조도연미술관,"문화,예술 > 문화시설 > 미술관",37.648714896406,127.083023431646,서울 노원구 중계동 593
피우다아트스페이스,"문화,예술 > 문화시설 > 전시관",37.6158703762058,127.074930371515,서울 중랑구 묵동 233-73
한국전통예절교육문화원,"문화,예술 > 문화시설 > 문화원",37.6513799209874,127.101556279667,경기 남양주시 별내동 785-12
에릭슨시스템,"문화,예술 > 문화시설 > 미술관",37.6164612715052,127.076572185099,서울 중랑구 묵동 168-11
육군사관학교 육사기념관,"문화,예술 > 문화시설 > 기념관",37.6242948054499,127.09910094337724,서울 노원구 공릉동 16
서울여자대학교 바롬기념관,"문화,예술 > 문화시설 > 기념관",37.6300221554497,127.089215254612,서울 노원구 공릉동 133-28
노방극장,"문화,예술 > 문화시설 > 공연장,연극극장",37.616390764782,127.063274726544,서울 노원구 월계동 68-25
서울과학기술대학교 큐브갤러리,"문화,예술 > 문화시설 > 전시관",37.6298352864161,127.079652557311,서울 노원구 공릉동 172
플라이아트센터,"문화,예술 > 문화시설 > 공연장,연극극장",37.6192829414396,127.079633369465,서울 노원구 공릉동 653-10
광운대학교 싱귤래리티홀,"문화,예술 > 문화시설 > 전시관",37.6196009396602,127.05990878188,서울 노원구 월계동 447-1
스타비스코리아,"문화,예술 > 문화시설 > 전시관",37.634547752321595,127.08052201426293,서울 노원구 공릉동 172
