place,category,x,y,address
문래동창작촌,"여행 > 관광,명소 > 테마거리",37.51398329680753,126.89777054767478,서울 영등포구 문래동3가 54-28
주렁주렁 타임스퀘어점,"여행 > 관광,명소 > 동물원 > 실내동물원",37.51711057944,126.90299334402,서울 영등포구 영등포동4가 442
대림차이나타운,"여행 > 관광,명소 > 테마거리 > 먹자골목",37.4924039640497,126.897474301275,서울 영등포구 대림동 1050-43
신림동별빛거리,"여행 > 관광,명소 > 테마거리",37.487590263431,126.928593462806,서울 관악구 신림동
문래역로데오거리,"여행 > 관광,명소 > 테마거리",37.5174618602941,126.896494379543,서울 영등포구 문래동3가
신길동홍어거리,"여행 > 관광,명소 > 테마거리 > 먹자골목",37.5107384081464,126.911840808155,서울 영등포구 신길동
깔깔거리,"여행 > 관광,명소 > 테마거리 > 먹자골목",37.483663665576,126.901086233647,서울 구로구 구로동 1125-11
용마산,"여행 > 관광,명소 > 산",37.5051967490807,126.929961009627,서울 동작구 대방동
와우산,"여행 > 관광,명소 > 산",37.4910758945875,126.913238928373,서울 동작구 신대방동
청룡산,"여행 > 관광,명소 > 산",37.4748011784324,126.945147345633,서울 관악구 봉천동 산 174-650
보라매 공원 옥만호,"여행 > 관광,명소 > 호수",37.4910244424418,126.916866467745,서울 동작구 신대방동 395
신길동 벽화거리,"여행 > 관광,명소 > 테마거리",37.4979117067284,126.906008189727,서울 영등포구 신길동 440-24
드라마하우스,"여행 > 관광,명소 > 테마파크",37.5178037000443,126.900050288174,서울 영등포구 문래동3가 55-16
동작충효길 4코스(노량진길),"여행 > 관광,명소 > 도보여행",37.50729349414457,126.92863351170118,서울 동작구 대방동
동작충효길 5코스(보라매길),"여행 > 관광,명소 > 도보여행",37.49499713859111,126.92377816249528,서울 동작구 신대방동
청능산,"여행 > 관광,명소 > 산",37.473594589164,126.94485316742,서울 관악구 신림동 산 1-254
영등포봄꽃나들길,"여행 > 관광,명소 > 도보여행",37.50463737435278,126.89904545032756,서울 영등포구 신길동
서울명예도로 강감찬대로,"여행 > 관광,명소 > 도보여행",37.48252647374451,126.9414784488097,서울 관악구 봉천동 979-8
보라매공원산책길,"여행 > 관광,명소 > 도보여행",37.49071663570404,126.91996508015704,서울 동작구 신대방동
이혜선도예,"여행 > 관광,명소 > 도자기,도예촌",37.4904214947074,126.889208957614,서울 구로구 구로동 314-1
서울명예도로 앙카라길,"여행 > 관광,명소 > 도보여행",37.51706865260772,126.93042047545592,서울 영등포구 여의도동 3-9
노들섬,"여행 > 관광,명소 > 섬 > 섬(내륙)",37.51766013568054,126.95803386590158,서울 용산구 이촌동 302-146
서래섬,"여행 > 관광,명소 > 섬 > 섬(내륙)",37.5080210111994,126.989929422809,서울 서초구 반포동 137-41
노량진컵밥거리,"여행 > 관광,명소 > 테마거리 > 먹자골목",37.5136058564068,126.94539042276,서울 동작구 노량진동 148-87
샤로수길,"여행 > 관광,명소 > 테마거리",37.4785646095049,126.955677012972,서울 관악구 봉천동
방배동카페골목,"여행 > 관광,명소 > 테마거리 > 카페거리",37.4944226421959,126.986109104063,서울 서초구 방배동 767-27
서래마을카페거리,"여행 > 관광,명소 > 테마거리 > 카페거리",37.4983013805091,126.998380593305,서울 서초구 반포동 126
동작대교전망쉼터,"여행 > 관광,명소 > 전망대",37.5058448979423,126.981072976556,서울 서초구 반포동 1333-1
이수역꼬치거리,"여행 > 관광,명소 > 테마거리 > 먹자골목",37.4872392486403,126.981953967038,서울 동작구 사당동 134-1
허밍웨이길,"여행 > 관광,명소 > 도보여행",37.49990847936601,126.99147757654144,서울 서초구 반포동
서달산,"여행 > 관광,명소 > 산",37.497293533764,126.96254154645,서울 동작구 동작동 산 36
서달산 수목학습원,"여행 > 관광,명소 > 수목원,식물원",37.4992167790464,126.958632249511,서울 동작구 흑석동 330
방배동먹자골목,"여행 > 관광,명소 > 테마거리 > 먹자골목",37.4824363862453,126.996124195407,서울 서초구 방배동
동작충효길 6코스(동작마루길),"여행 > 관광,명소 > 도보여행",37.4935280985,126.94592973508792,서울 관악구 봉천동
피천득산책로,"여행 > 관광,명소 > 도보여행",37.4996192682673,126.99164385031,서울 서초구 반포동 117-11
흑리단길,"여행 > 관광,명소 > 테마거리",37.5076521054512,126.964517903407,서울 동작구 흑석동 50-91
행운동먹자골목,"여행 > 관광,명소 > 테마거리 > 먹자골목",37.4819807026268,126.954277543308,서울 관악구 봉천동 1667-7
동작충효길 1코스(고구동산길),"여행 > 관광,명소 > 도보여행",37.50355463739012,126.95484796030172,서울 동작구 상도동
동작충효길 2코스(현충원길),"여행 > 관광,명소 > 도보여행",37.49492894213356,126.97481438285564,서울 동작구 사당동
사당가구거리,"여행 > 관광,명소 > 테마거리",37.4899784134426,126.982627232173,서울 서초구 방배동 2287
방배동사이길,"여행 > 관광,명소 > 테마거리",37.4945239661268,126.990211677155,서울 서초구 방배동 32-2
현충원나들길,"여행 > 관광,명소 > 도보여행",37.500196194169646,126.96732606156075,서울 동작구 동작동
동작충효길 7코스(까치산길),"여행 > 관광,명소 > 도보여행",37.48107591436526,126.9642184253992,서울 동작구 사당동
매봉재산,"여행 > 관광,명소 > 산",37.4767600414556,126.996558618207,서울 서초구 방배동
서울테마산책길 국사봉길,"여행 > 관광,명소 > 도보여행 > 둘레길",37.49363647262717,126.9464860106234,서울 관악구 봉천동 1712-4
서달산 자락길,"여행 > 관광,명소 > 도보여행",37.4965831560429,126.961347729349,서울 동작구 상도동
동작충효길 3코스(한강나들길),"여행 > 관광,명소 > 도보여행",37.511313083643046,126.96224498828576,서울 동작구 흑석동
공작지,"여행 > 관광,명소 > 저수지",37.4961271921707,126.967119760247,서울 동작구 동작동 290-2
서울테마산책길 반포 수변길,"여행 > 관광,명소 > 도보여행",37.50665147703292,126.98985269901908,서울 서초구 반포동 115-5
세라아트도예학원,"여행 > 관광,명소 > 도자기,도예촌",37.480872298166,127.000185419692,서울 서초구 방배동 985-14
사당역갈림길,"여행 > 관광,명소 > 도보여행",37.4739475315648,126.981751411625,서울 관악구 남현동 602-131
현충로,"여행 > 관광,명소 > 테마거리",37.5054596305532,126.973575817073,서울 동작구 동작동
여의서로,"여행 > 관광,명소 > 테마거리",37.53351080966769,126.91493215270192,서울 영등포구 여의도동
여의도 인증센터,"여행 > 관광,명소 > 자전거여행",37.53464667674164,126.91328804234044,서울 영등포구 여의도동 81-8
서문벚꽃길,"여행 > 관광,명소 > 도보여행",37.5316811318791,126.911598940113,서울 영등포구 여의도동 1
영등포전통시장 순대골목,"여행 > 관광,명소 > 테마거리 > 먹자골목",37.5194840602836,126.90779104096256,서울 영등포구 영등포동5가 6-1
샤이니숲,"여행 > 관광,명소 > 숲",37.5337931159711,126.916606312885,서울 영등포구 여의도동 82-9
남문벚꽃길,"여행 > 관광,명소 > 도보여행",37.5310135913919,126.915428263633,서울 영등포구 여의도동 1
국회의사당 식물원,"여행 > 관광,명소 > 수목원,식물원",37.530885143719,126.912265120429,서울 영등포구 여의도동 1
영등포 포장마차거리,"여행 > 관광,명소 > 테마거리",37.5193492046407,126.903645403739,서울 영등포구 영등포동4가 123-1
영등포수변둘레길,"여행 > 관광,명소 > 도보여행 > 둘레길",37.5327519817829,126.890628491695,서울 영등포구 양평동 63-1
선유로운,"여행 > 관광,명소 > 테마거리",37.5384272611837,126.894455905878,서울 영등포구 양평동4가 202-1
두메토기 본점,"여행 > 관광,명소 > 도자기,도예촌",37.5192454274043,126.909125003169,서울 영등포구 영등포동2가 332-3
서울둘레길 14코스 안양천 옛추억길,"여행 > 관광,명소 > 도보여행 > 둘레길",37.5346717204507,126.891286436895,서울 영등포구 양평동 504-1
여의도한강공원 눈썰매장,"스포츠,레저 > 스포츠시설 > 눈썰매장",37.5336330628315,126.919674857586,서울 영등포구 여의도동 82
63전망대,"여행 > 관광,명소 > 전망대",37.5198851663406,126.940254741239,서울 영등포구 여의도동 60
밤섬,"여행 > 관광,명소 > 섬 > 섬(내륙)",37.538019040537435,126.9309237525547,서울 영등포구 여의도동 84-3
한강공원 해넘이전망대,"여행 > 관광,명소 > 전망대",37.5314426796803,126.932556728873,서울 영등포구 여의도동 84-6
석진숲,"여행 > 관광,명소 > 숲",37.52772251632826,126.93428193884954,서울 영등포구 여의도동 85-6
여의도공원산책길,"여행 > 관광,명소 > 도보여행",37.52620673635353,126.92195445409692,서울 영등포구 여의도동
소녀시대숲,"여행 > 관광,명소 > 숲",37.5331460249353,126.918946760765,서울 영등포구 여의도동 82-9
동방신기숲,"여행 > 관광,명소 > 숲",37.533487537946,126.91769279845,서울 영등포구 여의도동 82-9
한강밤섬 철새조망대,"여행 > 관광,명소 > 전망대",37.53303216738752,126.92527477354312,서울 영등포구 여의도동 83-6
여의도생태순환길,"여행 > 관광,명소 > 도보여행 > 둘레길",37.5305326891529,126.931032479237,서울 영등포구 여의도동 84
여의도공원 지당,"여행 > 관광,명소 > 호수",37.5281661730552,126.925771752494,서울 영등포구 여의도동 12
용강상점가,"여행 > 관광,명소 > 테마거리",37.5398820190025,126.94398631114,서울 마포구 용강동 40-5
국회의사당 연못,"여행 > 관광,명소 > 호수",37.53110069208235,126.91885846490835,서울 영등포구 여의도동 1
인피니트숲,"여행 > 관광,명소 > 숲",37.5342262727323,126.917569794037,서울 영등포구 여의도동
망리단길,"여행 > 관광,명소 > 테마거리",37.5536575185624,126.905914457472,서울 마포구 망원동
선유도공원 시간의정원,"여행 > 관광,명소 > 수목원,식물원",37.543881849366,126.899549281341,서울 영등포구 당산동 1
선유도공원 선유도전망대,"여행 > 관광,명소 > 전망대",37.5444426238463,126.897860231332,서울 영등포구 당산동 1
평화의공원 난지연못,"여행 > 관광,명소 > 호수",37.5634265483231,126.895692851699,서울 마포구 성산동
성산,"여행 > 관광,명소 > 산",37.5612851793166,126.912718432086,서울 마포구 성산동
망원 초록길,"여행 > 관광,명소 > 도보여행",37.5514059474095,126.902608278753,서울 마포구 망원동 218-7
선유도 공원 수생식물원,"여행 > 관광,명소 > 수목원,식물원",37.5435039369045,126.90014724815,서울 영등포구 당산동 1
선유도공원 온실,"여행 > 관광,명소 > 수목원,식물원",37.5426408444073,126.902379795226,서울 영등포구 당산동 1
합마르뜨,"여행 > 관광,명소 > 테마거리",37.5459999393901,126.91420053447,서울 마포구 합정동 404
선유도공원 자생습초지,"여행 > 관광,명소 > 수목원,식물원",37.5451838954289,126.89653753695,서울 영등포구 양화동 56
서울도보관광코스 한강~절두산코스,"여행 > 관광,명소 > 도보여행",37.54873177698827,126.90707038687692,서울 마포구 합정동
브라이트룸,"여행 > 관광,명소 > 도자기,도예촌",37.5574900821482,126.903338270923,서울 마포구 망원동 422-4
박시환숲,"여행 > 관광,명소 > 숲",37.5629391712896,126.894747307598,서울 마포구 상암동 1535
정용화숲,"여행 > 관광,명소 > 숲",37.5630290606739,126.894511756801,서울 마포구 상암동 1535
손나은숲,"여행 > 관광,명소 > 숲",37.5629783173144,126.8941903838,서울 마포구 상암동 1535
홍대패션거리,"여행 > 관광,명소 > 테마거리",37.5553965854703,126.923580878826,서울 마포구 서교동 348-78
홍대걷고싶은거리,"여행 > 관광,명소 > 테마거리",37.5559412279911,126.924263894094,서울 마포구 서교동 348-40
홍대클럽거리,"여행 > 관광,명소 > 테마거리",37.5505813183069,126.923065231913,서울 마포구 서교동 361-12
홍대예술의거리,"여행 > 관광,명소 > 테마거리",37.5520434500484,126.92141147348,서울 마포구 서교동
와우산,"여행 > 관광,명소 > 산",37.55135243190681,126.92857794246042,서울 마포구 창전동 3-243
스머프 매직 포레스트 홍대점,"여행 > 관광,명소 > 테마파크",37.5568320510154,126.926701922993,서울 마포구 동교동 170-12
신촌이대거리,"여행 > 관광,명소 > 테마거리 > 먹자골목",37.5573914161758,126.939115681116,서울 서대문구 창천동
홍대축제거리,"여행 > 관광,명소 > 테마거리",37.5512343122068,126.921348949577,서울 마포구 서교동 365-28
홍대벽화거리,"여행 > 관광,명소 > 테마거리",37.5507442326996,126.924201253317,서울 마포구 상수동 88-23
연세대학교 백양로,"여행 > 관광,명소 > 테마거리",37.5612682298358,126.937061666025,서울 서대문구 신촌동 134
빚다도예공방 홍대점,"여행 > 관광,명소 > 도자기,도예촌",37.547312563033,126.923168173207,서울 마포구 상수동 329-6
홍대땡땡거리,"여행 > 관광,명소 > 테마거리",37.5546987847474,126.9317028287,서울 마포구 동교동 190-1
마포음식문화거리,"여행 > 관광,명소 > 테마거리 > 먹자골목",37.5415853568029,126.941201488128,서울 마포구 용강동 45-15
연세로,"여행 > 관광,명소 > 테마거리",37.5575884731824,126.936901786879,서울 서대문구 창천동
노고산,"여행 > 관광,명소 > 산",37.55294729315241,126.94189195088288,서울 마포구 대흥동 산 1-30
신촌피아노거리,"여행 > 관광,명소 > 테마거리",37.5557360489237,126.936950881804,서울 서대문구 창천동 30-16
서울명예도로 노벨길(경의선숲길 홍대입구역방면),"여행 > 관광,명소 > 도보여행",37.55745649014531,126.9267794030394,서울 마포구 동교동 190-66
홍대예술의거리 나들길,"여행 > 관광,명소 > 도보여행",37.552289345911106,126.92837334498412,서울 마포구 창전동
이화52번가,"여행 > 관광,명소 > 테마거리",37.5593872415555,126.944854511401,서울 서대문구 대현동 33-9
삼거리꽃길,"여행 > 관광,명소 > 테마거리",37.5582053633034,126.945348836386,서울 서대문구 대현동
서울명예도로 노벨길(경의선숲길 연남동방면),"여행 > 관광,명소 > 도보여행",37.5576259700548,126.9269286303554,서울 마포구 동교동 172-6
한강,"여행 > 관광,명소 > 강",37.5250892160129,126.947545050571,서울 영등포구 여의도동
용리단길,"여행 > 관광,명소 > 테마거리",37.5314514583385,126.972204479602,서울 용산구 한강로2가 412
열정도,"여행 > 관광,명소 > 테마거리 > 먹자골목",37.5396318708232,126.969476804566,서울 용산구 원효로1가 44-11
한강로동 땡땡거리,"여행 > 관광,명소 > 테마거리",37.52483115316498,126.96045981914406,서울 용산구 한강로3가 40-48
재팬타운,"여행 > 관광,명소 > 테마거리",37.520395307212,126.972400886068,서울 용산구 이촌동 301-5
용마루길,"여행 > 관광,명소 > 테마거리",37.5387600151576,126.958659067499,서울 용산구 용문동 36-17
도화동상점가,"여행 > 관광,명소 > 테마거리",37.5408898731109,126.949154310337,서울 마포구 도화동 179-5
서울명예도로 남이장군로,"여행 > 관광,명소 > 도보여행",37.53576010881851,126.9548964362826,서울 용산구 신창동 56-1
이태원거리,"여행 > 관광,명소 > 테마거리",37.5345613066561,126.99580922812,서울 용산구 이태원동 119-23
경리단길,"여행 > 관광,명소 > 테마거리",37.5397580614249,126.991721972247,서울 용산구 이태원동 210-5
한남동 카페거리,"여행 > 관광,명소 > 테마거리 > 카페거리",37.5369688440826,127.001588561792,서울 용산구 한남동
우사단길,"여행 > 관광,명소 > 테마거리",37.5320818261115,126.999873285391,서울 용산구 한남동 763-7
세계음식특화거리,"여행 > 관광,명소 > 테마거리",37.5350045487442,126.994573687665,서울 용산구 이태원동 108-3
삼각지대구탕골목,"여행 > 관광,명소 > 테마거리 > 먹자골목",37.5345765677564,126.974131256218,서울 용산구 한강로1가 142-3
퀴논길,"여행 > 관광,명소 > 테마거리",37.5338691336306,126.991886677271,서울 용산구 이태원동 65-4
용산가족공원산책길,"여행 > 관광,명소 > 도보여행",37.522432350674606,126.9808866583662,서울 용산구 용산동6가
10.29 기억과 안전의 길,"여행 > 관광,명소 > 테마거리",37.5345702068088,126.993403832895,서울 용산구 이태원동 119-23
서울명예도로 베트남퀴논길,"여행 > 관광,명소 > 도보여행",37.53387275409558,126.9921299294887,서울 용산구 이태원동 74-65
전통염료식물원,"여행 > 관광,명소 > 수목원,식물원",37.52480206594859,126.98137928774658,서울 용산구 용산동6가 168-6
Plant society 1,"여행 > 관광,명소 > 수목원,식물원",37.5392822482892,126.990586009672,서울 용산구 이태원동 225-9
이태원벽화거리,"여행 > 관광,명소 > 테마거리",37.5334080873039,126.998280271281,서울 용산구 한남동 732-240
서울명예도로 유관순길,"여행 > 관광,명소 > 도보여행",37.53562411583576,126.98973563121024,서울 용산구 이태원동 190-13
전쟁기념관산책길,"여행 > 관광,명소 > 도보여행",37.535910472707656,126.97614475553868,서울 용산구 용산동1가
서울한양도성 숭례문구간,"여행 > 관광,명소 > 도보여행 > 서울한양도성",37.563523260181675,126.97156325655304,서울 중구 순화동 1-144
공덕시장족발골목,"여행 > 관광,명소 > 테마거리 > 먹자골목",37.5448632598916,126.953474222473,서울 마포구 공덕동 256-10
마포전골목,"여행 > 관광,명소 > 테마거리 > 먹자골목",37.544636286448,126.953673519856,서울 마포구 공덕동
마포갈매기골목,"여행 > 관광,명소 > 테마거리 > 먹자골목",37.5418023314668,126.950678989353,서울 마포구 도화동 169-3
염천교수제화거리,"여행 > 관광,명소 > 테마거리",37.5593242305974,126.970007506394,서울 중구 의주로2가 61-23
이대앞사주카페거리,"여행 > 관광,명소 > 테마거리 > 카페거리",37.5578523000415,126.945625246085,서울 서대문구 대현동
아현동전골목,"여행 > 관광,명소 > 테마거리 > 먹자골목",37.5568364371917,126.955318329675,서울 마포구 아현동
소금길,"여행 > 관광,명소 > 테마거리",37.5553553761251,126.947034935066,서울 마포구 염리동 9-245
남영동스테이크골목,"여행 > 관광,명소 > 테마거리 > 먹자골목",37.5439359573409,126.973236353706,서울 용산구 남영동 2
공덕소담길,"여행 > 관광,명소 > 테마거리 > 먹자골목",37.5472817198741,126.953929889837,서울 마포구 공덕동
신촌대학탐방나들길,"여행 > 관광,명소 > 도보여행",37.559697526744216,126.94559221484572,서울 서대문구 대현동
삼거리꽃길,"여행 > 관광,명소 > 테마거리",37.5582053633034,126.945348836386,서울 서대문구 대현동
서울명예도로 순헌황귀비길,"여행 > 관광,명소 > 도보여행",37.54485701605643,126.96704858089586,서울 용산구 청파동2가 54-1
서울명예도로 프랑스로,"여행 > 관광,명소 > 도보여행",37.56053374646129,126.96484596580623,서울 서대문구 충정로3가 465
N서울타워,"여행 > 관광,명소 > 전망대",37.5513049702718,126.988230622132,서울 용산구 용산동2가 산 1-3
명동거리,"여행 > 관광,명소 > 테마거리",37.5620769169639,126.984901336292,서울 중구 명동2가
남산둘레길,"여행 > 관광,명소 > 도보여행 > 둘레길",37.5537585658907,126.982413256957,서울 중구 회현동1가
남대문갈치조림골목,"여행 > 관광,명소 > 테마거리 > 먹자골목",37.5596933919402,126.976924906434,서울 중구 남창동 34-155
서울한양도성 남산구간 3코스,"여행 > 관광,명소 > 도보여행 > 서울한양도성",37.55116104550315,126.99088780303528,서울 중구 예장동
남산야외식물원,"여행 > 관광,명소 > 수목원,식물원",37.5428216732984,126.99571824238,서울 용산구 이태원동 259-16
남산돈가스거리,"여행 > 관광,명소 > 테마거리 > 먹자골목",37.5569701853838,126.985866623365,서울 중구 예장동 8-189
남산벚꽃길,"여행 > 관광,명소 > 테마거리",37.5507288988185,126.997877001636,서울 중구 장충동2가
남대문칼국수골목,"여행 > 관광,명소 > 테마거리 > 먹자골목",37.558287872702,126.97711095122,서울 중구 남창동 60-3
남산둘레길전망대,"여행 > 관광,명소 > 전망대",37.5485989042546,126.99645799798,서울 중구 장충동2가 산 14-21
남산,"여행 > 관광,명소 > 산",37.548940860784064,126.98939657811628,서울 용산구 용산동2가 산 1-3
북창동먹자골목,"여행 > 관광,명소 > 테마거리 > 먹자골목",37.5614811760833,126.978006379609,서울 중구 북창동 131
소월길,"여행 > 관광,명소 > 도보여행",37.54864114371065,126.9841662236206,서울 용산구 후암동
해방촌예술마을,"여행 > 관광,명소 > 테마거리",37.5462549464597,126.9817270104,서울 용산구 용산동2가
수생식물원,"여행 > 관광,명소 > 수목원,식물원",37.543524398034,126.994405600326,서울 용산구 이태원동 259-16
북창동음식거리,"여행 > 관광,명소 > 테마거리 > 먹자골목",37.5637516431251,126.977770285443,서울 중구 북창동 38-3
재미로,"여행 > 관광,명소 > 테마거리",37.5592118648241,126.985852618471,서울 중구 남산동2가 15-27
후암동전망대,"여행 > 관광,명소 > 전망대",37.5518301982142,126.980919893966,서울 용산구 후암동 30-182
남산공원남측순환도로,"여행 > 관광,명소 > 도보여행",37.5469985957571,126.993341631205,서울 용산구 이태원동
남산야외식물원 산책길,"여행 > 관광,명소 > 도보여행",37.54262707568856,126.996256866439,서울 용산구 이태원동
남산소나무힐링숲,"여행 > 관광,명소 > 숲",37.5511793677409,126.99658688614,서울 중구 장충동2가 산 14-21
오토바이거리,"여행 > 관광,명소 > 테마거리",37.5626581239414,127.000249005385,서울 중구 충무로5가 19-10
잠두봉포토아일랜드,"여행 > 관광,명소 > 전망대",37.55428875141,126.985332959793,서울 중구 예장동 산 5-6
충무로애견거리,"여행 > 관광,명소 > 테마거리",37.5620273819665,126.996753902626,서울 중구 충무로4가 93-1
유네스코길,"여행 > 관광,명소 > 테마거리",37.5636442919234,126.982315857296,서울 중구 남대문로2가 16-18
서울도보관광코스 남산성곽,"여행 > 관광,명소 > 도보여행",37.549986486538536,126.99856959311543,서울 중구 장충동2가
국치길,"여행 > 관광,명소 > 테마거리",37.5561915844525,126.98474860652,서울 중구 남산동2가
남산순환 나들길(쉽게걷는길),"여행 > 관광,명소 > 도보여행",37.55457057869547,126.99321420490313,서울 중구 예장동
남산순환나들길,"여행 > 관광,명소 > 도보여행",37.55116104550315,126.99088780303528,서울 중구 예장동
예술통,"여행 > 관광,명소 > 테마거리",37.5609513705316,126.992075018508,서울 중구 필동1가 13-2
영화인의거리,"여행 > 관광,명소 > 테마거리",37.5622180481152,126.990406558079,서울 중구 충무로2가 111
남산 소나무숲 탐방로,"여행 > 관광,명소 > 숲",37.5451318297326,126.995555163077,서울 용산구 이태원동
서울명예도로 유네스코길,"여행 > 관광,명소 > 도보여행",37.563842883305846,126.98500511106585,서울 중구 명동1가 52-1
남산한바퀴코스,"여행 > 관광,명소 > 도보여행",37.5514564400385,126.989303424541,서울 중구 예장동
양재천카페거리,"여행 > 관광,명소 > 테마거리 > 카페거리",37.4766739327213,127.040292609639,서울 서초구 양재동 96-9
스머프매직포레스트,"여행 > 관광,명소 > 테마파크",37.5034906075971,127.027843960692,서울 강남구 역삼동 616-14
양재천 벚꽃길,"여행 > 관광,명소 > 도보여행",37.4842278490895,127.05009042856,서울 강남구 도곡동 468
논현가구거리,"여행 > 관광,명소 > 테마거리",37.5124049314709,127.024779773951,서울 강남구 논현동 55-16
양재천산책길,"여행 > 관광,명소 > 도보여행",37.47332710513755,127.03619842412328,서울 서초구 양재동
서리풀 악기거리,"여행 > 관광,명소 > 테마거리",37.4810392076794,127.01266057515,서울 서초구 서초동 1464-34
양재천길,"여행 > 관광,명소 > 테마거리",37.48173389613235,127.04554140697924,서울 강남구 도곡동 468
신세계백화점 파미에스트리트,"여행 > 관광,명소 > 테마거리",37.505440881548,127.004356528338,서울 서초구 반포동 19-3
학골맛의거리,"여행 > 관광,명소 > 테마거리 > 먹자골목",37.5166619016736,127.03629173906,서울 강남구 논현동 279-65
신사동간장게장골목,"여행 > 관광,명소 > 테마거리 > 먹자골목",37.5150730777176,127.018346825073,서울 서초구 잠원동 22-23
우면산둘레길,"여행 > 관광,명소 > 도보여행",37.47632984294059,127.01798009923644,서울 서초구 우면동
서리풀푸드트럭존,"여행 > 관광,명소 > 테마거리 > 먹자골목",37.49798658772074,127.02686937234697,서울 서초구 서초동 1318-7
서초 우면산숲길,"여행 > 관광,명소 > 도보여행 > 둘레길",37.4818602316849,127.018022126772,서울 서초구 서초동 산 54-6
서울테마산책길 인재개발원 잣나무숲길,"여행 > 관광,명소 > 도보여행 > 둘레길",37.47799468920583,127.01936883132171,서울 서초구 서초동 산 36-6
연인의거리,"여행 > 관광,명소 > 테마거리",37.4780969482734,127.041957566789,서울 서초구 양재동 99-5
선정릉나들길,"여행 > 관광,명소 > 도보여행",37.510100625916095,127.0513134103632,서울 강남구 삼성동
서울명예도로 국기원길,"여행 > 관광,명소 > 도보여행",37.500214812395534,127.0304347657225,서울 강남구 역삼동 635-1
우면산 유아숲,"여행 > 관광,명소 > 숲",37.4774476635016,127.020045893343,서울 서초구 서초동 산 36-6
신화숲,"여행 > 관광,명소 > 숲",37.4792751659978,127.051803348533,서울 강남구 개포동 1271
서리골서리풀나들길,"여행 > 관광,명소 > 도보여행",37.49325933519616,127.00230682092705,서울 서초구 서초동
서울둘레길 10코스 산속에서 보는 서울길,"여행 > 관광,명소 > 도보여행 > 둘레길",37.4764030184701,127.008035882195,서울 서초구 서초동 산 150-123
등기소길,"여행 > 관광,명소 > 테마거리",37.5098842804929,127.051553043846,서울 강남구 삼성동
서울명예도로 무지개길,"여행 > 관광,명소 > 도보여행",37.50089005298573,127.02493881912072,서울 서초구 서초동 1391
우면지,"여행 > 관광,명소 > 저수지",37.47810631094235,127.0136628925558,서울 서초구 서초동 1180-2
서초명품화랑,"여행 > 관광,명소 > 도자기,도예촌",37.4879967787568,127.012813265097,서울 서초구 서초동 1579-7
우면산나들길,"여행 > 관광,명소 > 도보여행",37.47706227074659,127.01150448163445,서울 서초구 서초동
서울도보관광코스 선릉~봉은사,"여행 > 관광,명소 > 도보여행",37.51122556117405,127.05019216354772,서울 강남구 삼성동
신반포올레길,"여행 > 관광,명소 > 도보여행",37.51468518875122,127.00435254117068,서울 서초구 잠원동
서울테마산책길 포이산책길,"여행 > 관광,명소 > 도보여행",37.47598006148867,127.05406666427145,서울 강남구 개포동 1271
서울명예도로 아셈길,"여행 > 관광,명소 > 도보여행",37.5106742454568,127.05785583734026,서울 강남구 삼성동 159-4
서울명예도로 국악길,"여행 > 관광,명소 > 도보여행",37.47586999800344,127.05030417317576,서울 강남구 개포동 1271-2
롯데월드 어드벤처,"여행 > 관광,명소 > 테마파크",37.51113059993883,127.09811980036908,서울 송파구 잠실동 40-1
석촌호수 서호,"여행 > 관광,명소 > 호수",37.5076807262772,127.099112837006,서울 송파구 잠실동 47
석촌호수 동호,"여행 > 관광,명소 > 호수",37.5116212351376,127.105899949393,서울 송파구 신천동 32
방이동먹자골목,"여행 > 관광,명소 > 테마거리 > 먹자골목",37.5147825360342,127.109220856293,서울 송파구 방이동 95-4
서울스카이,"여행 > 관광,명소 > 전망대",37.5125423170714,127.10254645284908,서울 송파구 신천동 29
송리단길,"여행 > 관광,명소 > 테마거리",37.5093249452576,127.110416326514,서울 송파구 송파동
대모산,"여행 > 관광,명소 > 산",37.47482803960479,127.0790106835936,서울 강남구 일원동
맨발황톳길,"여행 > 관광,명소 > 도보여행",37.4894522960263,127.060756767238,서울 강남구 대치동 504-4
대치동학원가,"여행 > 관광,명소 > 테마거리",37.4980203713024,127.058171762935,서울 강남구 대치동 1026
석촌호수산책길,"여행 > 관광,명소 > 도보여행",37.51008968822101,127.1057213421415,서울 송파구 송파동
일원동맛의거리,"여행 > 관광,명소 > 테마거리 > 먹자골목",37.489500754504,127.081964922418,서울 강남구 일원동
매직아일랜드,"여행 > 관광,명소 > 테마파크",37.5087142658269,127.100077838695,서울 송파구 잠실동 47
대모산둘레길,"여행 > 관광,명소 > 도보여행 > 둘레길",37.4837166283926,127.100216345308,서울 강남구 수서동
송파둘레길 탄천길,"여행 > 관광,명소 > 도보여행 > 둘레길",37.48207941752556,127.11420451912292,서울 송파구 문정동 419-6
석촌호수길 카페거리,"여행 > 관광,명소 > 테마거리 > 카페거리",37.5104457741365,127.106513581668,서울 송파구 송파동 31-1
RM숲,"여행 > 관광,명소 > 숲",37.5173715949209,127.084463583412,서울 송파구 잠실동 1-1
송파둘레길 한강길,"여행 > 관광,명소 > 도보여행 > 둘레길",37.518535122371766,127.08649422379914,서울 송파구 잠실동 1-1
대모산 무장애나눔길,"여행 > 관광,명소 > 도보여행 > 무장애나눔길",37.4787215625192,127.075862739078,서울 강남구 일원동 산 52-15
리트릿 스파 시그니엘 서울,"여행 > 관광,명소 > 온천",37.512419735513,127.102598314961,서울 송파구 신천동 29
방이동먹자촌,"여행 > 관광,명소 > 테마거리 > 먹자골목",37.5150232423258,127.113845235091,서울 송파구 방이동
광수산,"여행 > 관광,명소 > 산",37.4886809593616,127.093906746303,서울 강남구 수서동 산 10-1
마루공원산책로,"여행 > 관광,명소 > 숲",37.4961438943881,127.08063327035,서울 강남구 개포동 18-1
양재천 은행나무길,"여행 > 관광,명소 > 도보여행",37.4913202344734,127.068705297683,서울 강남구 대치동 513-3
서울테마산책길 강남구 양재천,"여행 > 관광,명소 > 도보여행",37.48978286489198,127.06267477339766,서울 강남구 대치동 513-3
포트메리온 롯데잠실점,"여행 > 관광,명소 > 도자기,도예촌",37.51243419505187,127.09938605807282,서울 송파구 잠실동 40-1
휴도예유리공방,"여행 > 관광,명소 > 도자기,도예촌",37.4989740949783,127.102534680825,서울 송파구 석촌동 241
대모산나들길,"여행 > 관광,명소 > 도보여행",37.47853762083447,127.07607397017642,서울 강남구 일원동
보라믹,"여행 > 관광,명소 > 도자기,도예촌",37.5143905599587,127.11214760491,서울 송파구 방이동 55-14
카페스트리트,"여행 > 관광,명소 > 테마거리 > 카페거리",37.5136663617385,127.104043307497,서울 송파구 신천동 29
로이킴숲,"여행 > 관광,명소 > 숲",37.4864863464794,127.060428725814,서울 강남구 개포동 156
29스트리트,"여행 > 관광,명소 > 테마거리 > 카페거리",37.513655525793,127.104070438896,서울 송파구 신천동 29
명광도예,"여행 > 관광,명소 > 도자기,도예촌",37.5101787232274,127.11081571347,서울 송파구 송파동 50-9
양재천 감나무길,"여행 > 관광,명소 > 도보여행",37.4956279734092,127.07316584505,서울 강남구 대치동 10
(주)디에스씨에프씨,"여행 > 관광,명소 > 도자기,도예촌",37.5062438852221,127.097717557768,서울 송파구 석촌동 1-1
서울명예도로 무역대로,"여행 > 관광,명소 > 도보여행",37.50951122187925,127.06280889280914,서울 강남구 삼성동 111-8
송파소리길,"여행 > 관광,명소 > 도보여행",37.510594116182915,127.10587135292384,서울 송파구 신천동
신사동가로수길,"여행 > 관광,명소 > 테마거리",37.5211558694563,127.022836977184,서울 강남구 신사동 530
잠원한강공원 눈썰매장,"스포츠,레저 > 스포츠시설 > 눈썰매장",37.5195682730757,127.010135475598,서울 서초구 잠원동 121
지민숲,"여행 > 관광,명소 > 숲",37.5219197329404,127.01183263413,서울 서초구 잠원동 147-1
서울명예도로 가로수길,"여행 > 관광,명소 > 도보여행",37.52110901030475,127.0228731617732,서울 강남구 신사동 667-13
한강,"여행 > 관광,명소 > 강",37.5311544098433,127.0167442231,서울 강남구 압구정동
압구정로데오거리,"여행 > 관광,명소 > 테마거리",37.5267558230172,127.039152029523,서울 강남구 신사동 668-33
청담동명품거리,"여행 > 관광,명소 > 테마거리",37.5261262382238,127.046048046817,서울 강남구 청담동 99-21
한류스타거리,"여행 > 관광,명소 > 테마거리",37.5276413582416,127.042202512988,서울 강남구 압구정동 516
서울숲 곤충식물원,"여행 > 관광,명소 > 수목원,식물원",37.5414277019142,127.039209487238,서울 성동구 성수동1가 685-715
압구정토끼굴,"여행 > 관광,명소 > 테마거리",37.530640035829,127.041796913386,서울 강남구 압구정동
서울숲 한강 전망대,"여행 > 관광,명소 > 전망대",37.5379147526231,127.041694615485,서울 성동구 성수동1가 700-1
청담동패션거리,"여행 > 관광,명소 > 테마거리",37.5254385255932,127.044341653848,서울 강남구 청담동
성임헤드스파,"여행 > 관광,명소 > 온천",37.52541605566741,127.04419457419004,서울 강남구 청담동 94-6
서울명예도로 청담문화거리,"여행 > 관광,명소 > 도보여행",37.524453508587335,127.04723710960327,서울 강남구 청담동 145
압구정그래피티,"여행 > 관광,명소 > 숲",37.5307589727902,127.041783403431,서울 강남구 압구정동
서울명예도로 리버사이드길,"여행 > 관광,명소 > 도보여행",37.5230087905356,127.03555724249576,서울 강남구 신사동 668-23
응봉산,"여행 > 관광,명소 > 산",37.5482528089186,127.029834156041,서울 성동구 응봉동
신당동떡볶이타운,"여행 > 관광,명소 > 테마거리 > 먹자골목",37.5630320348009,127.014609897994,서울 중구 신당동 302-30
다산성곽길,"여행 > 관광,명소 > 테마거리",37.5542427094569,127.004884483545,서울 중구 장충동2가
장충동족발거리,"여행 > 관광,명소 > 테마거리 > 먹자골목",37.5602000538893,127.005975932894,서울 중구 장충동1가 62-18
매봉산,"여행 > 관광,명소 > 산",37.5444361154083,127.007314449811,서울 중구 신당동 51
서울숲남산나들길,"여행 > 관광,명소 > 도보여행",37.551635838038145,127.017427809616,서울 성동구 금호동2가
장충단길,"여행 > 관광,명소 > 테마거리",37.5601000746319,127.005319478612,서울 중구 장충동2가 187-1
서울테마산책길 성동구 매봉산 치유숲길,"여행 > 관광,명소 > 도보여행",37.546457820222535,127.00927004811516,서울 성동구 옥수동 산 428-6
신당토기항아리집,"여행 > 관광,명소 > 도자기,도예촌",37.5634638045158,127.019513177447,서울 중구 신당동 145-15
한남매봉공원산책길,"여행 > 관광,명소 > 도보여행",37.54247556055952,127.00698384932748,서울 용산구 한남동
웅봉친화숲길,"여행 > 관광,명소 > 도보여행",37.5533000718476,127.016804629839,서울 성동구 금호동2가 산 9-1
성수동카페거리,"여행 > 관광,명소 > 테마거리 > 카페거리",37.54243256842165,127.0563935302218,서울 성동구 성수동2가 276-5
서울숲카페거리,"여행 > 관광,명소 > 테마거리 > 카페거리",37.5464440372535,127.043028992489,서울 성동구 성수동1가 668-11
성수동수제화거리,"여행 > 관광,명소 > 테마거리",37.54443871234734,127.05718713825244,서울 성동구 성수동2가 289-30
성수동갈비골목,"여행 > 관광,명소 > 테마거리 > 먹자골목",37.5469328588197,127.044168799464,서울 성동구 성수동1가 668-11
무지개 어린이눈썰매장,"스포츠,레저 > 스포츠시설 > 눈썰매장",37.5538942681632,127.040843416726,서울 성동구 행당동 378
아틀리에길,"여행 > 관광,명소 > 테마거리",37.5471322541742,127.04090536026,서울 성동구 성수동1가
서울숲공원산책길,"여행 > 관광,명소 > 도보여행",37.54381745677229,127.03828286146076,서울 성동구 성수동1가
왕십리맛골목,"여행 > 관광,명소 > 테마거리 > 먹자골목",37.5594976690083,127.040558999308,서울 성동구 행당동 19-54
마장동벽화마을,"여행 > 관광,명소 > 테마거리",37.5635758233962,127.044866792085,서울 성동구 마장동
서울숲 은행나무숲,"여행 > 관광,명소 > 숲",37.5454108031282,127.037093252208,서울 성동구 성수동1가 678-4
서울숲 은행나무길,"여행 > 관광,명소 > 테마거리",37.5450271781489,127.041881891663,서울 성동구 성수동1가 685-20
뚝섬유수지체육공원 정수식물원,"여행 > 관광,명소 > 수목원,식물원",37.5491362479083,127.040404008064,서울 성동구 성수동1가 676-1
왕십리여행자거리,"여행 > 관광,명소 > 테마거리",37.5630708591822,127.03546761658,서울 성동구 도선동 34
뚝섬유수지,"여행 > 관광,명소 > 저수지",37.5494750804823,127.040236707765,서울 성동구 성수동1가
성수동가죽거리,"여행 > 관광,명소 > 테마거리",37.5427516230894,127.054255157074,서울 성동구 성수동2가
서울숲 산책로,"여행 > 관광,명소 > 숲",37.5454108017063,127.037097778534,서울 성동구 성수동1가 678-4
서울테마산책길 서울숲 공원길,"여행 > 관광,명소 > 도보여행",37.54456001435444,127.03786682380787,서울 성동구 성수동1가 678-1
성동올레길,"여행 > 관광,명소 > 도보여행 > 둘레길",37.5441889469854,127.037414010798,서울 성동구 성수동1가
B101워크룸,"여행 > 관광,명소 > 도자기,도예촌",37.5442720658839,127.051214613519,서울 성동구 성수동2가 301-97
성동구보도블록변천사 거리,"여행 > 관광,명소 > 테마거리",37.5633660732128,127.056978627934,서울 성동구 용답동 224-1
서울어린이대공원 놀이동산,"여행 > 관광,명소 > 테마파크",37.55147044344215,127.08378909469192,서울 광진구 능동 18
서울어린이대공원 동물원,"여행 > 관광,명소 > 동물원",37.5482386958136,127.082318892024,서울 광진구 능동 18
우리유황온천,"여행 > 관광,명소 > 온천",37.53075638299484,127.0839016807752,서울 광진구 자양동 663-21
서울어린이대공원,"여행 > 관광,명소 > 테마파크",37.5499772549675,127.080235171998,서울 광진구 능동 18
긴고랑계곡,"여행 > 관광,명소 > 계곡",37.562925253932,127.096220539793,서울 광진구 중곡동 143-146
광진교8번가,"여행 > 관광,명소 > 전망대",37.54449916415587,127.11418651384618,서울 강동구 천호동 522-10
뚝섬전망문화콤플렉스 인증센터,"여행 > 관광,명소 > 자전거여행",37.5320556807962,127.060180364398,서울 광진구 자양동 145-4
뚝섬한강공원 눈썰매장,"스포츠,레저 > 스포츠시설 > 눈썰매장",37.52999235289054,127.06694190913146,서울 광진구 자양동 112
워커힐길,"여행 > 관광,명소 > 테마거리",37.5530960585989,127.109892388308,서울 광진구 광장동 22-1
건국대학교 일감호,"여행 > 관광,명소 > 호수",37.5407427574049,127.076399636666,서울 광진구 화양동 393-1
양꼬치거리,"여행 > 관광,명소 > 테마거리",37.540105493816,127.063106107465,서울 광진구 자양동 16-35
서울레저파크 어린이회관 눈썰매장,"스포츠,레저 > 스포츠시설 > 눈썰매장",37.54564728770453,127.08121387849964,서울 광진구 능동 18-11
건대맛의거리,"여행 > 관광,명소 > 테마거리 > 먹자골목",37.5406780333481,127.070361832869,서울 광진구 화양동 6-4
서울어린이대공원 식물원,"여행 > 관광,명소 > 수목원,식물원",37.5486396093988,127.081060959963,서울 광진구 능동 18-40
시립서울천문대,"여행 > 관광,명소 > 천문대",37.5462988559003,127.106030460943,서울 광진구 광장동 303-111
건대양꼬치골목,"여행 > 관광,명소 > 테마거리 > 먹자골목",37.5390225461807,127.0662959828,서울 광진구 자양동 11-2
서울둘레길 5코스 사람과 역사를 잇는 길,"여행 > 관광,명소 > 도보여행 > 둘레길",37.5613793349325,127.10137626848964,경기 구리시 아천동 산 49-1
건대로데오거리,"여행 > 관광,명소 > 테마거리",37.5402471171909,127.067686553447,서울 광진구 자양동 8-5
건대먹자골목,"여행 > 관광,명소 > 테마거리 > 먹자골목",37.5419141366759,127.070476147369,서울 광진구 화양동
중곡동가구거리,"여행 > 관광,명소 > 테마거리",37.5564783346015,127.080997018411,서울 광진구 능동
아차산어울림정원 자생식물원,"여행 > 관광,명소 > 수목원,식물원",37.5521383658138,127.100724349386,서울 광진구 광장동 369-4
광진숲나루 전망대,"여행 > 관광,명소 > 전망대",37.54662261588579,127.09839601637518,서울 광진구 광장동 401-14
건대맛의거리,"여행 > 관광,명소 > 테마거리 > 먹자골목",37.5426996356978,127.064470668923,서울 광진구 화양동 42-16
서울어린이대공원 무장애나눔길,"여행 > 관광,명소 > 도보여행 > 무장애나눔길",37.5479462104612,127.083120888861,서울 광진구 능동 18
성동송정둑길,"여행 > 관광,명소 > 도보여행",37.553016752789475,127.0664894485094,서울 성동구 송정동
서울테마산책길 뚝섬숲속길,"여행 > 관광,명소 > 도보여행",37.52795842248039,127.07215999249094,서울 광진구 자양동 112
태형숲1호,"여행 > 관광,명소 > 숲",37.5220510569589,127.097760794106,서울 송파구 신천동 1-1
풍납동토성 남성벽 전망대,"여행 > 관광,명소 > 전망대",37.5277269494438,127.11335205342888,서울 송파구 풍납동 240
자라나는숲,"여행 > 관광,명소 > 전망대",37.5466280152709,127.098403944671,서울 광진구 광장동 401-14
아차산고구려역사길 1코스(아차산고구려역사길),"여행 > 관광,명소 > 도보여행",37.55580759823154,127.10444591727894,서울 광진구 구의동
아차산숲나들길,"여행 > 관광,명소 > 도보여행",37.55346345874286,127.1020932301114,서울 광진구 구의동
그로빈아뜰리에,"여행 > 관광,명소 > 도자기,도예촌",37.561591562913,127.079567397879,서울 광진구 중곡동 257-1
진진낭,"여행 > 관광,명소 > 도자기,도예촌",37.5325847980477,127.079586353358,서울 광진구 자양동 616-13
어린이대공원산책길,"여행 > 관광,명소 > 도보여행",37.55041683170351,127.08039747018864,서울 광진구 능동
아차산고구려역사길 2코스(토성산성어울길연계),"여행 > 관광,명소 > 도보여행",37.52853421633016,127.1143182962915,서울 송파구 풍납동
cerazone,"여행 > 관광,명소 > 도자기,도예촌",37.5470381158421,127.102469212483,서울 광진구 광장동 258-37
효리숲,"여행 > 관광,명소 > 숲",37.5459744184107,127.083696941981,서울 광진구 능동 18
봉산 편백나무 치유의 숲,"여행 > 관광,명소 > 자연휴양림",37.5957217691367,126.897760740517,경기 고양시 덕양구 향동동 산 125-1
안산 황톳길,"여행 > 관광,명소 > 테마거리",37.579009260564696,126.93961771198794,서울 서대문구 연희동 산 2-22
안산벚꽃길,"여행 > 관광,명소 > 테마거리",37.5794293721043,126.938355085326,서울 서대문구 연희동
메타세콰이어길,"여행 > 관광,명소 > 숲",37.57941650835176,126.9414026987084,서울 서대문구 연희동 산 2-2
응암동감자국거리,"여행 > 관광,명소 > 테마거리 > 먹자골목",37.5873667630032,126.917157976882,서울 은평구 응암동 602-17
백련산,"여행 > 관광,명소 > 산",37.591588587024475,126.92778880701992,서울 서대문구 홍은동 산 11-123
매봉산,"여행 > 관광,명소 > 산",37.5728155695483,126.892401498248,서울 마포구 성산동 산 53-7
봉산전망대,"여행 > 관광,명소 > 전망대",37.5965086000253,126.901247316566,서울 은평구 신사동 산 93-8
봉산산책로,"여행 > 관광,명소 > 도보여행 > 둘레길",37.5930832687553,126.899394866304,경기 고양시 덕양구 향동동 239-2
난지도길,"여행 > 관광,명소 > 드라이브코스",37.5696578503051,126.891708760926,서울 마포구 성산동
옛성길전망대,"여행 > 관광,명소 > 전망대",37.6047354638126,126.94362515378,서울 서대문구 홍은동 산 1-85
고은산,"여행 > 관광,명소 > 산",37.586352984971,126.939087571298,서울 서대문구 홍제동
백련전망대,"여행 > 관광,명소 > 전망대",37.5915687672918,126.92779222301,서울 서대문구 홍은동 산 11-123
응암전통주거리,"여행 > 관광,명소 > 테마거리 > 먹자골목",37.5887115505696,126.914085860406,서울 은평구 응암동 604-11
윤아숲,"여행 > 관광,명소 > 숲",37.580572190932,126.89335489711,서울 마포구 상암동
수미산,"여행 > 관광,명소 > 산",37.5868539203637,126.939055461254,서울 서대문구 홍제동 산 41-2
안산숲나들길,"여행 > 관광,명소 > 도보여행",37.57734812652964,126.94201110635048,서울 서대문구 연희동
백련산나들길,"여행 > 관광,명소 > 도보여행",37.58817785651625,126.92848842285493,서울 서대문구 홍은동
반홍산,"여행 > 관광,명소 > 산",37.5863685397499,126.903060913729,서울 은평구 증산동 산 14
새터산,"여행 > 관광,명소 > 산",37.5664226200046,126.905640331713,서울 마포구 성산동 산 37-1
망봉산,"여행 > 관광,명소 > 산",37.5733115124115,126.893833900974,서울 마포구 상암동 1763
서울명예도로 강경대거리,"여행 > 관광,명소 > 도보여행",37.5797401444454,126.924295267057,서울 서대문구 남가좌동 318-2
서울테마산책길 문화비축기지 산책로,"여행 > 관광,명소 > 도보여행",37.56989103424675,126.8945020798392,서울 마포구 성산동 661
서울명예도로 정지용길,"여행 > 관광,명소 > 도보여행",37.60751330069631,126.92878249143064,서울 은평구 녹번동 126-8
증산역갈림길,"여행 > 관광,명소 > 도보여행",37.5822224990026,126.907974109699,서울 은평구 증산동 199-9
통일로,"여행 > 관광,명소 > 테마거리",37.5961738873798,126.939260742652,서울 서대문구 홍은동
인왕산,"여행 > 관광,명소 > 산",37.58489976333122,126.9578444361,서울 종로구 옥인동 산 3-39
안산자락길,"여행 > 관광,명소 > 도보여행",37.575422861783345,126.94816634534916,서울 서대문구 봉원동
경희궁,"여행 > 관광,명소 > 문화유적 > 고궁,궁",37.5707881525953,126.968649079046,서울 종로구 신문로2가 2-1
인왕산 수성동계곡,"여행 > 관광,명소 > 계곡",37.58224803630631,126.96290319667344,서울 종로구 옥인동 179-1
서울 한양도성 인왕산구간4코스,"여행 > 관광,명소 > 도보여행 > 서울한양도성",37.57913628309314,126.9609745237548,서울 종로구 누상동
안산,"여행 > 관광,명소 > 산",37.57699407127241,126.94588076019748,서울 서대문구 봉원동 산 1
무무대전망대,"여행 > 관광,명소 > 전망대",37.5838763708636,126.963673392196,서울 종로구 옥인동 산 3-13
세종마을 음식문화거리,"여행 > 관광,명소 > 테마거리 > 먹자골목",37.576569842339,126.972273753522,서울 종로구 체부동 189-1
인왕산둘레길,"여행 > 관광,명소 > 도보여행 > 둘레길",37.57828422271653,126.96183082024628,서울 종로구 사직동 산 1-25
인왕산둘레길,"여행 > 관광,명소 > 도보여행",37.58319194079194,126.96474474188548,서울 종로구 옥인동 179-1
황학정,"여행 > 관광,명소 > 문화유적 > 고궁,궁",37.57790737451272,126.96395704641743,서울 종로구 사직동 산 1-1
고종의길,"여행 > 관광,명소 > 테마거리",37.5677363101102,126.972675463746,서울 중구 정동 10-1
경희궁 숭정전,"여행 > 관광,명소 > 문화유적 > 고궁,궁",37.5713718445455,126.968078319249,서울 종로구 신문로2가 2-1
서울테마산책길 진경산수화길,"여행 > 관광,명소 > 도보여행",37.586346411188536,126.96824854905408,서울 종로구 청운동 3-101
서울명예도로 옥류동천길,"여행 > 관광,명소 > 도보여행",37.57923624399721,126.97005838987884,서울 종로구 통인동 158-2
동네골목길관광코스 6코스(무악동),"여행 > 관광,명소 > 도보여행",37.57715405138825,126.96083971085632,서울 종로구 무악동
서울도보관광코스 세종마을,"여행 > 관광,명소 > 도보여행",37.58072469488611,126.97009402152956,서울 종로구 통인동
동네골목길관광코스 7코스(교남동),"여행 > 관광,명소 > 도보여행",37.57372049033821,126.96407905743442,서울 종로구 사직동
동네골목길관광코스 1코스(청운효자동),"여행 > 관광,명소 > 도보여행",37.584311247019336,126.9725561895514,서울 종로구 궁정동
서울명예도로 송강길,"여행 > 관광,명소 > 도보여행",37.58539948348241,126.97186289168717,서울 종로구 청운동 89-10
동네골목길관광코스 2코스(사직동오솔길),"여행 > 관광,명소 > 도보여행",37.57563540781105,126.96828479452655,서울 종로구 사직동
덕수궁산책길,"여행 > 관광,명소 > 도보여행",37.569116738930184,126.97196410093332,서울 종로구 신문로2가
동네골목길관광코스 16코스(세종마을),"여행 > 관광,명소 > 도보여행",37.57945248367347,126.97006283167369,서울 종로구 통인동
서울도보관광코스 경희궁~서대문,"여행 > 관광,명소 > 도보여행",37.57161244120385,126.96500829195033,서울 종로구 홍파동
인왕산나들길,"여행 > 관광,명소 > 도보여행",37.58041606882954,126.96212408091328,서울 종로구 누상동
서울명예도로 겸재길,"여행 > 관광,명소 > 도보여행",37.58309177978962,126.96735326707356,서울 종로구 옥인동 24-2
부암동나들길,"여행 > 관광,명소 > 도보여행",37.58666509141789,126.96130119765108,서울 종로구 부암동
서울명예도로 한글로,"여행 > 관광,명소 > 도보여행",37.58291239377003,126.97043731977908,서울 종로구 효자동 8
덕수궁,"여행 > 관광,명소 > 문화유적 > 고궁,궁",37.5655638710672,126.974894754989,서울 중구 정동 5-1
인사동거리,"여행 > 관광,명소 > 테마거리",37.5733610774662,126.98561901337,서울 종로구 관훈동
덕수궁돌담길,"여행 > 관광,명소 > 도보여행",37.564976582796,126.975664628917,서울 중구 정동 5-1
다이나믹메이즈 서울인사동점,"여행 > 관광,명소 > 테마파크",37.57189803811425,126.98714973498456,서울 종로구 인사동 43
인사동 문화의거리,"여행 > 관광,명소 > 테마거리",37.5745467832909,126.985591616819,서울 종로구 관훈동 30-1
정동전망대,"여행 > 관광,명소 > 전망대",37.56456211289399,126.97560817016978,서울 중구 서소문동 37
젊음의거리,"여행 > 관광,명소 > 테마거리",37.5692345332212,126.985733001008,서울 종로구 관철동 32
더벨스파,"여행 > 관광,명소 > 온천",37.5646382835128,126.9780914738,서울 중구 태평로2가 23
경운궁 양이재,"여행 > 관광,명소 > 문화유적 > 고궁,궁",37.5669983764777,126.97546475534,서울 중구 정동 3
정명당,"여행 > 관광,명소 > 도자기,도예촌",37.5741719887225,126.985750171393,서울 종로구 관훈동 30-13
덕수궁 즉조당,"여행 > 관광,명소 > 문화유적 > 고궁,궁",37.566288290077,126.974980536086,서울 중구 정동 5-1
을지한빛거리,"여행 > 관광,명소 > 테마거리",37.5672054937212,126.985756026237,서울 중구 장교동 1-6
동네골목길관광코스 9코스(종로1.2.3.4가),"여행 > 관광,명소 > 도보여행",37.572770118665254,126.98641152397016,서울 종로구 인사동
태화관길,"여행 > 관광,명소 > 테마거리",37.5727560293372,126.985374618697,서울 종로구 관훈동 198-32
서울도보관광코스 덕수궁~정동,"여행 > 관광,명소 > 도보여행",37.565538461102,126.9740526401788,서울 중구 정동
관철동불닭골목,"여행 > 관광,명소 > 테마거리 > 먹자골목",37.5690397581745,126.984465266248,서울 종로구 관철동 42-3
서울도보관광코스 인사동~운현궁코스,"여행 > 관광,명소 > 도보여행",37.57392671681528,126.98416992774226,서울 종로구 관훈동
서울명예도로 우당이회영길,"여행 > 관광,명소 > 도보여행",37.565053930539705,126.98588320634772,서울 중구 명동1가 3-2
서학당길,"여행 > 관광,명소 > 테마거리",37.5677696700621,126.975663720271,서울 중구 정동 3-8
동네골목길관광코스 종교문화유적길,"여행 > 관광,명소 > 도보여행",37.57400220908697,126.98280243847536,서울 종로구 견지동
익선동한옥거리,"여행 > 관광,명소 > 테마거리",37.5734371942191,126.989775723896,서울 종로구 익선동
광장시장 전골목,"여행 > 관광,명소 > 테마거리 > 먹자골목",37.5705616588662,127.000633898859,서울 종로구 종로4가
을지로노가리골목,"여행 > 관광,명소 > 테마거리 > 먹자골목",37.5671952556723,126.991791379229,서울 중구 을지로3가 95-2
을지로3가 골뱅이골목,"여행 > 관광,명소 > 테마거리 > 먹자골목",37.5649497860502,126.98943279328,서울 중구 저동2가
굴보쌈골목,"여행 > 관광,명소 > 테마거리 > 먹자골목",37.569901798733,126.991130022087,서울 종로구 관수동 43-2
돈의동갈매기살골목,"여행 > 관광,명소 > 테마거리 > 먹자골목",37.5731273424889,126.990880599307,서울 종로구 돈의동
락희거리,"여행 > 관광,명소 > 테마거리",37.5722117017437,126.988277140357,서울 종로구 낙원동 289-7
종로귀금속거리,"여행 > 관광,명소 > 테마거리",37.5718156313576,126.992882102052,서울 종로구 봉익동
서울명예도로 송해길,"여행 > 관광,명소 > 도보여행",37.571624338139195,126.9891692313422,서울 종로구 낙원동 146-2
낙원동아구찜거리,"여행 > 관광,명소 > 테마거리",37.5733937913018,126.988118474352,서울 종로구 낙원동
을지로가구거리,"여행 > 관광,명소 > 테마거리",37.5659125093382,126.998216138374,서울 중구 을지로4가 188-6
을지로인쇄골목,"여행 > 관광,명소 > 테마거리",37.5652780908668,126.994444721696,서울 중구 인현동1가 38-10
한화불꽃길,"여행 > 관광,명소 > 테마거리",37.5681716162649,126.988055916041,서울 종로구 관철동 37-9
서울도보관광코스 1코스(청계천),"여행 > 관광,명소 > 도보여행",37.56872714817243,126.9955039562256,서울 종로구 장사동
세운옥상 (휴업중),"여행 > 관광,명소 > 전망대",37.5693217949522,126.995241309594,서울 종로구 장사동 116-4
clayu,"여행 > 관광,명소 > 도자기,도예촌",37.5747021520343,126.989336325289,서울 종로구 익선동 42
을지로타일상가,"여행 > 관광,명소 > 테마거리",37.5663733188651,126.988984360243,서울 중구 을지로2가
효성한국도자기,"여행 > 관광,명소 > 도자기,도예촌",37.5714842722112,126.998668795975,서울 종로구 인의동 48-2
경복궁,"여행 > 관광,명소 > 문화유적 > 고궁,궁",37.577613288258206,126.97689786832184,서울 종로구 세종로 1-1
운현궁,"여행 > 관광,명소 > 문화유적 > 고궁,궁",37.576226410093,126.987085596535,서울 종로구 운니동 114-10
삼청동거리,"여행 > 관광,명소 > 테마거리",37.5820641053666,126.981482777468,서울 종로구 팔판동 67-1
서울도보관광코스 북촌한옥마을,"여행 > 관광,명소 > 도보여행",37.58180515634144,126.98530039220928,서울 종로구 가회동
핸더스,"여행 > 관광,명소 > 도자기,도예촌",37.5774838558604,126.984264268354,서울 종로구 안국동 75-1
동네골목길관광코스 문학둘레길,"여행 > 관광,명소 > 도보여행",37.57936688060934,126.97381689463504,서울 종로구 창성동 117-9
서울명예도로 감고당길,"여행 > 관광,명소 > 도보여행",37.5775556820761,126.98246652909071,서울 종로구 송현동 34-4
동네골목길관광코스 3코스(삼청동),"여행 > 관광,명소 > 도보여행",37.58366439471216,126.98229753672688,서울 종로구 삼청동
궁중문화축전,"여행 > 관광,명소 > 문화유적 > 고궁,궁",37.5776195923364,126.976883149476,서울 종로구 세종로 1-1
서울도보관광코스 경복궁~효자동코스,"여행 > 관광,명소 > 도보여행",37.58045942851329,126.97639319906992,서울 종로구 세종로 1-1
경복궁 연생전,"여행 > 관광,명소 > 문화유적 > 고궁,궁",37.5794180876674,126.977457698361,서울 종로구 세종로 1-1
동네골목길관광코스 8코스(가회동),"여행 > 관광,명소 > 도보여행",37.58117763842169,126.98220302721134,서울 종로구 화동
동네골목길관광코스 북촌코스,"여행 > 관광,명소 > 도보여행",37.58185908346965,126.98427240460266,서울 종로구 가회동
운현궁 노안당,"여행 > 관광,명소 > 문화유적 > 고궁,궁",37.5758984891047,126.987466019621,서울 종로구 운니동 114-7
녹산,"여행 > 관광,명소 > 산",37.5829790400566,126.978670289716,서울 종로구 세종로 1-1
인사동삼청동나들길,"여행 > 관광,명소 > 도보여행",37.58119491431154,126.97781038508566,서울 종로구 세종로 1-7
용무루,"여행 > 관광,명소 > 문화유적 > 고궁,궁",37.5776556356491,126.976901251447,서울 종로구 세종로 1-1
동네골목길관광코스 세종한울길,"여행 > 관광,명소 > 도보여행",37.57853547328877,126.97942778874852,서울 종로구 세종로 1-65
융문루,"여행 > 관광,명소 > 문화유적 > 고궁,궁",37.5775547384554,126.976973734972,서울 종로구 세종로 1-1
서울명예도로 고하길,"여행 > 관광,명소 > 도보여행",37.58308120172867,126.98736065754063,서울 종로구 계동 2-21
창덕궁,"여행 > 관광,명소 > 문화유적 > 고궁,궁",37.57964694739535,126.99099980677128,서울 종로구 와룡동 2-71
창경궁,"여행 > 관광,명소 > 문화유적 > 고궁,궁",37.5794165384496,126.995199911733,서울 종로구 와룡동 2-1
창덕궁 후원,"여행 > 관광,명소 > 문화유적 > 고궁,궁",37.581827397819,126.991617688796,서울 종로구 와룡동 2-71
창경궁 대온실,"여행 > 관광,명소 > 수목원,식물원",37.5830168543695,126.993999600727,서울 종로구 와룡동 2-1
창경궁 춘당지,"여행 > 관광,명소 > 저수지",37.581899665179,126.994909926037,서울 종로구 와룡동
토전김익영도자예술,"여행 > 관광,명소 > 도자기,도예촌",37.57890799064277,126.98930176284074,서울 종로구 와룡동 3
창덕궁 성정각,"여행 > 관광,명소 > 문화유적 > 고궁,궁",37.5793731584102,126.992632321626,서울 종로구 와룡동 2-71
부용지,"여행 > 관광,명소 > 저수지",37.5817049480955,126.992921917365,서울 종로구 와룡동
궁궐담장길,"여행 > 관광,명소 > 도보여행",37.5770703016071,126.994135925226,서울 종로구 와룡동 2-123
창덕궁 원역처소,"여행 > 관광,명소 > 문화유적 > 고궁,궁",37.5778845821524,126.990730585505,서울 종로구 와룡동 2-71
서울천주교순례길 말씀의길,"여행 > 관광,명소 > 도보여행",37.576234274024536,126.99654951735786,서울 종로구 원남동
창덕궁 영화당,"여행 > 관광,명소 > 문화유적 > 고궁,궁",37.5818743490413,126.99316191363,서울 종로구 와룡동 2-71
자생식물학습장,"여행 > 관광,명소 > 수목원,식물원",37.582663709448,126.994950631255,서울 종로구 와룡동 2-1
창덕궁 관람정,"여행 > 관광,명소 > 문화유적 > 고궁,궁",37.5839646556439,126.99319342306,서울 종로구 와룡동 2-71
서울도보관광코스 창덕궁~생태코스,"여행 > 관광,명소 > 도보여행",37.57912077838424,126.99115157040868,서울 종로구 와룡동
창덕궁 요금문,"여행 > 관광,명소 > 문화유적 > 고궁,궁",37.5814307957252,126.989550469752,서울 종로구 와룡동 2-71
창덕궁 상량정,"여행 > 관광,명소 > 문화유적 > 고궁,궁",37.5790452441492,126.993438402492,서울 종로구 와룡동 2-71
창덕궁 애련정,"여행 > 관광,명소 > 문화유적 > 고궁,궁",37.5829339142536,126.993107473539,서울 종로구 와룡동 2-71
창덕궁 승화루,"여행 > 관광,명소 > 문화유적 > 고궁,궁",37.5790884743447,126.993130469859,서울 종로구 와룡동 2-71
서울명예도로 소나무길,"여행 > 관광,명소 > 도보여행",37.58218448866553,127.0002309561932,서울 종로구 명륜4가 79
창덕궁 진설청,"여행 > 관광,명소 > 문화유적 > 고궁,궁",37.5794882921093,126.990001315987,서울 종로구 와룡동 2-71
창덕궁 취운정,"여행 > 관광,명소 > 문화유적 > 고궁,궁",37.5787425374813,126.993950131965,서울 종로구 와룡동 2-71
동네골목길관광코스 12코스(혜화동),"여행 > 관광,명소 > 도보여행",37.58601550969816,127.000774422215,서울 종로구 혜화동
창덕궁 관물헌,"여행 > 관광,명소 > 문화유적 > 고궁,궁",37.5795101184484,126.992777216636,서울 종로구 와룡동 2-71
창덕궁 옥당,"여행 > 관광,명소 > 문화유적 > 고궁,궁",37.5789080607506,126.990105545727,서울 종로구 와룡동 2-71
서울도보관광코스 창경궁,"여행 > 관광,명소 > 도보여행",37.58008324395705,126.9945115482502,서울 종로구 와룡동
창덕궁 선향재,"여행 > 관광,명소 > 문화유적 > 고궁,궁",37.583236624097,126.992708927376,서울 종로구 와룡동 2-71
도심고궁나들길,"여행 > 관광,명소 > 도보여행",37.57900170361844,126.98940816589278,서울 종로구 와룡동
동네골목길관광코스 13코스(명륜동),"여행 > 관광,명소 > 도보여행",37.58423147754335,126.99598306367513,서울 종로구 명륜3가
창덕궁 농수정,"여행 > 관광,명소 > 문화유적 > 고궁,궁",37.58337358244162,126.992828922577,서울 종로구 와룡동 2-71
창덕궁 양지당,"여행 > 관광,명소 > 문화유적 > 고궁,궁",37.5794775184013,126.990463213089,서울 종로구 와룡동 2-71
창덕궁 검서청,"여행 > 관광,명소 > 문화유적 > 고궁,궁",37.579084630151,126.989806650269,서울 종로구 와룡동 2-71
창덕궁 석복헌,"여행 > 관광,명소 > 문화유적 > 고궁,궁",37.578656029264,126.993705608653,서울 종로구 와룡동 2-71
서울도보관광코스 창경궁~생태코스,"여행 > 관광,명소 > 도보여행",37.579441766280816,126.99519991011324,서울 종로구 와룡동
창덕궁 의두합,"여행 > 관광,명소 > 문화유적 > 고궁,궁",37.5824041319377,126.993139222344,서울 종로구 와룡동 2-71
창덕궁 삼삼와,"여행 > 관광,명소 > 문화유적 > 고궁,궁",37.5791821753435,126.993089705911,서울 종로구 와룡동 2-71
창덕궁 기오헌,"여행 > 관광,명소 > 문화유적 > 고궁,궁",37.5818310011499,126.99160863133,서울 종로구 와룡동 2-71
서울도보관광코스 성균관유생들의이야기,"여행 > 관광,명소 > 도보여행",37.585673064530994,126.995924112278,서울 종로구 명륜3가
서울도보관광코스 창덕궁,"여행 > 관광,명소 > 도보여행",37.57928301466299,126.99195307394916,서울 종로구 와룡동
창경궁 외행각,"여행 > 관광,명소 > 문화유적 > 고궁,궁",37.5788435486728,126.996390904686,서울 종로구 와룡동 2-1
창덕궁 수강재,"여행 > 관광,명소 > 문화유적 > 고궁,궁",37.5785298984347,126.993864110872,서울 종로구 와룡동 2-71
창덕궁 농산정,"여행 > 관광,명소 > 문화유적 > 고궁,궁",37.5818201895485,126.991613161074,서울 종로구 와룡동 2-71
창덕궁 한정당,"여행 > 관광,명소 > 문화유적 > 고궁,궁",37.5789191216982,126.993746341701,서울 종로구 와룡동 2-71
창덕궁 내재실,"여행 > 관광,명소 > 문화유적 > 고궁,궁",37.5818346054461,126.991613159457,서울 종로구 와룡동 2-71
창덕궁 영의사,"여행 > 관광,명소 > 문화유적 > 고궁,궁",37.5792756670671,126.990114553835,서울 종로구 와룡동 2-71
북한산둘레길 7구간옛성길,"여행 > 관광,명소 > 도보여행 > 둘레길 > 북한산둘레길",37.60759496019467,126.94698432423915,서울 서대문구 홍은동
백사실계곡,"여행 > 관광,명소 > 계곡",37.6007182426879,126.965438573028,서울 종로구 부암동 115
인왕산길,"여행 > 관광,명소 > 드라이브코스",37.5964754045032,126.971964030612,서울 종로구 부암동 76-2
무계동천,"여행 > 관광,명소 > 전망대",37.59111959002996,126.9612762458181,서울 종로구 부암동 321-2
탕춘대성숲나들길,"여행 > 관광,명소 > 도보여행",37.596235225372034,126.95560278130914,서울 서대문구 홍은동
백사실두메나들길,"여행 > 관광,명소 > 도보여행",37.60087813566919,126.97028073282172,서울 종로구 평창동
서울둘레길 18코스 계곡과 산이 만난 도심길,"여행 > 관광,명소 > 도보여행 > 둘레길",37.6078719424666,126.96198218724,서울 종로구 구기동 17-21
동네골목길관광코스 4코스(부암동),"여행 > 관광,명소 > 도보여행",37.596115522946974,126.96390976586964,서울 종로구 부암동
서울 한양도성 백악구간,"여행 > 관광,명소 > 도보여행 > 서울한양도성",37.593727176178135,126.98599555231849,서울 종로구 삼청동
북악산,"여행 > 관광,명소 > 산",37.59299978527817,126.97373059332416,서울 종로구 삼청동 산 2-27
삼청동길,"여행 > 관광,명소 > 드라이브코스",37.5906452023744,126.981743337459,서울 종로구 삼청동 산 2-1
말바위전망대,"여행 > 관광,명소 > 전망대",37.5932784900379,126.986061310161,서울 종로구 삼청동 산 2-1
하늘전망대,"여행 > 관광,명소 > 전망대",37.6064329304442,126.985843679819,서울 종로구 평창동 산 6-78
북악스카이웨이길,"여행 > 관광,명소 > 도보여행",37.60335016260704,126.98993923530196,서울 성북구 성북동
북악하늘길 2산책로,"여행 > 관광,명소 > 도보여행",37.5985847397082,126.981736868152,서울 성북구 성북동
서울테마산책길 삼청공원 순환산책길,"여행 > 관광,명소 > 도보여행",37.59098430581851,126.98402138483104,서울 종로구 삼청동 산 2-1
성북동고택북촌 산책길,"여행 > 관광,명소 > 도보여행",37.59468288860919,126.99367255379846,서울 성북구 성북동
서울도보관광코스 성북동,"여행 > 관광,명소 > 도보여행",37.594978569488944,126.99818373946496,서울 성북구 성북동
북악하늘나들길,"여행 > 관광,명소 > 도보여행",37.59602979889251,126.983576425627,서울 성북구 성북동
북한산둘레길 9구간마실길,"여행 > 관광,명소 > 도보여행 > 둘레길 > 북한산둘레길",37.64292139966376,126.94056877482242,서울 은평구 진관동
아쿠아필드 고양,"여행 > 관광,명소 > 테마파크 > 워터테마파크",37.647922250654574,126.89671586537472,경기 고양시 덕양구 동산동 370
북한산둘레길 8구간구름정원길,"여행 > 관광,명소 > 도보여행 > 둘레길 > 북한산둘레길",37.62612118319853,126.93626843562684,서울 은평구 불광동
서울 둘레길 스탬프 8-2구간,"여행 > 관광,명소 > 도보여행 > 둘레길 > 북한산둘레길",37.6128333716833,126.93960962844,서울 은평구 불광동 638-5
봉산,"여행 > 관광,명소 > 산",37.612409108111,126.901056405398,서울 은평구 구산동 산 136-13
연신내로데오거리,"여행 > 관광,명소 > 테마거리",37.6188202127991,126.919596892691,서울 은평구 갈현동 398-11
앵봉산,"여행 > 관광,명소 > 산",37.6297103480502,126.908347206894,경기 고양시 덕양구 용두동
불광먹자골목,"여행 > 관광,명소 > 테마거리 > 먹자골목",37.610534709918,126.930958670499,서울 은평구 불광동 281-82
이말산,"여행 > 관광,명소 > 산",37.6391317305676,126.924578343501,서울 은평구 진관동 산 74
서울테마산책길 서울둘레길 7코스 서오릉고개 녹지연결로,"여행 > 관광,명소 > 도보여행",37.621824039364554,126.90722868184464,서울 은평구 갈현동 산 131-1
폭포동골,"여행 > 관광,명소 > 계곡",37.6279799211572,126.934626507403,서울 은평구 진관동
큰골,"여행 > 관광,명소 > 계곡",37.6425323698457,126.902847479507,경기 고양시 덕양구 동산동
슈팅몬스터,"여행 > 관광,명소 > 테마파크",37.6470124534939,126.894897332902,경기 고양시 덕양구 동산동 370
불광사계곡,"여행 > 관광,명소 > 계곡",37.6228747571472,126.944875612987,서울 은평구 불광동
백초월길,"여행 > 관광,명소 > 테마거리",37.6399780601301,126.944635242487,서울 은평구 진관동 산 35-2
서울테마산책길 생각숲길,"여행 > 관광,명소 > 도보여행",37.61846664301901,126.93033062366624,서울 은평구 불광동 331-210
뒷골,"여행 > 관광,명소 > 계곡",37.6536718024209,126.927451090466,경기 고양시 덕양구 지축동
서울 둘레길 스탬프 7-3구간,"여행 > 관광,명소 > 도보여행 > 둘레길",37.6357210815884,126.91470020374,서울 은평구 진관동 382-7
서울명예도로 이호철길,"여행 > 관광,명소 > 도보여행",37.62080373199804,126.93332336339904,서울 은평구 불광동 189-61
서울둘레길 17코스 하늘과 맞닿은 길,"여행 > 관광,명소 > 도보여행 > 둘레길",37.6264184259615,126.936115252678,서울 은평구 진관동 134
서울둘레길 16코스 능선따라 고즈넉함을 느끼는 산길,"여행 > 관광,명소 > 도보여행 > 둘레길",37.6130695917758,126.901126884489,서울 은평구 구산동 산 136-2
서오릉나들길,"여행 > 관광,명소 > 도보여행",37.6303401974477,126.89851314019454,경기 고양시 덕양구 용두동
작은골,"여행 > 관광,명소 > 계곡",37.6431575865832,126.896415402685,경기 고양시 덕양구 동산동
진관공원나들길,"여행 > 관광,명소 > 도보여행",37.639329324440865,126.92939567905056,서울 은평구 진관동
서울명예도로 백초월길,"여행 > 관광,명소 > 도보여행",37.64110963855268,126.9426278036439,서울 은평구 진관동 186
북한산둘레길 6구간평창마을길,"여행 > 관광,명소 > 도보여행 > 둘레길 > 북한산둘레길",37.61282126254865,126.9687582933755,서울 종로구 평창동
북한산둘레길 명상길5구간,"여행 > 관광,명소 > 도보여행 > 둘레길 > 북한산둘레길",37.615163932875014,126.989905929989,서울 성북구 정릉동
서울 둘레길 스탬프 8-3구간,"여행 > 관광,명소 > 도보여행 > 둘레길 > 북한산둘레길",37.6128024122592,126.982070907219,서울 종로구 평창동 산 6-2
북한산둘레길 내시묘역길10구간,"여행 > 관광,명소 > 도보여행 > 둘레길 > 북한산둘레길",37.6525077125839,126.94787257335727,서울 은평구 진관동
진관사계곡,"여행 > 관광,명소 > 계곡",37.6354834005742,126.949438870816,서울 은평구 진관동
청수장계곡,"여행 > 관광,명소 > 계곡",37.6167753291802,126.999211666927,서울 성북구 정릉동 966-1
북한산국립공원 정릉분소,"여행 > 관광,명소 > 국립공원 > 국립공원 지구",37.618142103520825,126.99746052427804,서울 성북구 정릉동 829
칼바위능선,"여행 > 관광,명소 > 산",37.6299044069917,126.994879465202,서울 성북구 정릉동 산 1-1
삼천사계곡,"여행 > 관광,명소 > 계곡",37.640167293232,126.95532285509,서울 은평구 진관동
평창계곡,"여행 > 관광,명소 > 계곡",37.6182184310283,126.977812979047,서울 종로구 평창동
북한산 진달래능선,"여행 > 관광,명소 > 숲",37.6474015144166,126.994447675823,서울 강북구 수유동
북한산국립공원 북한산성지구,"여행 > 관광,명소 > 국립공원 > 국립공원 지구",37.6550924917542,126.949625028363,서울 은평구 진관동
백련사 계곡,"여행 > 관광,명소 > 계곡",37.6459672787703,126.999741651924,서울 강북구 수유동 산 127-4
북한산 응봉능선,"여행 > 관광,명소 > 산",37.6373918683427,126.954300307371,서울 은평구 진관동 산 34
구기계곡,"여행 > 관광,명소 > 계곡",37.6211816534627,126.965941095679,서울 종로구 평창동 산 6-1
소귀천계곡,"여행 > 관광,명소 > 계곡",37.648806993673,126.993382411383,서울 강북구 우이동
동네골목길관광코스 5코스(평창동),"여행 > 관광,명소 > 도보여행",37.613229708395686,126.97367364402572,서울 종로구 평창동
백운동계곡,"여행 > 관광,명소 > 계곡",37.6468588517021,126.972936582732,경기 고양시 덕양구 북한동 산 1-1
이어령길,"여행 > 관광,명소 > 테마거리",37.6120642504067,126.971605943751,서울 종로구 평창동 497
용유동계곡,"여행 > 관광,명소 > 계곡",37.6467863995926,126.975343351672,경기 고양시 덕양구 북한동 산 1-1
서울한양도성 낙산구간2코스,"여행 > 관광,명소 > 도보여행 > 서울한양도성",37.58079664277135,127.00863578989066,서울 성북구 삼선동1가
동대문생선구이골목,"여행 > 관광,명소 > 테마거리 > 먹자골목",37.5700929973642,127.005863527702,서울 종로구 종로5가 281-9
동대문닭한마리골목,"여행 > 관광,명소 > 테마거리 > 먹자골목",37.5702948324364,127.005614512719,서울 종로구 종로5가 247-3
서울한양도성 흥인지문구간,"여행 > 관광,명소 > 도보여행 > 서울한양도성",37.56546880835642,127.01001039252864,서울 중구 을지로7가 4-23
몽골타운,"여행 > 관광,명소 > 테마거리",37.5656024063472,127.006406481563,서울 중구 광희동1가 143-2
청계천 애완동물거리,"여행 > 관광,명소 > 테마거리",37.5700164638864,127.015331184888,서울 종로구 창신동
낙산,"여행 > 관광,명소 > 산",37.5803857797556,127.00876933152875,서울 종로구 창신동 615-62
낙산공원 제1전망광장,"여행 > 관광,명소 > 전망대",37.5816472642184,127.007408659153,서울 종로구 동숭동 산 2-32
청계천헌책방거리,"여행 > 관광,명소 > 테마거리",37.5694406753062,127.005890643251,서울 중구 을지로6가 17
동대문종합시장 먹거리장터,"여행 > 관광,명소 > 테마거리 > 먹자골목",37.5708353739132,127.006684261532,서울 종로구 종로6가 94-1
종로5가곱창골목,"여행 > 관광,명소 > 테마거리 > 먹자골목",37.5704138094579,127.004555007081,서울 종로구 종로5가 194-1
수족관거리,"여행 > 관광,명소 > 테마거리",37.5707337851724,127.014303507845,서울 종로구 창신동
동대문패션타운,"여행 > 관광,명소 > 테마거리",37.5686620440324,127.008666082868,서울 중구 을지로6가
동대문러시아거리,"여행 > 관광,명소 > 테마거리",37.5649140739777,127.005854066744,서울 중구 광희동1가
낙산공원 제2전망광장,"여행 > 관광,명소 > 전망대",37.5824762184616,127.006738512868,서울 종로구 동숭동 산 2-10
돌산마을 조망점,"여행 > 관광,명소 > 전망대",37.576374262199494,127.01207331568348,서울 종로구 창신동 23-785
서울중앙시장 쌈밥골목,"여행 > 관광,명소 > 테마거리 > 먹자골목",37.5667938401715,127.019790230942,서울 중구 황학동 409
대학로거리,"여행 > 관광,명소 > 테마거리",37.5826529558737,127.003423607375,서울 종로구 동숭동 1-151
이화달팽이길,"여행 > 관광,명소 > 테마거리",37.576899015390765,127.00757346918172,서울 종로구 이화동 9-244
서울도보관광코스 낙산성곽,"여행 > 관광,명소 > 도보여행",37.57885413561205,127.0081329185656,서울 종로구 창신동
창신동족발골목,"여행 > 관광,명소 > 테마거리 > 먹자골목",37.5728135551189,127.011836153613,서울 종로구 창신동 581-5
네팔음식거리,"여행 > 관광,명소 > 테마거리 > 먹자골목",37.5729540785942,127.012148607425,서울 종로구 창신동 141-4
봉제골목,"여행 > 관광,명소 > 테마거리",37.5742408756938,127.010292307055,서울 종로구 창신동
서울도보관광코스 2코스(청계천),"여행 > 관광,명소 > 도보여행",37.57008970116378,127.0285071570694,서울 성동구 하왕십리동
창신동인장거리,"여행 > 관광,명소 > 테마거리",37.5720862722786,127.013511376781,서울 종로구 창신동 455-1
동네골목길관광코스 11코스(이화동),"여행 > 관광,명소 > 도보여행",37.57893722244278,127.00447401585554,서울 종로구 이화동
서울명예도로 박수근길,"여행 > 관광,명소 > 도보여행",37.57142916541354,127.01577973670966,서울 종로구 숭인동 316-3
해림도기,"여행 > 관광,명소 > 도자기,도예촌",37.5703559466498,127.008231606821,서울 종로구 종로6가 289-3
백호한국도자기,"여행 > 관광,명소 > 도자기,도예촌",37.5667736426042,127.007407185821,서울 중구 을지로6가 18-21
동네골목길관광코스 10코스(종로5.6가동),"여행 > 관광,명소 > 도보여행",37.571249841408736,127.00651110675614,서울 종로구 종로6가
동네골목길관광코스 14코스(창신동),"여행 > 관광,명소 > 도보여행",37.574237065079494,127.0124386124157,서울 종로구 창신동
이화대학로거리,"여행 > 관광,명소 > 테마거리",37.58021308245,127.002757815941,서울 종로구 이화동
문화의벽,"여행 > 관광,명소 > 도보여행",37.5698117432161,127.008263241554,서울 종로구 종로6가
동네골목길관광코스 15코스(숭인동),"여행 > 관광,명소 > 도보여행",37.57766732894043,127.01804066435535,서울 종로구 숭인동
청계천매화거리,"여행 > 관광,명소 > 테마거리",37.566475538485,127.048635495466,서울 성동구 용답동 130
왕십리곱창거리,"여행 > 관광,명소 > 테마거리 > 먹자골목",37.5650419716297,127.036346888919,서울 성동구 홍익동 590
용두동쭈꾸미골목,"여행 > 관광,명소 > 테마거리 > 먹자골목",37.5771276277662,127.031063770884,서울 동대문구 용두동 119-6
청량리통닭골목,"여행 > 관광,명소 > 테마거리 > 먹자골목",37.5804217059895,127.04249040816,서울 동대문구 제기동 850
용답동로데오거리,"여행 > 관광,명소 > 테마거리",37.5649593903294,127.054312006579,서울 성동구 용답동 125-1
한국도자기,"여행 > 관광,명소 > 도자기,도예촌",37.5846688527497,127.03757917929,서울 동대문구 제기동 730-11
서울테마산책길 배봉두메십리길,"여행 > 관광,명소 > 도보여행 > 둘레길",37.57279667512041,127.0572246631345,서울 동대문구 답십리동 산 245-1
서울테마산책길 홍릉 두물길,"여행 > 관광,명소 > 도보여행",37.58006017100839,127.0349730190753,서울 동대문구 제기동 271-48
서울도보관광코스 동대문전통마켓코스,"여행 > 관광,명소 > 도보여행",37.57188021046639,127.04268025599868,서울 성동구 용답동
개운산,"여행 > 관광,명소 > 산",37.5943802460087,127.02948568898,서울 성북구 안암동5가 126-87
개운산숲나들길,"여행 > 관광,명소 > 도보여행",37.59610654446913,127.02949089953844,서울 성북구 종암동
오롯한손길,"여행 > 관광,명소 > 도자기,도예촌",37.6034759827831,127.024530232973,서울 성북구 길음동 1276
정유정 도예작업실,"여행 > 관광,명소 > 도자기,도예촌",37.5893383324785,127.003106884538,서울 성북구 성북동1가 109-3
정릉숲산책길,"여행 > 관광,명소 > 도보여행",37.60209997377461,127.00318442108694,서울 성북구 정릉동
돈암동거리,"여행 > 관광,명소 > 테마거리",37.5923245799781,127.018714518655,서울 성북구 동선동1가
홍릉시험림,"여행 > 관광,명소 > 숲",37.59396455518687,127.0448510609214,서울 동대문구 청량리동 207
회기역파전골목,"여행 > 관광,명소 > 테마거리 > 먹자골목",37.5891520316827,127.056141170779,서울 동대문구 휘경동 334-9
홍릉수목원길,"여행 > 관광,명소 > 도보여행",37.593957808126255,127.04362136120685,서울 동대문구 청량리동
천장산,"여행 > 관광,명소 > 산",37.6026431677865,127.052907976344,서울 성북구 석관동 산 1-5
천장산산책길,"여행 > 관광,명소 > 도보여행",37.60420759095032,127.0522250713702,서울 성북구 상월곡동
삼태기숲,"여행 > 관광,명소 > 숲",37.6043347875747,127.049776752169,서울 성북구 상월곡동 산 7-4
천장산 하늘길,"여행 > 관광,명소 > 도보여행",37.5918687216829,127.04518269487,서울 동대문구 청량리동 207-43
국립산림과학원 외국수목원,"여행 > 관광,명소 > 수목원,식물원",37.5944884396314,127.041261906693,서울 동대문구 청량리동 207-41
회기동벽화골목,"여행 > 관광,명소 > 테마거리",37.5918359308667,127.054553459729,서울 동대문구 회기동 3-20
선동호,"여행 > 관광,명소 > 호수",37.5951338024769,127.049935943495,서울 동대문구 회기동 1-5
오동공원산책길,"여행 > 관광,명소 > 도보여행",37.609022171130654,127.04415565850026,서울 성북구 상월곡동
아차산,"여행 > 관광,명소 > 산",37.56684449678786,127.10274196113546,경기 구리시 아천동 산 49-1
용마산,"여행 > 관광,명소 > 산",37.5711282880022,127.095764720133,서울 중랑구 면목동
봉화산,"여행 > 관광,명소 > 산",37.60857753365413,127.08709217385756,서울 중랑구 묵동 산 46-19
배봉산,"여행 > 관광,명소 > 산",37.58108057559949,127.06393655748263,서울 동대문구 전농동 산 32-20
중랑천제방 장미벚꽃길,"여행 > 관광,명소 > 도보여행",37.59812120607576,127.07150297439844,서울 중랑구 중화동
망우산,"여행 > 관광,명소 > 산",37.5916815560277,127.11233594816,경기 구리시 교문동 산 84-2
장안벚꽃안길,"여행 > 관광,명소 > 도보여행",37.5796874324189,127.076409977955,서울 중랑구 면목동 727-24
배봉산무장애숲길,"여행 > 관광,명소 > 도보여행 > 둘레길",37.5799719945865,127.064595626432,서울 동대문구 전농동 산 32-20
장안평제방길,"여행 > 관광,명소 > 테마거리",37.5726339014378,127.077251765966,서울 동대문구 장안동
배봉산답십리나들길,"여행 > 관광,명소 > 도보여행",37.585514705287,127.06496045156268,서울 동대문구 휘경동
서울둘레길 4코스 도시를 벗어나 만나는 길,"여행 > 관광,명소 > 도보여행 > 둘레길",37.60444155624572,127.11215695040858,서울 중랑구 망우동 산 33
장안동맛의거리,"여행 > 관광,명소 > 테마거리 > 먹자골목",37.5706632951254,127.071747255805,서울 동대문구 장안동 477-3
2024 동대문구 중랑천 눈썰매장,"스포츠,레저 > 스포츠시설 > 눈썰매장",37.5684277756157,127.07629773277,서울 동대문구 장안동 19-6
중랑천제방산책로,"여행 > 관광,명소 > 도보여행",37.57509171223657,127.07740826102392,서울 중랑구 면목동
태릉시장특화거리,"여행 > 관광,명소 > 테마거리 > 먹자골목",37.599329002659,127.077880661586,서울 중랑구 중화동 314-1
서울명예도로 88볼링길,"여행 > 관광,명소 > 도보여행",37.594940625000994,127.08005129601268,서울 중랑구 상봉동 160-10
중랑구 무장애나눔길,"여행 > 관광,명소 > 도보여행 > 무장애나눔길",37.585447508623574,127.10148475560187,서울 중랑구 면목동 산 1-3
아토피치유의숲,"여행 > 관광,명소 > 도보여행 > 둘레길",37.5852700003777,127.102541974912,서울 중랑구 면목동 산 1-3
동국대학교 사범대학 부속고등학교 동국천문대,"여행 > 관광,명소 > 천문대",37.5775082557418,127.074487765219,서울 동대문구 장안동 328
망우산숲나들길,"여행 > 관광,명소 > 도보여행",37.591193744838776,127.10986232829474,서울 중랑구 망우동
구릉산,"여행 > 관광,명소 > 산",37.6078469505348,127.103666982057,서울 중랑구 신내동 산 77-19
중랑청소년체험의숲 운영센터,"여행 > 관광,명소 > 숲",37.6059198114143,127.113381134465,서울 중랑구 망우동 74
구리둘레길 1코스,"여행 > 관광,명소 > 도보여행",37.580907581070115,127.1141175622097,경기 구리시 아천동
중랑캠핑숲나들길,"여행 > 관광,명소 > 도보여행",37.60223520171294,127.11102459391712,서울 중랑구 망우동
서울명예도로 서울장미길,"여행 > 관광,명소 > 도보여행",37.60945116042528,127.07296801528754,서울 중랑구 묵동 189-11
용마산나들길,"여행 > 관광,명소 > 도보여행",37.57249856986192,127.09481107416144,서울 중랑구 면목동
서울명예도로 우림맛솜씨길,"여행 > 관광,명소 > 도보여행",37.59835566536083,127.09653338959028,서울 중랑구 망우동 536-10
서울테마산책길 팔각정길,"여행 > 관광,명소 > 도보여행",37.568971223761814,127.09362033210417,서울 광진구 중곡동 176-122
서울명예도로 서일대학길,"여행 > 관광,명소 > 도보여행",37.58768401711977,127.0969045611831,서울 중랑구 면목동 52-7
북한산둘레길 솔샘길4구간,"여행 > 관광,명소 > 도보여행 > 둘레길 > 북한산둘레길",37.618746670005585,127.00236959242947,서울 성북구 정릉동
북한산둘레길 3구간흰구름길,"여행 > 관광,명소 > 도보여행 > 둘레길 > 북한산둘레길",37.632326065962104,127.00845142236685,서울 강북구 수유동
북한산둘레길 2구간순례길,"여행 > 관광,명소 > 도보여행 > 둘레길 > 북한산둘레길",37.646878983461086,127.00463672476866,서울 강북구 우이동
북한산둘레길 순례길(무장애탐방구간),"여행 > 관광,명소 > 도보여행 > 둘레길 > 북한산둘레길",37.643833714275786,127.00286440901382,서울 강북구 수유동
북한산자락길,"여행 > 관광,명소 > 도보여행 > 둘레길",37.6208728905976,127.005631906826,서울 성북구 정릉동
419카페거리,"여행 > 관광,명소 > 테마거리 > 카페거리",37.644185949233,127.004467728667,서울 강북구 수유동 535-221
북서울꿈의숲 전망대,"여행 > 관광,명소 > 전망대",37.6201854793479,127.038861157809,서울 강북구 번동
초안산,"여행 > 관광,명소 > 산",37.63923308207757,127.04671939028738,서울 노원구 월계동 산 6
북한산생태숲 앞,"여행 > 관광,명소 > 숲",37.621218796327,127.007004801522,서울 성북구 정릉동
수유동먹자골목,"여행 > 관광,명소 > 테마거리 > 먹자골목",37.6389045375874,127.024903302958,서울 강북구 수유동 192-61
미아사거리 먹자골목,"여행 > 관광,명소 > 테마거리 > 먹자골목",37.6127772732537,127.030634613669,서울 강북구 미아동 860-68
월곡산,"여행 > 관광,명소 > 산",37.6100285237526,127.044295558339,서울 성북구 상월곡동 산 1-1
창동로데오거리,"여행 > 관광,명소 > 테마거리",37.6526673397818,127.049684343333,서울 도봉구 창동
오패산,"여행 > 관광,명소 > 산",37.6297092999916,127.031516129177,서울 강북구 번동 산 19
쥬니버스,"여행 > 관광,명소 > 동물원 > 실내동물원",37.6433425374586,127.015935436309,서울 강북구 수유동 340-13
영축산,"여행 > 관광,명소 > 산",37.62507766956953,127.05702230134229,서울 노원구 월계동 산 122-11
구름전망대,"여행 > 관광,명소 > 전망대",37.629669862252086,127.00970859408685,서울 강북구 수유동 산 127-1
북서울꿈의숲 계절수목원,"여행 > 관광,명소 > 수목원,식물원",37.6218669262768,127.043442832115,서울 강북구 번동 115-5
수유리기사식당골목,"여행 > 관광,명소 > 테마거리 > 먹자골목",37.6327357165464,127.018824343752,서울 강북구 수유동 605-185
둘리테마거리,"여행 > 관광,명소 > 테마거리",37.6480401909774,127.026402093875,서울 도봉구 쌍문동 342-4
덕성여대 시반거리,"여행 > 관광,명소 > 테마거리",37.6515164734828,127.014270260432,서울 도봉구 쌍문동 422-7
영축산순환산책로,"여행 > 관광,명소 > 도보여행",37.6223426149971,127.054388841413,서울 노원구 월계동 산 130-3
북한산자락나들길,"여행 > 관광,명소 > 도보여행",37.6163783993414,127.01083725680368,서울 강북구 미아동
솔샘길전망대(쉼터),"여행 > 관광,명소 > 전망대",37.6206566513916,127.005677199367,서울 성북구 정릉동 232
강북구 우이천 테마산책길B,"여행 > 관광,명소 > 도보여행 > 무장애나눔길",37.639759243207,127.033511074832,서울 강북구 번동 655-4
강북구 우이천 테마산책길A,"여행 > 관광,명소 > 도보여행 > 무장애나눔길",37.635513439006,127.03769880514,서울 강북구 번동 655-8
서울테마산책길 둘리쌍문근린공원 산책로,"여행 > 관광,명소 > 도보여행",37.65392192603808,127.02586929336096,서울 도봉구 쌍문동 산 79
흰구름길전망데크,"여행 > 관광,명소 > 전망대",37.6314899477609,127.00849664311,서울 강북구 수유동 산 164-1
오패산나들길,"여행 > 관광,명소 > 도보여행",37.63165848938869,127.0334927094333,서울 강북구 번동
창동시민천문대,"여행 > 관광,명소 > 천문대",37.6380920527833,127.042985487274,서울 도봉구 창동
빨래골,"여행 > 관광,명소 > 계곡",37.6274760361507,127.008737477855,서울 강북구 수유동 산 127-1
서울테마산책길 오패산자락길,"여행 > 관광,명소 > 도보여행",37.630537347866834,127.03458429416516,서울 강북구 번동 산 19
김근태길,"여행 > 관광,명소 > 테마거리",37.648557331103,127.044478204167,서울 도봉구 창동 355
국립4.19민주묘지 전망대,"여행 > 관광,명소 > 전망대",37.6485834864194,127.007664595078,서울 강북구 수유동 580-1
초안산나들길,"여행 > 관광,명소 > 도보여행",37.63709538683392,127.04811047280565,서울 노원구 월계동
서울둘레길 19코스 사색에 잠겨 걷는 호젓한 숲길,"여행 > 관광,명소 > 도보여행 > 둘레길",37.6172825582899,127.002656111514,서울 성북구 정릉동 966-153
북서울꿈의숲산책길,"여행 > 관광,명소 > 도보여행",37.62125162988767,127.0406967358474,서울 강북구 번동
이지유어디자인,"여행 > 관광,명소 > 도자기,도예촌",37.6328666138386,127.042221163963,서울 도봉구 창동 504-8
두들스,"여행 > 관광,명소 > 도자기,도예촌",37.6308756084497,127.054930909857,서울 노원구 월계동 648
서울둘레길 20코스 묘지 앞에 나라를 생각하는 길,"여행 > 관광,명소 > 도보여행 > 둘레길",37.6495899889726,127.005844842541,서울 강북구 우이동 산 63-57
북서울꿈의숲나들길,"여행 > 관광,명소 > 도보여행",37.62141155643988,127.03656461402684,서울 강북구 번동
덕성여자대학교 비엔나숲,"여행 > 관광,명소 > 숲",37.6516673880496,127.017605273915,서울 도봉구 쌍문동 419
서울명예도로 함석헌길,"여행 > 관광,명소 > 도보여행",37.65308699283542,127.03523388196508,서울 도봉구 쌍문동 81-158
산들소리,"여행 > 관광,명소 > 수목원,식물원",37.65107359115661,127.1015513297845,경기 남양주시 별내동 785-1
경춘선숲길,"여행 > 관광,명소 > 도보여행",37.620691807133,127.078706040469,서울 노원구 공릉동 320-2
불암산철쭉동산,"여행 > 관광,명소 > 자연휴양림",37.65398208207027,127.0790290040692,서울 노원구 중계동 산 45
노원문화의거리,"여행 > 관광,명소 > 테마거리",37.65488557703283,127.0628665469612,서울 노원구 상계동 719-1
봉화산옹기테마공원,"여행 > 관광,명소 > 테마파크",37.6126336282707,127.08851491816,서울 중랑구 신내동 777
불암산 산림치유센터,"여행 > 관광,명소 > 자연휴양림",37.6540401549137,127.081080208244,서울 노원구 중계동 산 95-2
중계동학원가,"여행 > 관광,명소 > 테마거리",37.6502490508494,127.076692983486,서울 노원구 중계동 391
서울둘레길 3코스 하늘을 품은 포근한 숲길,"여행 > 관광,명소 > 도보여행 > 둘레길",37.64466818363771,127.0908950049257,서울 노원구 중계동 산 104-45
불암산둘레길전망대,"여행 > 관광,명소 > 전망대",37.655012906747,127.082821926814,서울 노원구 중계동 산 101-1
장미길,"여행 > 관광,명소 > 테마거리",37.61354179290874,127.07273642851553,서울 중랑구 묵동 235-85
공릉동국수거리,"여행 > 관광,명소 > 테마거리 > 먹자골목",37.6219377310565,127.072603015282,서울 노원구 공릉동 572-4
삼육대학교 제명호,"여행 > 관광,명소 > 호수",37.6412728546584,127.099244726837,서울 노원구 공릉동 26-21
봉화산둘레길,"여행 > 관광,명소 > 도보여행 > 둘레길",37.6100237525661,127.089327268007,서울 중랑구 신내동
불암산둘레길 나절길,"여행 > 관광,명소 > 도보여행 > 둘레길 > 불암산둘레길",37.63465624991571,127.089973062556,서울 노원구 공릉동 산 222-1
서울시민천문대,"여행 > 관광,명소 > 천문대",37.6407452892164,127.064999447952,서울 노원구 중계동 507-2
태능갈비골목,"여행 > 관광,명소 > 테마거리 > 먹자골목",37.6487620442274,127.107236583131,경기 남양주시 별내동 700-2
장미꽃빛거리,"여행 > 관광,명소 > 테마거리",37.6119716453975,127.076573244577,서울 중랑구 묵동 200-3
104마을갈림길,"여행 > 관광,명소 > 도보여행",37.64211339209539,127.09154452692684,서울 노원구 중계동 산 104-40
산들소리수목원 고인돌,"여행 > 관광,명소 > 수목원,식물원",37.6505127566254,127.099936926038,경기 남양주시 별내동 산 124-9
불암동갈비골목,"여행 > 관광,명소 > 테마거리 > 먹자골목",37.6472432293233,127.108938618627,경기 남양주시 별내동 568-1
2024 노원 눈썰매장,"스포츠,레저 > 스포츠시설 > 눈썰매장",37.6294458405742,127.078637104101,서울 노원구 공릉동 172
뒷개울골,"여행 > 관광,명소 > 계곡",37.6509576347816,127.088941133595,서울 노원구 중계동
웃골,"여행 > 관광,명소 > 계곡",37.6402669225307,127.080933807252,서울 노원구 하계동
그림도자기애리,"여행 > 관광,명소 > 도자기,도예촌",37.6181168622233,127.075835373904,서울 노원구 공릉동 670-20
신내저류지,"여행 > 관광,명소 > 저수지",37.61554633039721,127.10721718044132,서울 중랑구 신내동 817-5
서울테마산책길 당현천,"여행 > 관광,명소 > 도보여행",37.649865413048346,127.0675547497478,서울 노원구 중계동 515-6
서울명예도로 옹기테마길,"여행 > 관광,명소 > 도보여행",37.615314619861266,127.08898021310875,서울 중랑구 신내동 650-2
디세,"여행 > 관광,명소 > 도자기,도예촌",37.6255199981304,127.080337824419,서울 노원구 공릉동 223-15
준도예아트,"여행 > 관광,명소 > 도자기,도예촌",37.6200890419782,127.074550615697,서울 노원구 공릉동 597-35
월계공원산책길,"여행 > 관광,명소 > 도보여행",37.626523969946874,127.0584212940198,서울 노원구 월계동
도예공방,"여행 > 관광,명소 > 도자기,도예촌",37.6508102428089,127.078248282055,서울 노원구 중계동 366
당현천길,"여행 > 관광,명소 > 도보여행",37.64940481968973,127.06630332653232,서울 노원구 중계동
